id,title,url,lat,long,state,city
{7E8DD3D9-392C-43A3-8201-A1F220909062},Kingsbury Club Masters Swimming (KING),/clubs/new-england-masters-swim-club-468/wo-group-folder/kingsbury-club-masters-1037,42.0130601,-70.7338524,MA,Kingston
{364FC22E-122A-409C-A417-C14A2EFD420D},Lowell YMCA Flippers Masters Swim Team (LYMT),/clubs/new-england-masters-swim-club-468/wo-group-folder/lowell-ymca-flippers-masters-swim-team-2250,42.6349515,-71.3127528,MA,Lowell
{E2632571-B483-4050-B483-32DE8C3642C0},Cambridge Masters Swimming (CAMB),/clubs/new-england-masters-swim-club-468/wo-group-folder/cambridge-masters-swimming,42.3670947,-71.1249217,MA,Boston
{E1E91DA5-2D6D-4F4E-8FDC-28D275E57A25},Wayland Community Pool Masters Swimming (WCP),/clubs/new-england-masters-swim-club-468/wo-group-folder/wayland-community-pool-masters-swimming-2338,42.3419384,-71.3703812,MA,Wayland
{9B857A62-ECAA-4A5F-BF02-6DAE9E8D2263},Boston University Masters Swimming (BOSMS),/clubs/new-england-masters-swim-club-468/wo-group-folder/boston-university-masters-1023,42.3520119,-71.11653539999998,MA,Boston
{6D526158-957B-4DFD-AAE8-9DB926AD23C3},Granite State Penguins (NH) (GSP),/clubs/new-england-masters-swim-club-468/wo-group-folder/granite-state-penguins-nh-1032,42.8614545,-71.3570154,NH,Londonderry
{614BFBE5-BBC4-473B-96D0-5A4AD880E1DA},Brookline Rec (BRKL),/clubs/new-england-masters-swim-club-468/wo-group-folder/brookline-recreation-2230,42.331430,-71.125952,MA,BROOKLINE
{34742275-1417-4CF1-AB1F-A0E9D5EEA797},Simmons Masters (SIMM),/clubs/new-england-masters-swim-club-468/wo-group-folder/simmons-masters-1050,42.3408463,-71.1060909,MA,Boston
{194ACBBB-1977-416F-81AE-89DD7FFAA9CC},Martha's Vineyard Masters (MVMNE),/clubs/new-england-masters-swim-club-468/wo-group-folder/marthas-vineyard-masters-1070,41.4198207,-70.59284709999997,MA,Oak Bluffs
{639A0CB1-1D8A-4001-A45B-24B4E153E07E},Simon's Rock PaceMakers (SRPM),/clubs/new-england-masters-swim-club-468/wo-group-folder/simons-rock-pacemakers-1960,42.21040199999999,-73.38792099999999,MA,Great Barrington
{517F0D3B-AB14-480F-9C52-A7B335CD800D},JCC Newton Masters (MA) (JCCGB),/clubs/new-england-masters-swim-club-468/wo-group-folder/jcc-newton-masters-ma-1034,42.2993233,-71.20363859999998,MA,Newton
{1662F129-3451-4686-8FEA-3285C5DFA0CB},Tech Masters (MIT),/clubs/new-england-masters-swim-club-468/wo-group-folder/tech-masters-1041,42.358837,-71.096198,MA,Cambridge
{D9F9019B-1C73-4C75-A98B-9F22A5C90D58},Cape Cod Swim Club Masters (CCSC),/clubs/new-england-masters-swim-club-468/wo-group-folder/cape-cod-masters-1028,41.7446125,-70.6162005,MA,Bourne
{969FDB32-0C12-47D4-8000-E919F4BBB5FE},Stowe Masters (STOW),/clubs/new-england-masters-swim-club-468/wo-group-folder/stowe-masters-1205,44.474556,-72.690102,VT,Stowe
{DB98D145-A5DA-4DAE-AA35-D035E767BEA8},Cape Cod Firefish Masters (CCFM),/clubs/new-england-masters-swim-club-468/wo-group-folder/cape-cod-firefish-masters-2363,41.7356248,-70.4589972,MA,Sandwich
{E70B0FC2-2C90-40B1-87F3-3F8FBC5414C0},South County YMCA (SCY),/clubs/new-england-masters-swim-club-468/wo-group-folder/south-county-ymca-2282,41.4512829,-71.4839449,RI,South Kingstown
{9BA60296-053B-4171-A905-AE569F10585A},ABC Masters - Gray Sharks (ABC),/clubs/new-england-masters-swim-club-468/wo-group-folder/abc-masters-gray-sharks-1011,42.447982,-71.3424698,MA,Concord
{37D4CE2E-6F87-4EF1-A93C-EA4AA686FA99},GlenLakeSwimmers (GLS),/clubs/new-england-masters-swim-club-468/wo-group-folder/mma-glenlakeswimmers-2364,43.01546400000001,-71.5805089,NH,Goffstown
{93D3E7E2-4F9E-48E1-A0E2-C7DC5AB9556C},Charles River Aquatics Masters (CRM),/clubs/new-england-masters-swim-club-468/wo-group-folder/charles-river-masters-1027,42.30449499999999,-71.31829900000002,MA,Wellesley
{D2F731A2-1543-4487-B8E7-643D671D5EFD},SwimRI (SWMR),/clubs/new-england-masters-swim-club-468/wo-group-folder/swimri-1055,41.723145,-71.30960199999998,RI,Barrington
{EED8049B-1D2C-4B1B-91AA-6E2F88A6D473},YMCA of the North Shore Masters (YNS),/clubs/new-england-masters-swim-club-468/wo-group-folder/ymca-of-the-north-shore-swimfit-1065,42.5677806,-70.86309210000002,MA,Beverly
{CF50EE8D-9FEF-4536-B3A6-CCA39A3ECA57},UMAMA (UMAS),/clubs/new-england-masters-swim-club-468/wo-group-folder/umass-aquatic-masters-1059,42.32679950000001,-72.5322876,MA,Amherst
{0F102EF2-8D97-4915-92F6-153CD5BE799E},Bunganut Rocks (BNUT),/clubs/new-england-masters-swim-club-468/wo-group-folder/bnut-rocks-2299,43.5123518,-70.704132,ME,Lyman
{6948EAA1-A62A-44E8-9778-DE07B61AA89D},Wild Crab Masters Swimming (WCMSS),/clubs/new-england-masters-swim-club-468/wo-group-folder/weymouth-club-masters-swimming-1783,42.2244296,-70.8053654,MA,Cohasset
{5069A664-3F19-4140-987E-4A30FFE9A81F},Monument Masters (MMVT),/clubs/new-england-masters-swim-club-468/wo-group-folder/monument-masters-1067,42.8805205,-73.1859417,VT,Bennington
{14588004-3FB6-48E1-8075-B189DE5B9AEA},SweetWater Swim Studio (SWS),/clubs/new-england-masters-swim-club-468/wo-group-folder/sweetwater-swim-studio,42.8826611,-71.64043339999999,NH,Amherst
{0251BC2E-CCAA-4F6E-B271-820BA64C8E93},Weymouth Waves Masters (WWM),/clubs/new-england-masters-swim-club-468/wo-group-folder/weymouth-waves-masters,42.19022280000001,-70.96704629999999,MA,Weymouth
{1DF1D19F-735C-4805-8BE3-183329AA5585},Bernon Family YMCA Masters Swimming- Franklin (HOCK),/clubs/new-england-masters-swim-club-468/wo-group-folder/bernon-family-ymca-franklin,42.0782593,-71.4344818,MA,Franklin
{2D09DE46-D458-4340-A58E-2AE01AC3AD67},YMCA of Greater Boston Masters Swimming (YGBMS),/clubs/new-england-masters-swim-club-468/wo-group-folder/ymca-of-greater-boston-masters-swimming,42.5382502,-71.1118936,MA,Reading
{E91B63A9-3AE6-4608-9F42-E30285D3CB3F},Granite YMCA Masters (GYM),/clubs/new-england-masters-swim-club-468/wo-group-folder/granite-ymca-masters,43.0207521,-71.5314676,NH,Goffstown
{8137F527-5E7C-43A5-9943-B16555A28F6E},Mount Wachusett Masters (MWM),/clubs/new-england-masters-swim-club-468/wo-group-folder/mount-wachusett-masters,42.5927342,-71.9852147,MA,Gardner
{05AAAAE5-B709-44BB-8F01-E7A53F9CF23D},"Slow 2 Fast Swimming, Inc. (S2F)",/clubs/new-england-masters-swim-club-468/wo-group-folder/slow-2-fast-swimming-inc,43.0013845,-70.7992434,NH,Rye
{30D38534-E720-4F69-9AA2-D120F9ADA177},West Suburban YMCA Masters (WSY),/clubs/new-england-masters-swim-club-468/wo-group-folder/west-suburban-ymca-masters-1206,42.3545606,-71.19135949999998,MA,Newton
{1AF47667-2D8A-4432-BEDE-A57F5EA3F40A},EDGE Masters (EDGE),/clubs/new-england-masters-swim-club-468/wo-group-folder/edge-masters,44.4512807,-73.204407,VT,South Burlington
{0777A732-9256-4E44-8E9D-46938318CADA},Patriot Aquatic Team (PATS),/clubs/new-england-masters-swim-club-468/wo-group-folder/patriot-aquatic-team,42.45716609999999,-71.2758206,MA,Hanscom AFB
{F6742130-6E1D-464D-B92F-ED07181337D6},Otters Swim Club (OTTR),/clubs/new-england-masters-swim-club-468/wo-group-folder/otters-swim-club,42.4491531,-71.34676619999999,MA,Concord
{17E08AB9-27F3-477E-8FEF-1DB97CDCADC2},Green Mountain Community Fitness Masters (GMCF),/clubs/new-england-masters-swim-club-468/wo-group-folder/green-mountain-community-fitness-masters,44.2146104,-72.5595913,VT,Barre
{C20B26D3-9EB6-4AFD-8725-0FC86A682897},Boston LANES (Liquid Assets New England Swimming) (LANE),/clubs/new-england-masters-swim-club-468/wo-group-folder/boston-lanes-liquid-assets-new-england-swimming-1021,42.3257789,-71.0708731,MA,Boston
{76D52296-1B0A-4FC2-9517-17D4F018C180},"UV Rays (White River Junction, VT) (UVRA)",/clubs/new-england-masters-swim-club-468/wo-group-folder/uv-rays-white-river-junction-vt-1061,43.6414615,-72.34303109999999,VT,Hartford
{B1A31847-D1C8-4CA7-8B2E-6A77222DA575},Pittsfield YMCA Polar Bear Masters (PITY),/clubs/new-england-masters-swim-club-468/wo-group-folder/pittsfield-ymca-polar-bear-masters-1685,42.4525133,-73.2524856,MA,Pittsfield
{38918B91-DE7E-4E25-92FC-9A6F3491707A},BETSY PATTERSON MASTERS (BETS),/clubs/new-mexico-masters-swimming-717/wo-group-folder/betsy-patterson-masters-2311,35.1176727,-106.5570752,NM,Albuquerque
{0D5CCB46-6A21-4155-9AFB-73A2B9ADF2B9},"Taos Swim Club Inc., Taos Masters (TAOSM)",/clubs/new-mexico-masters-swimming-717/wo-group-folder/taos-swim-club-inc-taos-masters,36.3905795,-105.5672313,NM,Taos
{FCB22E0E-76D2-4BD4-85D8-D29BC7763921},"Taos Swim Club Inc., Taos Masters (TAOSM)",/clubs/new-mexico-masters-swimming-717/wo-group-folder/taos-swim-club-inc-taos-masters-1,36.3905795,-105.5672313,NM,Taos
{21470256-040D-4EE1-A8D5-ADFAC3B8FB08},KC WAVE (KCW),/clubs/movy-masters-522/wo-group-folder/kc-wave-2006,39.0353618,-94.57875460000001,MO,KCMO
{90FF621D-3B30-46E3-BDAE-0B841CD03791},Lawrence Masters (LAW),/clubs/movy-masters-522/wo-group-folder/lawrence-masters-2259,38.97637539999999,-95.30355279999999,KS,Lawrence
{C5826F36-8644-46F3-9B20-B0CA3D9570E1},Gladstone Masters (GLAD1),/clubs/movy-masters-522/wo-group-folder/gladstone-masters-1525,39.2206424,-94.5709864,MO,Gladstone
{212A902D-592E-43F9-9866-45F79C79E21A},Princeton Area Masters (PAM),/clubs/garden-state-masters-530/wo-group-folder/princeton-area-masters-1962,40.36014979999999,-74.6656366,NJ,Princeton
{A160AA13-1CC3-4EA0-9343-736FC58B2C25},Swim Atlanta Masters (SAMS),/clubs/georgia-masters-501/wo-group-folder/swim-atlanta-masters-1758,33.9540765,-84.05585329999997,GA,Lawrenceville
{DB6517C5-1755-4A59-8B28-892DABCF74B8},DCS Masters (DCS),/clubs/georgia-masters-501/wo-group-folder/douglas-county-stingreys-2334,33.669201,-84.66039030000002,GA,Douglasville
{44361A24-3CCD-4A49-A642-2456D9C66359},Athens Bulldog Swim Club (ABSC),/clubs/georgia-masters-501/wo-group-folder/athens-bulldog-swim-club-2131,33.9374923,-83.3712896,GA,Athens
{E3999C92-FD5A-4793-8261-96A2385ABE19},Stingrays Masters (RAYS),/clubs/georgia-masters-501/wo-group-folder/stingrays-masters-2169,34.032226,-84.46755239999999,GA,Marietta
{F9C8FBD8-DF20-4327-B151-DCBDC4AF8AF6},Southside Seals (SSS),/clubs/georgia-masters-501/wo-group-folder/southside-seals-1757,33.4322293,-84.5964968,GA,Peachtree City
{9A14C5E0-A148-4F50-B01E-4BC5A08C7DE1},Warner Robins Aquanauts (WRAM),/clubs/georgia-masters-501/wo-group-folder/warner-robins-aquanauts-1732,32.547856,-83.69009319999999,GA,Kathleen
{199AF68D-E485-4B1C-B362-AC6C60D210DD},Augusta Recreation and Parks Blue Tides (ARP),/clubs/georgia-masters-501/wo-group-folder/augusta-recreation-and-parks-blue-tides,33.4655261,-82.04850750000003,GA,Augusta
{9101A2A8-BFC3-4972-93AB-49053A199DD7},Atlanta Water Jocks (AWJ),/clubs/georgia-masters-501/wo-group-folder/atlanta-water-jocks,33.7934387,-84.3250999,GA,Atlanta
{902F309C-F3C7-4901-8A42-DCE6B90F8D29},Cranford Masters Swimming (CMSNJ),/clubs/jersey-aquatic-center-masters/WO Group Folder/cranford-masters-swimming,40.6484685,-74.29009479999999,NJ,Cranford
{BDFF9C32-CD08-40F7-8123-F6C23A225B9C},Fighting Manatees (FMS),/clubs/gold-coast-masters-702/wo-group-folder/fighting-manatees,24.9639327,-80.5684845,FL,Islamorada
{51BE6BEB-DFC3-4A7F-B4FD-7AD2117100FE},Hilton Head Island (HHI),/clubs/lowcountry-masters-2520/wo-group-folder/hilton-head-island,32.2204001,-80.734629,SC,Hilton Head Island
{701AF939-E982-453D-93F2-548F21D38EF3},Beaufort Masters Swim Team (BMST),/clubs/lowcountry-masters-2520/wo-group-folder/beaufort-masters-swim-team-2115,32.3831402,-80.68964489999999,SC,Port Royal
{2DB3D481-3302-487B-A978-9930ECA23531},Bowdoin College Polar Bear Masters (PBEAR),/clubs/maine-masters-swim-club-467/wo-group-folder/bowdoin-college-polar-bear-masters,43.9033309,-69.96006849999999,ME,Brunswick
{B4536265-FB83-417B-BEFB-3D0A46C8FB2A},Saluki Masters Swim Club (SALUK),/clubs/st-louis-area-masters-767/wo-group-folder/saluki-masters-swim-club-2172,37.7181336,-89.2124199,IL,Carbondale
{FD0076ED-64DA-406B-B87E-D983EEB3E600},SLAM-FAST (PATT),/clubs/st-louis-area-masters-767/wo-group-folder/slam-fast,38.7324748,-90.4829537,MO,Maryland Heights
{364FEFAE-AFC8-4081-B1F1-C270575B20B4},YMCA STORM MASTERS SWIMMING (STORM),/clubs/st-louis-area-masters-767/wo-group-folder/slam-storm,38.6042423,-90.28063019999999,MO,St. Louis
{979CF9F7-8780-482A-84B9-476BF5A60373},West Texas Lone Star Masters (WTLSM),/clubs/lone-star-masters/WO Group Folder/west-texas-lone-star-masters,35.1603006,-101.8984368,TX,Amarillo
{DC57DAEA-AB17-44A3-B254-26C828A1266F},Sedona Masters Swim Team (SST),/clubs/arizona-masters-swim-club-inc-569/wo-group-folder/sedona-swim-team-masters-2160,34.8720589,-111.786572,AZ,Sedona
{9EE20111-57AA-444E-ABB8-9E1BF412974E},SUN CITY WEST MASTERS (SCWM),/clubs/arizona-masters-swim-club-inc-569/wo-group-folder/sun-city-west-masters-582,33.6629403,-112.3562119,AZ,Sun City West
{E3E999C0-F567-4571-A00E-31A4EDDC7BE5},PRESCOTT MASTERS SWIM TEAM (PRESC),/clubs/arizona-masters-swim-club-inc-569/wo-group-folder/prescott-masters-swim-575,34.5480888,-112.4559107,Az,Prescott
{49E4EA4D-7CA1-4169-918C-B4A932C91454},Flying Fish Arizona Swim Team (FFAST),/clubs/arizona-masters-swim-club-inc-569/wo-group-folder/flying-fish-arizona-swim-team-1454,32.37631400000001,-110.96902699999998,AZ,Oro Valley
{D0F663B7-67F7-4AB4-8668-CE54F92BC1B6},SWIM DEVIL MASTERS (SDM),/clubs/arizona-masters-swim-club-inc-569/wo-group-folder/swim-devil-masters-583,33.4152209,-111.932521,AZ,Tempe
{91FF124F-3A33-4D4E-9DC9-EFABDB273F23},FORD AQUATICS (FORD),/clubs/arizona-masters-swim-club-inc-569/wo-group-folder/ford-aquatics-573,32.2300146,-110.9460717,AZ,Tucson
{E8A9703A-BA51-45E9-934F-6A72C657DF29},SUN CITY GRAND GECKOS (GECKO),/clubs/arizona-masters-swim-club-inc-569/wo-group-folder/sun-city-grand-masters-580,33.6591299,-112.4045024,AZ,Surprise
{2DE159A3-71D3-4A4C-89D0-4D1BF161E989},Lumberjack Masters (LJAX),/clubs/arizona-masters-swim-club-inc-569/wo-group-folder/lumberjack-masters,35.1899966,-111.6524078,AZ,Flagstaff
{475E2F3A-089A-476D-AF06-AB928B1C8510},Sun City Starrs (SCSTA),/clubs/arizona-masters-swim-club-inc-569/wo-group-folder/sun-city-starrs,33.6358314,-112.2736785,AZ,Sun City
{05F65E00-24F2-4159-93D4-7B5C664A439E},Sierra Nevada Masters at Incline Village (SNMIV),/clubs/sierra-nevada-masters-663/wo-group-folder/sierra-nevada-masters-at-incline-village,39.2435498,-119.942704,NV,IVGID
{D17685D2-FBD1-4554-81C6-B79628C3B979},Sierra Nevada Masters at Truckee (SNMAT),/clubs/sierra-nevada-masters-663/wo-group-folder/truckee-masters-snm,39.3390505,-120.1721377,CA,Truckee
{92226081-C353-4BD3-8368-2200091506A9},Marciaâ€™s Enthusiastic Original Workouts (MEOW),/clubs/marcias-enthusiastic-masters-of-oakland-1708/wo-group-folder/marcias-enthusiastic-original-workouts,37.7719179,-122.2887255,CA,Alameda
{9C68738A-AE08-4732-85F6-A23C218CB97E},Severna Park Community Center (SPCC),/clubs/maryland-masters-640/wo-group-folder/severna-park-community-center-754,39.0706229,-76.54489439999999,MD,Severna Park
{ECB5EBEF-C012-4E29-A65C-830CD25F09BB},Waukesha Express Masters Swim Team (WEMST),/clubs/wisconsin-masters-aquatic-club-492/wo-group-folder/waukesha-express-masters,42.9931424,-88.2231431,WI,Waukesha
{4507B06F-3E66-477E-B663-40A9082CC1AC},Southwest Aquatic Masters (SWATM),/clubs/wisconsin-masters-aquatic-club-492/wo-group-folder/south-west-aquatic-masters-2218,42.957427,-87.986047,WI,Greenfield
{6A8A13B3-CACE-4F0F-BC76-39E42B0F69B4},Milwaukee Recreation Masters (MKEMS),/clubs/wisconsin-masters-aquatic-club-492/wo-group-folder/milwaukee-recreation-masters,43.0127003,-87.9442493,WI,Milwaukee
{E9B6B4F6-815A-4C14-A0E5-864EC0BC03F3},Elmbrook Masters (EBM),/clubs/wisconsin-masters-aquatic-club-492/wo-group-folder/elmbrook-masters-1007,43.05401000000001,-88.121853,WI,Brookfield
{37B166F8-4B1D-49D5-B933-44944D790CBC},Whitefish Bay Masters (WFBM),/clubs/wisconsin-masters-aquatic-club-492/wo-group-folder/whitefish-bay-masters-1888,43.1079655,-87.8957956,WI,Whitefish Bay
{58BE2307-24CE-438D-B5C4-F83837C4F232},McFarland Masters (MCFM),/clubs/wisconsin-masters-aquatic-club-492/wo-group-folder/mcfarland-masters-2171,43.01167599999999,-89.2950237,WI,McFarland
{5E386B74-84FD-4BCB-BE3C-2FFC06CEB1A8},Circus City Masters Swimming (BOO),/clubs/wisconsin-masters-aquatic-club-492/wo-group-folder/circus-city-masters,43.48060880000001,-89.75598230000003,WI,Baraboo
{AFB1D276-E13F-47FB-8E41-13264B16B262},Oshkosh YMCA (OSHY),/clubs/wisconsin-masters-aquatic-club-492/wo-group-folder/oshkosh-ymca-1887,43.9947555,-88.6167461,WI,Oshkosh
{5660DA91-06F5-4924-AB46-C39EB59AC49E},Pinnacle Health + Fitness (PHF),/clubs/wisconsin-masters-aquatic-club-492/wo-group-folder/pinnacle-health-and-fitness,43.0111497,-89.45894729999999,WI,Fitchburg
{21BDE798-6AA9-4B6E-BBC9-39D4856E960D},Ozaukee Aquatics (OZ),/clubs/wisconsin-masters-aquatic-club-492/wo-group-folder/ozaukee-aquatics-2018,43.2976431,-87.9966174,WI,Cedarburg
{4151236E-FBAA-48B5-B38A-48082C0A7E68},Tri Faster (TF),/clubs/wisconsin-masters-aquatic-club-492/wo-group-folder/tri-faster-1918,42.957427,-87.986047,WI,Greenfield
{5B021A7D-E3BF-4129-BF70-FA946ADE63D4},Harbor Masters Swim Team (HMSWI),/clubs/wisconsin-masters-aquatic-club-492/wo-group-folder/harbor-masters-swim-team-1776,43.102858,-89.485543,WI,Middleton
{47D07359-3B86-4008-8C9D-B1878F7EBE9A},Walter Schroeder Aquatic Center (WSAC),/clubs/wisconsin-masters-aquatic-club-492/wo-group-folder/walter-schroeder-aquatic-center-1408,43.18487469999999,-87.9600631,WI,Brown Deer
{6B3CFC3D-37FD-47F4-8593-2371628CA1CC},Rocket Aquatics (RA),/clubs/wisconsin-masters-aquatic-club-492/wo-group-folder/rocket-aquatics,43.2272568,-88.1344817,WI,Germantown
{F867844F-50FF-4A14-9F6E-DBD41B92E841},JCC Milwaukee Masters (JCCM),/clubs/wisconsin-masters-aquatic-club-492/wo-group-folder/jcc-milwaukee-masters,43.1304944,-87.908187,WI,Whitefish Bay
{8D3998DF-C717-414C-8E16-71BB9B41BD4E},Monona Grove Masters (MGM),/clubs/wisconsin-masters-aquatic-club-492/wo-group-folder/monona-grove-masters-1,43.0718197,-89.32352660000001,WI,Madison
{7638373D-D9F1-4E22-A676-A8DB34E558C3},Pulaski Community Masters Wisconsin  (PCMWI),/clubs/wisconsin-masters-aquatic-club-492/wo-group-folder/pulaski-community-masters-wisconsin,44.6620843,-88.2447493,WI,Pulaski
{891DE520-65AB-4DD3-B7A7-70CB0243552C},FondySwimmers (FDLSD),/clubs/wisconsin-masters-aquatic-club-492/wo-group-folder/fondyswimmers,43.7682728,-88.45055719999999,WI,Fond du Lac
{4D20CA18-A151-472F-A041-75BC9D622436},MARJCC SwimRight Masters Team (MJSRT),/clubs/swim-fort-lauderdale-1877/wo-group-folder/marjcc-swimright-masters-team,25.949403,-80.153194,FL,Miami
{F7A87AAD-2545-44B3-9951-176EA7BCDF87},Midtown Weston Aquatics (MWA),/clubs/swim-fort-lauderdale-1877/wo-group-folder/midtown-weston-aquatics,26.090770,-80.38045199999999,FL,Weston
{58E7F5DB-DD53-4652-88AD-F72C7802C12F},Wave Masters (WAVE),/clubs/north-carolina-masters-swimming-426/wo-group-folder/imp-masters-2369,35.7748861,-78.7695258,NC,Cary
{5B978708-F964-4428-BABE-290A7B469FC4},Durham Area Masters Aquatics (DAMA),/clubs/north-carolina-masters-swimming-426/wo-group-folder/durham-area-masters-aquatics-813,35.9622833,-78.8904065,NC,Durham
{434379B5-3D9E-4196-9D90-7CF8604538F5},Triad Masters Swimming  Greensboro  NC (TMS),/clubs/north-carolina-masters-swimming-426/wo-group-folder/triad-masters-swimming-greensboro-nc-827,36.0572691,-79.82555980000001,NC,Greensboro
{F6A4A594-80CC-476C-B5A6-5551591A3952},Sailfish Aquatics Masters (SAIL),/clubs/north-carolina-masters-swimming-426/wo-group-folder/sailfish-aquatics-masters-1813,35.415946,-80.670431,NC,Concord
{62A2D86A-B84A-4EB7-A306-B49EC7328DD8},Lowes YMCA (LO),/clubs/north-carolina-masters-swimming-426/wo-group-folder/lowes-ymca-2148,35.591494,-80.8767799,NC,Mooresville
{742CE623-6502-4BDE-9D3C-5238B670C12E},YMCA of the Triangle (YOTA),/clubs/north-carolina-masters-swimming-426/wo-group-folder/ymca-of-the-triangle-area-1573,35.78425319999999,-78.65929310000001,NC,Raleigh
{FD6EF5BF-C1B3-4233-AF42-B97721253DFD},Enfinity Aquatic Club (EAC),/clubs/north-carolina-masters-swimming-426/wo-group-folder/enfinity-aquatic-club-1905,36.0749929,-80.27023679999999,NC,Winston-Salem
{D820DCC3-B035-416D-AE84-5115E37AF19A},"YMCA Seahorse Swim Team - Hickory, NC (YSST)",/clubs/north-carolina-masters-swimming-426/wo-group-folder/ymca-seahorse-swim-team-hickory-nc-1592,35.7411752,-81.3396836,NC,Hickory
{590E8EC5-CD75-4EE4-BF1A-633C6BAB94CC},Masters of Raleigh Swimming Association (MRSA),/clubs/north-carolina-masters-swimming-426/wo-group-folder/masters-of-raleigh-swimming-association-2166,35.76652010000001,-78.7251462,NC,Raleigh 
{7B3E93B8-5AFD-41CC-8F4D-9C5EB59480FA},"Asheville Masters Swimming, Inc. (AVL)",/clubs/north-carolina-masters-swimming-426/wo-group-folder/asheville-masters-swimming-808,35.5667188,-82.6207582,NC,Asheville
{99EFD520-8C68-482E-8731-44D346A0F160},Gaston Gators - Gastonia  NC (GG),/clubs/north-carolina-masters-swimming-426/wo-group-folder/gaston-gators-gastonia-nc-814,35.2485426,-81.1321257,NC,Gastonia
{500F401C-4A37-4254-AB46-4ECEADBCCAC9},Fort Bragg Masters (FBM),/clubs/north-carolina-masters-swimming-426/wo-group-folder/fort-bragg-masters-1230,35.143382,-78.9998246,NC,Fort Liberty
{3871F07E-8709-4642-8F9E-FA0A57868F8F},HAWK Masters UNCW (HAWK),/clubs/north-carolina-masters-swimming-426/wo-group-folder/hawk-masters-uncw-1990,34.2242844,-77.8776903,NC,Wilmington
{DE645AC9-6025-4403-8698-C105F07E019D},SwimMAC  Masters - Charlotte  NC (MAC),/clubs/north-carolina-masters-swimming-426/wo-group-folder/swimmac-masters-charlotte-nc-818,35.392040,-80.8449579,NC,Huntersville
{9E0F412A-04FD-41D1-B500-2A15D75E09B7},TAC Titans (TAC),/clubs/north-carolina-masters-swimming-426/wo-group-folder/tac-titans-2269,35.775852,-78.7545178,NC,Cary
{1EC16E00-C728-443D-9F9A-514981088202},Clubworx - Fuquay-Varina (WORX),/clubs/north-carolina-masters-swimming-426/wo-group-folder/clubworx-fuquay-varina-1693,35.582315,-78.7627887,NC,Fuquay-Varina
{B9A5F5F5-A605-450A-A632-8A2A193BA1E5},Mecklenburg Swim Association Masters (MSAM),/clubs/north-carolina-masters-swimming-426/wo-group-folder/mecklenburg-swim-association-masters-1886,35.016065,-80.80381740000001,NC,Marvin
{F7D4E894-0867-449A-9770-6C6C9216C84F},YBAC Hurricanes Masters (YBACM),/clubs/north-carolina-masters-swimming-426/wo-group-folder/ybac-hurricanes-masters,36.0847079,-79.45131429999999,NC,Burlington
{C6B99F86-61E9-447A-82C2-040C88417023},Sunset Ridge Aquatics (SRAM),/clubs/north-carolina-masters-swimming-426/wo-group-folder/sunset-ridge-aquatics,35.6586159,-78.8139291,NC,Holly Springs
{2297E1B8-DAF8-48FE-BF35-668A222AC7EE},Sharks Aquatic Club Masters (SHAQ),/clubs/north-carolina-masters-swimming-426/wo-group-folder/sharks-aquatic-club-masters,35.27411279999999,-81.5370295,NC,Shelby
{71C67BC9-027E-4370-9799-8B28DC13210A},Valdese Torpedo Masters (VTMS),/clubs/north-carolina-masters-swimming-426/wo-group-folder/valdese-torpedo-masters,35.7404853,-81.55964860000002,NC,Valdese
{B3CD7924-7B7F-4BDB-B330-4099E279B571},J.A.W.S. Aquatics Masters (JAWS),/clubs/hawaii-masters-527/wo-group-folder/jaws-aquatics-masters,20.0770053,-155.4634724,HI,Honokaa
{A49B11C5-6696-4679-B224-8D5660C7308E},University of Hawaii Masters Swimming (UHM),/clubs/hawaii-masters-527/wo-group-folder/university-of-hawaii-masters-swimming,21.294355,-157.8186021,HI,Honolulu
{5C2B4EB0-5D03-4A70-897C-AFE8C4E18E2C},Kailua Masters Swim Club (KMSC),/clubs/hawaii-masters-527/wo-group-folder/kailua-masters-swim-club,21.3964401,-157.7388677,HI,Kailua
{3B6C84B1-299E-44AD-8835-CA9C9EFB0463},Academy Swim Club Masters (ASCM),/clubs/hawaii-masters-527/wo-group-folder/academy-swim-club-masters,20.0298207,-155.6987685,HI,Waimea
{328362EB-9ADD-43F9-97DC-24089F08C954},Kona Aquatics (KONA),/clubs/hawaii-masters-527/wo-group-folder/kona-aquatics,19.6409843,-156.0022124,HI,Kailua-Kona
{51BE8900-5198-4478-8DF4-0EB475C2B9C1},"Swim Louisville Masters -  Louisville,  KY (SLM)",/clubs/swim-kentucky-masters-504/wo-group-folder/swim-louisville-masters-louisville-ky-728,38.2592779,-85.6809285,KY,Louisville
{3080628F-6ACB-4F82-807B-82F6D92FA59D},Genesis Blairwood Masters Swim Team (BEST),/clubs/swim-kentucky-masters-504/wo-group-folder/blairwood-masters-swim-team-2233,38.226349,-85.584340,KY,Louisville
{9FDF7CBC-825C-4078-B9CB-17316B591385},"Western Kentucky Green Gators - Bowling Green,  KY (WKGG)",/clubs/swim-kentucky-masters-504/wo-group-folder/western-kentucky-green-gators-bowling-green-ky-727,36.9628597,-86.4383441,KY,Bowling Green
{59E808F5-9E46-4B51-97F6-62803B4A8B4B},"Clear Creek Masters, Shelbyvillle, Ky (CCMKY)",/clubs/swim-kentucky-masters-504/wo-group-folder/clear-creek-masters-shelbyvillle-ky-1899,38.2243423,-85.21959500000001,KY,Shelbyville
{F6A842AC-7B96-4DC7-9A61-6810FE0631F5},Swimchester Sailfish Masters (SWSF),/clubs/swim-kentucky-masters-504/wo-group-folder/swimchester-sailfish-masters,37.9910143,-84.1859898,KY,Winchester
{551243C3-368F-4024-BC94-F2FD87859FE3},Wildcat Masters (WILD),/clubs/swim-kentucky-masters-504/wo-group-folder/wildcat-masters-2,38.0477429,-84.7608934,KY,Versailles
{E6E401FB-992F-439E-9804-34FFDF4B2F3E},Silverlake Sharks Masters (SLAKE),/clubs/swim-kentucky-masters-504/wo-group-folder/silverlake,39.02559309999999,-84.5960622,KY,Erlanger
{62A1792C-BBEC-4DEA-B87D-B5636059934E},Life Time Masters Swim (LTOR),/clubs/oregon-masters-486/wo-group-folder/life-time-masters-swim,45.5154671,-122.7945044,OR,Beaverton
{9380C5D1-7A18-4B45-8D65-E70DF2CDB308},Umpquatics (UMPQ),/clubs/oregon-masters-486/wo-group-folder/umpquatics-1,43.2209371,-123.3744507,OR,Roseburg
{16EC89EC-2892-42E6-AC99-19F46337D315},Umpquatics (UMPQ),/clubs/oregon-masters-486/wo-group-folder/umpquatics,43.2209371,-123.3744507,OR,Roseburg
{C648F90B-DF63-4A05-92D4-043DFE707889},The Dalles Celilo Masters (TDCM),/clubs/oregon-masters-486/wo-group-folder/the-dalles-celilo-masters,45.6051042,-121.1914616,OR,The Dalles
{81A7F535-8224-4C2D-BDCE-1640A80D5632},Columbia Gorge Masters (CGM),/clubs/oregon-masters-486/wo-group-folder/columbia-gorge-masters-1086,45.70363010000001,-121.5290758,OR,Hood River
{EA96E7A6-FD1D-4C14-8EDA-686E12CD4467},Corvallis Aquatic Team (CATOR),/clubs/oregon-masters-486/wo-group-folder/corvallis-aquatic-team-1087,44.5878602,-123.263112,OR,Corvallis
{E8F43C51-740C-451C-BBEE-80D39AA88EA9},Emerald Aquatics (EA),/clubs/oregon-masters-486/wo-group-folder/emerald-aquatics-1088,44.0292243,-123.0821226,OR,Eugene
{33CD8324-A9B7-4ADB-AE22-2C18485A1660},Portland Timberfish (PDX),/clubs/oregon-masters-486/wo-group-folder/portland-timberfish-2236,45.4773219,-122.7040207,OR,Portland
{B8D3B7A3-ECE7-46C9-BF14-E3CFFE8A3729},Rogue Valley Masters (RVM),/clubs/oregon-masters-486/wo-group-folder/rogue-valley-masters-1098,42.188055,-122.685158,OR,Ashland
{21CEDAB2-7C85-42BC-8EE9-0B58A0E702A5},Salem Kroc Masters (KAM),/clubs/oregon-masters-486/wo-group-folder/salem-kroc-masters-1603,44.9759757,-123.0094293,OR,Salem
{46908331-871E-4CBD-BBBD-D808BE690432},Tualatin Hills Barracudas (THB),/clubs/oregon-masters-486/wo-group-folder/tualatin-hills-barracudas-1104,45.5191677,-122.8385188,OR,Beaverton
{77FDD7A2-8F6E-4B83-A7F1-939CE366EF4D},Lake Oswego Masters (LOSCM),/clubs/oregon-masters-486/wo-group-folder/lake-oswego-masters-1648,45.425976,-122.7005692,OR,Lake Oswego
{F54071D5-5A34-422C-BF88-04F2B2BA55FC},Oregon City Tankers (OCT),/clubs/oregon-masters-486/wo-group-folder/oregon-city-tankers-1684,45.3577998,-122.5963067,OR,Oregon City
{1BE4E1B3-9D10-4275-8215-9BB462916ADB},North Clackamas Masters Swimming (NCMS1),/clubs/oregon-masters-486/wo-group-folder/north-clackamas-masters-swimming-1095,45.4311223,-122.5821903,OR,Milwaukie
{D31DFFA9-C7D4-4DCC-927D-23553FAAFAD7},Lincoln City Masters Swim (LCMS),/clubs/oregon-masters-486/wo-group-folder/lincoln-city-masters-swim,44.9801758,-124.0077624,OR,Lincoln City
{B00C91ED-DD46-482E-98F9-EE5314B71BC9},Central Oregon Masters Aquatics (COMA),/clubs/oregon-masters-486/wo-group-folder/central-oregon-masters-aquatics-1084,44.057678,-121.2968821,OR,Bend
{C696792B-8281-40DD-9AEC-348EF920848D},Southern Oregon Masters Aquatics (SOMA),/clubs/oregon-masters-486/wo-group-folder/southern-oregon-masters-aquatics-2332,42.336056,-122.8690325,OR,Medford
{1DD90946-7A62-4482-B62D-CB81BB9F31F5},Aquaducks Masters (AQDK),/clubs/oregon-masters-486/wo-group-folder/aquaducks-masters,44.0490174,-123.0922545,OR,Eugene
{4FEC20DA-E6FE-489C-B056-BB180C50A937},Stafford Hills Club (SHC),/clubs/oregon-masters-486/wo-group-folder/stafford-hills-club-2096,45.3822071,-122.738406,OR,Tualatin
{2E285D9C-EDF2-4037-B4F0-9F096AD7B071},Clark County YMCA Masters (CCYM),/clubs/oregon-masters-486/wo-group-folder/clark-county-ymca-masters,45.6617137,-122.5569777,WA,Vancouver
{CA8AB49C-5305-4981-8372-C442A2888B08},Oregon Reign Masters (ORM),/clubs/oregon-masters-486/wo-group-folder/oregon-reign-masters-1096,45.5190642,-122.5684795,OR,Portland
{403D2CF9-7B2A-445A-B69E-72BD77655CD8},Blue Dragons Swim Team (BDST),/clubs/oregon-masters-486/wo-group-folder/blue-dragons-swim-team,44.91910379999999,-123.3008585,OR,Dallas
{BA6BAE01-D0F0-4566-BB6A-4CE1E2242A68},Astoria Aquatics Center Swim Group (AACSG),/clubs/oregon-masters-486/wo-group-folder/astoria-aquatics-center-swim-group,46.1890941,-123.8207908,OR,Astoria
{43AD835F-6860-4696-8778-CF5CE0A98BA7},Gold's Aquatics Club Camas (GACC),/clubs/oregon-masters-486/wo-group-folder/golds-aquatics-club-camas,45.606085,-122.440615,WA,Camas
{C0328693-C57F-462A-8114-A44C84DA2750},Portland Masters Aquatic Club (PMAC),/clubs/oregon-masters-486/wo-group-folder/portland-masters-aquatic-club,45.5421622,-122.6648219,OR,Portland
{51C07DBB-0BA3-4178-B5E3-15D0665A5D24},MJCC Stingrays Masters (STRY),/clubs/oregon-masters-486/wo-group-folder/mjcc-stingrays-masters,45.4773219,-122.7040207,OR,Portland
{6B88C1C8-2583-447A-A9EB-34D19027A449},Southwest Iowa Masters (SWIA),/clubs/iowa-masters-464/wo-group-folder/southwest-iowa-masters-2200,41.2717451,-95.8338005,IA,Council Bluffs
{FC4F37FC-532C-4ABA-A19E-5D4EE3A75E40},IFLY Swim Club (IFLY),/clubs/iowa-masters-464/wo-group-folder/ifly-swim-club-1938,41.6571379,-91.5385166,IA,Iowa City
{3927040D-56C5-48C5-B805-FE7023D40E39},Milky Way Masters (MILK),/clubs/iowa-masters-464/wo-group-folder/milky-way-masters-717,42.0246266,-91.6807764,IA,Cedar Rapids
{195FC58B-7312-41A6-8922-966227DCC45D},Quad Cities Masters (QCMA),/clubs/iowa-masters-464/wo-group-folder/quad-cities-masters-1994,41.5237656,-90.5654169,IA,Davenport
{2E106B98-FD00-4D7D-8252-D213BED2ABCF},Chicago Masters Swim Club (CHGO),/clubs/illinois-masters-617/wo-group-folder/chicago-masters-swim-club-1,41.8665933,-87.64927809999999,IL,Chicago
{B70DB34B-BBED-4717-9482-D9EFF4A63331},High Ridge Bottlenosers (HRYB),/clubs/illinois-masters-617/wo-group-folder/high-ridge-bottlenosers,42.0096401,-87.6967347,IL,Chicago
{7F68E5FA-505F-4289-8C75-86510A2AAED8},Central Illinois Masters (CENT),/clubs/illinois-masters-617/wo-group-folder/central-illinois-masters,40.4868714,-88.9740192,IL,Bloomington
{3A61F3CA-E162-452F-BEB4-643FB5E655D6},COHO Masters (COHO),/clubs/illinois-masters-617/wo-group-folder/coho-masters,42.187212,-87.85420599999999,IL,Deerfield
{56D18326-CDDD-4309-9B7A-8CEBE765F1FA},Chicago Athletic Clubs Masters (CACM),/clubs/illinois-masters-617/wo-group-folder/chicago-athletic-clubs-masters-1,41.88460269999999,-87.66165699999999,IL,Chicago
{937BB16E-081F-4CF4-8600-0E9D36A13DE7},Flying Carp Swimming (FCS),/clubs/illinois-masters-617/wo-group-folder/flying-carp-swimming,41.9812005,-87.7079477,IL,Chicago
{F6613E3B-E00B-472C-8497-BCD916F99C8E},Des Plaines Park District Masters (DPPD),/clubs/illinois-masters-617/wo-group-folder/des-plaines-park-district-masters-1,42.0356052,-87.91248759999999,IL,Des Plaines
{F7E818F7-7968-4181-ABF7-A7D55737D0E9},Rock Masters (RRVY),/clubs/illinois-masters-617/wo-group-folder/rock-masters,42.27862590000001,-89.07927699999999,IL,Rockford
{B5D6A1B0-9C41-470F-9C7B-64AA624613A1},Phil's Phish (PHISH),/clubs/illinois-masters-617/wo-group-folder/phils-phish,42.1356304,-87.79021639999999,IL,Northbrook
{7C5B2DE3-64C3-48E1-A4AC-FD69CB1F1264},Des Plaines Park District Masters (DPPD),/clubs/illinois-masters-617/wo-group-folder/des-plaines-park-district-masters,42.0356052,-87.91248759999999,IL,Des Plaines
{D0B6F13C-A0E3-425E-99C9-FE7796204136},Elgin Blue Wave Swim Team (ELG),/clubs/illinois-masters-617/wo-group-folder/elgin-blue-wave-swim-team,42.04113479999999,-88.28488999999999,IL,Elgin
{4FEAEAB4-495F-4099-BD1F-70A1B598D805},LYONS Masters (LYON),/clubs/illinois-masters-617/wo-group-folder/lyons-masters-1752,41.8015015,-87.891025,IL,Western Springs
{C322DCA4-C3E9-45A9-AA3A-A483F3CF2287},BMC Performance Masters (BMCPM),/clubs/illinois-masters-617/wo-group-folder/bmc-performance-masters,41.99499549999999,-87.6573015,IL,Chicago
{31D0CDA6-7405-4B4A-9F60-13E5CBAFD1AB},North Aquatics Club Masters (NAC),/clubs/illinois-masters-617/wo-group-folder/north-aquatics-club-masters,41.5134203,-87.8548288,IL,Frankfort
{5755CE0F-2863-40C4-9FC4-2F6F99B4881F},Chicago Smelts (CHSM),/clubs/illinois-masters-617/wo-group-folder/chicago-smelts-1404,41.952417,-87.6510635,IL,Chicago
{14A16B9E-3B8F-40B2-A4E6-C2B435AFAEDA},High Ridge Bottlenosers (HRYB),/clubs/illinois-masters-617/wo-group-folder/high-ridge-ymca-bottlenoser-2307,42.0096401,-87.6967347,IL,Chicago
{6D838060-E715-4E04-AFE2-F9298797E18E},Joliet Blue Tides (JBT),/clubs/illinois-masters-617/wo-group-folder/joliet-blue-tides-2306,41.5217225,-88.1556257,IL,Joliet
{8B1A1534-DDFB-43CD-9998-396371CBDCEB},Sage YMCA (SAGE),/clubs/illinois-masters-617/wo-group-folder/sage-ymca-2280,42.2216049,-88.2898399,IL,Crystal Lake
{67CD1AF6-9A3F-421A-9871-CB7941A98F69},COHO Masters (COHO),/clubs/illinois-masters-617/wo-group-folder/coho-masters-666,42.187212,-87.85420599999999,IL,Deerfield
{2D336E09-E028-4AE5-A3FE-7E19031071EE},Barrington Area Masters (BAMST),/clubs/illinois-masters-617/wo-group-folder/barrington-area-masters-1389,42.1622759,-88.15121169999999,IL,Barrington
{5B38538B-4CB3-4653-92DD-9FF477DFAAB2},Evanston Northshore Masters (EVM),/clubs/illinois-masters-617/wo-group-folder/evanston-northshore-masters-663,42.04754430000001,-87.6997693,IL,Evanston
{3CC6388C-C1B7-4BBD-98C5-7C7D0D1E61F6},Big Fins Master Swim Team and Training (LBF),/clubs/illinois-masters-617/wo-group-folder/big-fins-master-swim-team-2373,41.6530846,-88.01138850000001,IL,Lemont
{87A0C567-5287-4FBA-A9D6-6E8902FB8FC5},FMC Fossil Fish (FF),/clubs/illinois-masters-617/wo-group-folder/fossil-fish-1414,41.8123249,-87.9713293,IL,Westmont
{7AB2ED69-766A-4BDE-A85F-B63F159516DC},Flying Carp Swimming (FCS),/clubs/illinois-masters-617/wo-group-folder/flying-carp-swimming-1391,41.9812005,-87.7079477,IL,Chicago
{2A5AAE16-A383-4E1F-812B-D200D4B2708D},Buehler Blue Marlins (PALA),/clubs/illinois-masters-617/wo-group-folder/buehler-blue-marlins-1763,42.1268365,-88.0758769,IL,Palatine
{FD793572-1702-467E-B707-B984423CD46F},Naperville Waves Swim Club (NWSC),/clubs/illinois-masters-617/wo-group-folder/naperville-waves-swim-club-1741,41.764852,-88.0694628,IL,Woodridge
{F2C885B2-4CBA-4B1C-B069-F68239AAAD71},Central Illinois Masters (CENT),/clubs/illinois-masters-617/wo-group-folder/central-illinois-masters-664,40.4868714,-88.9740192,IL,Bloomington
{5531E240-B974-4412-B694-9B7C30DCC905},Sage YMCA (SAGE),/clubs/illinois-masters-617/wo-group-folder/sage-ymca,42.2216049,-88.2898399,IL,Crystal Lake
{26DDC723-D792-4AF0-BB90-65C9A5472254},Chicago Masters Swim Club (CHGO),/clubs/illinois-masters-617/wo-group-folder/chicago-masters-swim-club,41.8665933,-87.64927809999999,IL,Chicago
{3E268D6E-8336-4306-BC1B-8E5D5D1295F3},North Shore Masters (NSM),/clubs/illinois-masters-617/wo-group-folder/north-shore-masters,42.2495458,-87.8919458,IL,Lake Forest
{95FCC879-280F-49A6-A27C-32B9238B9B5E},Elgin Blue Wave Swim Team (ELG),/clubs/illinois-masters-617/wo-group-folder/elgin-blue-wave-swim-team-2386,42.04113479999999,-88.28488999999999,IL,Elgin
{22CBB0BA-C686-4F13-8173-764F0C075764},Rock Masters (RRVY),/clubs/illinois-masters-617/wo-group-folder/rock-masters-1,42.27862590000001,-89.07927699999999,IL,Rockford
{3F71590A-FCAB-438C-BD44-BC63BDA9E9D5},Big Fins Master Swim Team and Training (LBF),/clubs/illinois-masters-617/wo-group-folder/big-fins-master-swim-team-and-training,41.6530846,-88.01138850000001,IL,Lemont
{E958CC07-B566-4F39-A99B-935E6A895F62},Chicago Athletic Clubs Masters (CACM),/clubs/illinois-masters-617/wo-group-folder/chicago-athletic-clubs-masters,41.88460269999999,-87.66165699999999,IL,Chicago
{1F0BFA7F-0783-46CA-895B-9B1909953A8B},BMC Performance Masters (BMCPM),/clubs/illinois-masters-617/wo-group-folder/bmc-performance-masters-1,41.99499549999999,-87.6573015,IL,Chicago
{594FCB65-15D5-44FA-9826-CB5BDBCE9577},North Aquatics Club Masters (NAC),/clubs/illinois-masters-617/wo-group-folder/north-aquatics-club-masters-1,41.5134203,-87.8548288,IL,Frankfort
{6395B244-966F-4A3D-8BC2-5184DA1203C1},North Shore Masters (NSM),/clubs/illinois-masters-617/wo-group-folder/north-shore-masters-1,42.2495458,-87.8919458,IL,Lake Forest
{B7F6EA7E-949D-454E-9640-8C4FB388564B},Naperville Waves Swim Club (NWSC),/clubs/illinois-masters-617/wo-group-folder/naperville-waves-swim-club,41.764852,-88.0694628,IL,Woodridge
{8441EC9E-A45A-4AB6-8C3F-9A0DEB93794F},Werl Pool (WRPL),/clubs/connecticut-masters-747/wo-group-folder/werl-pool,41.1147514,-73.59866149999999,CT,Stamford
{EFEBD298-9502-4079-8BD3-15BD831DA210},Orange Masters (OMSC),/clubs/connecticut-masters-747/wo-group-folder/orange-masters,41.2738556,-73.02073759999999,CT,Orange
{560B4FDE-D622-4B21-BA68-9A09F1FEE7F1},Water Rat Masters (WRAT),/clubs/connecticut-masters-747/wo-group-folder/water-rat-masters-2248,41.1626195,-73.36871030000002,CT,Westport
{2340C57B-C2F8-4A61-B2F7-EC624DD5B53F},New Wave Masters Swimming (NWCT),/clubs/connecticut-masters-747/wo-group-folder/new-wave-masters-swimming,41.9401515,-73.436666,CT,Salisbury
{C9433DC5-55E0-4B88-9318-25F952D8E59D},Westchester Masters Swimming (WMS1),/clubs/connecticut-masters-747/wo-group-folder/westchester-masters-1957,40.933727,-73.7427259,NY,Larchmont
{022C408F-CF1B-46DF-B366-5C224EADC196},Hartford Masters (HM),/clubs/connecticut-masters-747/wo-group-folder/hartford-masters-2254,41.7463479,-72.6872293,CT,Hartford
{B0BFE523-4274-4FC9-B62A-CCA669DB6BC2},Middletown Marlins (MTWN),/clubs/connecticut-masters-747/wo-group-folder/middletown-marlins,41.53992969999999,-72.64569759999999,CT,Middletown
{D036BCD3-8C28-4373-9821-56BC75743916},WHAT Masters Swimming (WHATM),/clubs/connecticut-masters-747/wo-group-folder/what-masters-swimming,41.7233282,-72.8318847,CT,Farmington
{2EC7E6AE-F982-4A8F-8B81-291F9B93B097},Life Time Swim Alpharetta  (ALPL),/clubs/life-time-swim-georgia-2046/wo-group-folder/life-time-swim-alpharetta-2034,34.0798149,-84.26228379999999,GA,Alpharetta
{26895528-F55C-4E7A-83CC-C7D3CC50312E},Life Time Swim Atlanta (ATLL),/clubs/life-time-swim-georgia-2046/wo-group-folder/life-time-swim-atlanta-2035,33.9066971,-84.38152339999999,GA,Sandy Springs
{8FA7FC95-5E8A-45C5-9DAE-F33BE5686409},Glens Falls Masters (GFM),/clubs/adirondack-masters-484/wo-group-folder/glens-falls-masters,43.3226434,-73.6638121,NY,Glens Falls
{0234AB47-7F2F-44EF-A022-B4821F2C6C0A},Northern TRIBS Masters Swimming (NTMS),/clubs/adirondack-masters-484/wo-group-folder/northern-tribs-masters-swimming-2245,44.9260166,-74.9002404,NY,Massena
{53A676C5-A818-458C-B91D-E32A8597524E},Stripers (NNYS),/clubs/virginia-masters-swim-team-699/wo-group-folder/stripers,37.7030621,-76.39108020000003,VA,Kilmarnock
{7CC68E2F-2A8E-4606-B1D2-BFC54971A4D5},SwimRVA Hammerheads (SRVA),/clubs/virginia-masters-swim-team-699/wo-group-folder/swimrva-hammerheads,37.4495795,-77.4923338,VA,Richmond
{D9F0A21D-340B-46EC-936F-B892A4CFE3F0},River City Masters  (RVCM),/clubs/virginia-masters-swim-team-699/wo-group-folder/river-city-masters-1,37.5215209,-77.61751979999997,VA,Midlothian
{665E69EE-3454-4179-A421-61F555F07434},Quest Masters  (QUEST),/clubs/virginia-masters-swim-team-699/wo-group-folder/quest-master-swim-team,37.4063835,-77.65555870000003,VA,Midlothian
{44A1C67B-0203-45DC-AEB9-1DD645B82309},Aberdeen (ABER),/clubs/south-dakota-prairie-masters/WO Group Folder/aberdeen,45.4648288,-98.4776759,SD,Aberdeen
{567C9648-4307-49F1-9CE3-79051E8DFB9D},Pierre  (PIR),/clubs/south-dakota-prairie-masters/WO Group Folder/pierre,44.3605713,-100.3764676,SD,Fort Pierre
{82EA9E2D-408C-4FC5-A489-7451CC21E3F5},Sioux Falls Prairie Masters (SFM),/clubs/south-dakota-prairie-masters/WO Group Folder/sioux-falls-midco,43.5314074,-96.75249409999999,SD,Sioux Falls
{C7543C56-A060-47AC-99CC-F78F2F4DBBE5},Rapid City (RAPID),/clubs/south-dakota-prairie-masters/WO Group Folder/rapid-city,44.0831903,-103.2073822,SD,Rapid City
{072E20C1-2226-476E-9FBE-23C76CF53F86},Durango Masters Swimming (DGO),/clubs/colorado-masters-swimming-477/wo-group-folder/durango-masters-swimming,37.2943933,-107.8717092,CO,Durango
{47B17526-99CC-4578-9C47-3346D775E9A6},South Suburban Finaddicts (SSUB),/clubs/colorado-masters-swimming-477/wo-group-folder/south-suburban-finaddicts,39.6029069,-104.9623411,CO,Centennial
{3932BC05-0E3B-452B-A1FE-B8E5FD6A708B},Aquanauts (AN),/clubs/colorado-masters-swimming-477/wo-group-folder/aquanauts,39.6840811,-104.8463532,CO,Aurora
{E9EA14DE-ED60-4F64-AFEE-4ED4CE023BCF},Aurora Masters  (AM),/clubs/colorado-masters-swimming-477/wo-group-folder/aurora-masters,39.6436221,-104.8268112,CO,Aurora
{55C0E9B0-EA3D-45A3-A174-8AA49A1AF5DE},Highlands Ranch Masters Swimming (HRMS),/clubs/colorado-masters-swimming-477/wo-group-folder/colorado-athletic-club-inverness,39.5569806,-104.9873521,CO,Highlands Ranch
{35B27865-9CCB-4A75-8318-092F2CE1A787},Montrose Masters Group (MMG),/clubs/colorado-masters-swimming-477/wo-group-folder/montrose-masters-group,38.449131,-107.860518,CO,Montrose
{69F71362-0F86-4189-9A83-E0DDB36BEB08},Foothills Masters Swim Team (FMST),/clubs/colorado-masters-swimming-477/wo-group-folder/foothills-masters-swim-team-607,39.5959849,-105.1354892,CO,Littleton
{E62F8884-BB0D-407E-84AB-694DE2861602},Thornton Masters (THOR),/clubs/colorado-masters-swimming-477/wo-group-folder/thornton-masters-631,39.8969239,-104.9423578,CO,Thornton
{61D8BFAD-F5E9-49C5-9035-30F9630169A1},Pueblo Masters Swimming (PUEB),/clubs/colorado-masters-swimming-477/wo-group-folder/pueblo-masters-swimming-622,38.2468845,-104.4668256,CO,Pueblo
{02EA8C88-462E-4A89-864C-3106894493B0},Aspen Masters Group (ASP),/clubs/colorado-masters-swimming-477/wo-group-folder/aspen-masters-group-2288,39.189445,-106.85083500000002,CO,Aspen
{4D70EDA1-A23C-4529-91A1-FB778335AD9B},Jeffco Aquatic Masters (AJAM),/clubs/colorado-masters-swimming-477/wo-group-folder/jeffco-aquatic-masters-616,39.8387286,-105.0905801,CO,Arvada
{B465737E-7E2A-44EF-802E-D6B4E846C90B},COSA Swimming Masters (COSAM),/clubs/colorado-masters-swimming-477/wo-group-folder/cosa-swimming-masters-599,38.8470969,-104.827404,CO,Colorado Springs
{E9DFFAFB-3CCD-43F0-99A5-EE3095627093},Lafayette Masters Swimming (LMS),/clubs/colorado-masters-swimming-477/wo-group-folder/lafayette-masters-swimming-2208,40.000311,-105.092555,CO,Lafayette
{AB23A700-B70D-4532-B382-E749B898BADF},SQUID SWIM TEAM (SQD),/clubs/colorado-masters-swimming-477/wo-group-folder/squid-swim-team-1993,39.6781171,-105.1084455,CO,Lakewood
{9C0FE1EB-2E8B-4A0D-A1E3-72D29DA5436B},Boulder Aquatic Masters (BAMCO),/clubs/colorado-masters-swimming-477/wo-group-folder/boulder-aquatic-masters-593,40.04681739999999,-105.2616331,CO,Boulder
{18DADCC7-4960-415A-A53F-0CD3E8286120},Loveland Masters Swimming (LOV),/clubs/colorado-masters-swimming-477/wo-group-folder/loveland-masters-swimming-1981,40.404866,-105.026501,CO,Loveland
{929543D1-A97C-4D19-AD73-2F2EC3D25C71},Bee Gees (BG),/clubs/colorado-masters-swimming-477/wo-group-folder/bee-gees-1261,39.9204951,-105.0654249,CO,Broomfield
{BD059B88-1FAC-4008-91F1-0A966AB95F5F},Elevation Athletics (EACO),/clubs/colorado-masters-swimming-477/wo-group-folder/elevation-athletics,40.04681799999999,-105.2616296,CO,Boulder
{242046D9-52A1-4358-A0CD-E8A7EAA85E06},CMU Masters (GJ),/clubs/colorado-masters-swimming-477/wo-group-folder/cmu-masters,39.0788611,-108.5540896,CO,Grand Junction
{441C8C5D-CEB5-4A12-A09F-4E552B612083},Clearwater Long Center FACT (CLCF),/clubs/florida-aquatic-combined-team-480/wo-group-folder/clearwater-long-center-fact-1985,27.9802419,-82.74445469999999,FL,Clearwater
{4B8BFD09-9651-43DD-98D0-58B4F0990649},Southgate Gators Masters Swim Club (SGATE),/clubs/michigan-masters-759/wo-group-folder/southgate-gators-masters-swim-club,42.189834,-83.212549,MI,Southgate
{2BB41654-EF6A-4302-B1DB-E5A2A1EE0B84},dROP AQUATICS (DROP),/clubs/michigan-masters-759/wo-group-folder/drop-aquatics,42.4579388,-83.3787303,MI,Farmington
{9C7F3B41-81CD-4CB1-9EEE-02B8E35B4C1B},The City Of Ann Arbor Masters Team (CA2M),/clubs/michigan-masters-759/wo-group-folder/the-city-of-ann-arbor-masters-team-1-1-1,42.2875127,-83.7284083,MI,Ann Arbor
{6673458F-C670-46B4-9945-054B9E077417},Detroit Masters Swim Club (DMSC2),/clubs/michigan-masters-759/wo-group-folder/detroit-masters-swim-club,42.3966635,-83.1657195,MI,Detroit
{8F9B0DEE-561E-41DC-AED7-DFACDA9A3321},Lenawee Endurance Club (LEC),/clubs/michigan-masters-759/wo-group-folder/lenawee-endurance-club,41.89459249999999,-84.0531462,MI,Adrian
{F2A4F273-8B22-4B79-B94E-95F2C1965CD2},Doughboy Aquatics (DBA),/clubs/michigan-masters-759/wo-group-folder/doughboy-aquatics,42.5173911,-83.2440767,MI,Beverly Hills
{3054E2A8-EEC4-4472-B133-E9578D2B91BC},The City Of Ann Arbor Masters Team (CA2M),/clubs/michigan-masters-759/wo-group-folder/the-city-of-ann-arbor-masters-team-1-1,42.2875127,-83.7284083,MI,Ann Arbor
{5E8DD219-74A1-441C-BF4F-3176E9E26D00},Doughboy Aquatics (DBA),/clubs/michigan-masters-759/wo-group-folder/doughboy-aquatics-1,42.5173911,-83.2440767,MI,Beverly Hills
{4AAF9986-AED5-480F-81E5-BC6BF20A8F0A},Grosse Pointe Gators (GPG),/clubs/michigan-masters-759/wo-group-folder/grosse-pointe-gators,42.3894789,-82.9026894,MI,Grosse Pointe Farms
{577D1F2E-0416-49F5-8E96-20056D240C9A},Northcoast Masters Swimming (MINCM),/clubs/michigan-masters-759/wo-group-folder/northcoast-masters-swimming,44.7626831,-85.5938565,MI,Traverse City
{FC082D58-C6AB-4522-A898-78C6B81794CB},Kalamazoo Masters Swim Club (ZOOM),/clubs/michigan-masters-759/wo-group-folder/kalamazoo-masters,42.2904309,-85.5975851,MI,Kalamazoo
{0099580C-3A30-4962-893E-C5353507D2BF},BKTS (BKTS),/clubs/michigan-masters-759/wo-group-folder/bk-training-systems,42.6800509,-83.1559322,MI,Rochester Hills
{94027864-48AA-45B0-9AD7-764F0063601F},Ann Arbor Masters Swimming (A2MS),/clubs/michigan-masters-759/wo-group-folder/ann-arbor-masters-swimming,42.24399349999999,-83.7251874,MI,Ann Arbor
{752E60BE-83FE-4776-B9CF-3655A6459B8D},EGRA Masters (EGRA),/clubs/michigan-masters-759/wo-group-folder/egra-masters,42.9486869,-85.6144573,MI,East Grand Rapids
{33ABB02F-6758-4CA7-B51D-78A5195F6C95},Michigan Lakeshore Aquatics Masters (MLAM),/clubs/michigan-masters-759/wo-group-folder/michigan-lakeshore-aquatics-masters,42.7769406,-86.11617319999999,MI,Holland
{2569FBAD-0575-44D5-8039-2841A9FA3942},FAST (FAST2),/clubs/michigan-masters-759/wo-group-folder/fast,42.50184670000001,-83.37651830000004,MI,Farmington Hills
{06ECC4B4-C7F2-4443-99F0-7B70BC2AADAB},Milford Athletic Club (MACMI),/clubs/michigan-masters-759/wo-group-folder/milford-athletic-club-1,42.6254838,-83.5151834,MI,White Lake Charter Township
{8783B26C-F907-4582-ACEF-2B6F70A98354},Marquette Adventure Swimming (MAS),/clubs/michigan-masters-759/wo-group-folder/marquette-adventure-swimming,46.5562864,-87.414323,MI,Marquette
{A2B3596F-3524-41D5-81B5-3B274C0EBEBB},Aquatic Foundation of Alaska's Yeti Legends (YETI),/clubs/alaska-masters-swim-club-560/wo-group-folder/aquatic-foundation-of-alaskas-yeti-legends,61.1901522,-149.8279968,AK,Anchorage
{18CAA0DD-6D87-4B62-BE63-D00F36CDF6EE},Petersburg Whitecaps (PWC),/clubs/alaska-masters-swim-club-560/wo-group-folder/petersburg-whitecaps,56.8147174,-132.9531692,AK,Petersburg
{DE92793C-F247-47BA-81BC-EC73E17EBBFF},Top of the World Swimming (TOWS),/clubs/alaska-masters-swim-club-560/wo-group-folder/top-of-the-world-swimming-552,60.562040,-151.208960,AK,Kenai
{1E018642-83BB-4220-8972-1B932886F792},Baranof Barracudas Swim Club (BBSCM),/clubs/alaska-masters-swim-club-560/wo-group-folder/baranof-barracudas-swim-club-1576,57.05605929999999,-135.3450661,AK,Sitka
{68E73278-C7D5-4BA4-AE1D-9AB7E9BE199E},Swimming With Alaska Masters (SWAMS),/clubs/alaska-masters-swim-club-560/wo-group-folder/swimming-with-alaska-masters-543,61.1899313,-149.8006281,AK,Anchorage
{ACE87570-D4FA-41F0-A2EC-9A77E1C9AC2E},Buckner Masters Swim Team (BMSTA),/clubs/alaska-masters-swim-club-560/wo-group-folder/buckner-masters-swim-team-544,61.2136436,-149.9136154,AK,Anchorage
{B4E13EAE-5FE9-41FA-A688-1FBE8AE34043},Cascade Masters (CSCM),/clubs/puget-sound-masters-493/wo-group-folder/cascade-masters,47.8071485,-122.3608974,WA,Edmonds
{5ABA48BC-C6F1-4F2A-A7B3-6BD4DAD7478E},Tom Taylor Family YMCA Masters Swimming (TTFY),/clubs/puget-sound-masters-493/wo-group-folder/tom-taylor-family-ymca-masters-swimming,47.3536035,-122.60085049999998,WA,Gig Harbor
{F29A4095-8980-4B98-A3C1-84B167846087},Snohomish Aquatic Masters (SAM),/clubs/puget-sound-masters-493/wo-group-folder/snohomish-aquatic-masters-1991,47.9188568,-122.088374,WA,Snohomish
{56242C5E-CED4-4E98-9DE8-2CA99DD10571},Greenlake Aquaducks at View Ridge (GLAD),/clubs/puget-sound-masters-493/wo-group-folder/greenlake-aquaducks-926,47.6845265,-122.2648571,WA,Seattle
{A5CA329A-513E-41F2-BB8C-CF9F539223A7},Western Washington University Masters Swimming (WWUS),/clubs/puget-sound-masters-493/wo-group-folder/western-washington-university-masters-swimming-968,48.7315366,-122.4891154,WA,Bellingham
{3A780E59-F3D1-4D91-BD2F-56205FEDEEEB},North End Otters (NEO),/clubs/puget-sound-masters-493/wo-group-folder/north-end-otters-933,47.7630394,-122.2657856,WA,Kenmore
{0D9567EA-E394-4019-88E9-A73191590D09},425 Masters (GEM),/clubs/puget-sound-masters-493/wo-group-folder/golds-eastside-masters-1639,47.6751392,-122.1013464,WA,Redmond
{B761ACDD-0246-43C8-B1D8-1847B23DE573},South Whidbey Island Masters (SWIMX),/clubs/puget-sound-masters-493/wo-group-folder/south-whidbey-island-masters-953,48.01062169999999,-122.534807,WA,Freeland
{3F7863D9-7CF9-4ED4-B3B4-C02A654E7421},SNOCO YMCA Barracudas (SNOCO),/clubs/puget-sound-masters-493/wo-group-folder/everett-family-ymca,47.9545723,-122.2083215,WA,Everett
{368F1EBB-9A5C-4E17-B513-A766BEF55D51},Bernardo's All Stars (BERN),/clubs/puget-sound-masters-493/wo-group-folder/ymca-pierce-kitsap-bernardos-all-stars,47.2515147,-122.441583,WA,Tacoma
{61557C47-A431-427C-8F96-0C70FB98258F},CG Sports Management (CGSM),/clubs/puget-sound-masters-493/wo-group-folder/cg-sports-management-2336,47.5741706,-122.22098199999999,WA,Mercer Island
{B4FB678C-F005-464F-AADB-F460C7064761},Lake Washington Masters (LWM),/clubs/puget-sound-masters-493/wo-group-folder/lake-washington-masters-1575,47.7156458,-122.1995499,Wa,Kirkland
{2BEAFDF5-9050-4DD6-9704-4A59A180CB5A},ORCA Swim Team (ORCA),/clubs/puget-sound-masters-493/wo-group-folder/orca-swim-club-938,47.4997964,-122.3423295,WA,Seattle
{DCF0C2BA-4656-494D-BBF3-92F4B31912A3},Bainbridge Aquatic Masters (BAMWA),/clubs/puget-sound-masters-493/wo-group-folder/bainbridge-aquatic-masters-912,47.63833959999999,-122.52258269999999,WA,Bainbridge Island
{6930BB35-A72D-4237-AA6D-B06A4DF49129},Bellevue Club (BCMS),/clubs/puget-sound-masters-493/wo-group-folder/bellevue-club-913,47.605530,-122.189380,WA,Bellevue
{7B349374-B21D-4705-9663-68CD78E733AB},Team Walker International Masters (TWIM),/clubs/puget-sound-masters-493/wo-group-folder/team-walker-international-masters-2154,47.58409409999999,-122.03254449999997,WA,Sammamish
{429158B2-D8E9-4BF0-982A-BF3C6D429466},Thunderbird Aquatic Club Masters (TACM),/clubs/puget-sound-masters-493/wo-group-folder/thunderbird-aquatic-masters-954,48.5045951,-122.6255094,WA,Anacortes
{AD86C120-8248-476E-B57C-AA44294683EA},Mercer Island Redwoods (MIR),/clubs/puget-sound-masters-493/wo-group-folder/mercer-island-redwoods-932,47.5712144,-122.2061553,WA,Mercer Island
{2F4302F6-C1FE-4C1F-8FF3-2B1D60D0600A},Husky Masters (HMST),/clubs/puget-sound-masters-493/wo-group-folder/husky-masters-927,47.6845265,-122.2648571,WA,Seattle
{1F385551-ED37-4D8F-AF6D-892C4AB4F7A5},Manitou Springs Masters (MSM),/clubs/colorado-torpedoes-masters/WO Group Folder/manitou-springs-masters,38.8580255,-104.8980408,CO,Manitou Springs
{76AD9D92-19F3-4AFD-B197-DE6A8E8584EA},Swim Squared Masters (SWIM2),/clubs/colorado-torpedoes-masters/WO Group Folder/swim-squared-masters,39.2492196,-106.2922918,CO,Leadville
{8DF6014B-EAC5-46EA-934E-E60AF554EEE7},Crawfish Aquatics (CRAW),/clubs/southern-masters-swimmers-503/wo-group-folder/crawfish-aquatics,30.37388779999999,-91.1073583,LA,Baton Rouge
{E80E7619-A3C2-419F-9767-14CB6DC0D1D1},Riptide Masters Swimming (RPTD),/clubs/southern-masters-swimmers-503/wo-group-folder/riptide-masters-2330,29.979866,-90.1907481,LA,Metairie
{B2AD7883-F88E-45AE-A9B3-88020F27CF4A},Hamilton Masters (HAMMT),/clubs/big-sky-montana-masters-3232/wo-group-folder/hamilton-masters,46.2445948,-114.1449003,MT,Hamilton
{5A5EF223-82B7-4340-BE45-91CF01E9A667},Helena Ridley Masters (HRM),/clubs/big-sky-montana-masters-3232/wo-group-folder/helena-ridley-masters,46.596805,-112.0218497,MT,Helena
{8B9107DE-8D7C-4320-BC0D-321DB4BE3B07},Garden City (MISS),/clubs/big-sky-montana-masters-3232/wo-group-folder/missoula-masters,46.8241444,-114.0778177,MT,Missoula
{C99D4627-D9B1-41C1-914C-10ABEA6683FE},Flathead Lake Open Water Swimmers (FLOWS),/clubs/big-sky-montana-masters-3232/wo-group-folder/flathead-lake-open-water-swimmers,47.695975,-114.159959,MT,Polson
{2AFA0D62-BB7D-4B93-AC7B-73EF9E366563},Red River Masters (RRWG),/clubs/southern-masters-swimmers-503/wo-group-folder/red-river-masters-987,32.4774411,-93.6938628,LA,Shreveport
{1FADEA90-4F09-40D0-833C-7C97446D3D20},Elmwood Sharks (ESWG),/clubs/southern-masters-swimmers-503/wo-group-folder/elmwood-sharks-992,29.9621615,-90.18778089999999,LA,Elmwood
{58BBB33B-E0F4-4737-A6C9-C88BD46A6842},Blake Learn To Swim (BLTS),/clubs/minnesota-masters-swim-club-455/wo-group-folder/blake-learn-to-swim,44.9237073,-93.386454,MN,Hopkins
{23672172-EA57-4445-BBE8-F03DDB743FC6},Minnesota Ice Swim Club (MNICE),/clubs/minnesota-masters-swim-club-455/wo-group-folder/minnesota-ice-swim-club,44.9657315,-93.1653529,MN,St Paul
{BDD09224-04B7-4A6F-A8A4-344F6B2DA691},Hopkins Masters (HOPK),/clubs/minnesota-masters-swim-club-455/wo-group-folder/hopkins-masters-2197,44.934149,-93.41245809999998,MN,Hopkins
{4E1A9D60-D870-43A5-ADA9-1BB46C97F155},Beyond Sport Fitness Masters (BSF),/clubs/minnesota-masters-swim-club-455/wo-group-folder/beyond-sport-fitness-masters,45.5682144,-93.58264919999999,MN,Princeton
{BA593381-20FC-4628-9E9B-85FBBA1FFE41},Minnesota JCC (MNJCC),/clubs/minnesota-masters-swim-club-455/wo-group-folder/minnesota-jcc,44.9037556,-93.1742983,MN,St Paul
{347195B3-0A37-47EF-B70B-B31305B9002A},Beyond Sport Fitness Masters (BSF),/clubs/minnesota-masters-swim-club-455/wo-group-folder/beyond-sport-fitness-masters-1,45.5682144,-93.58264919999999,MN,Princeton
{3459A772-82D1-4F04-9571-2F4F784FB2EB},Mako Aquatics (MAKO),/clubs/minnesota-masters-swim-club-455/wo-group-folder/mako-aquatics,44.9842325,-92.7195703,WI,Hudson
{D49273CB-943D-4A83-B08D-EDB2E0CF79BE},West Metro Swim Team (WMSTO),/clubs/minnesota-masters-swim-club-455/wo-group-folder/west-metro-swim-team,44.99128630000001,-93.5933518,MN,Orono
{6BE1318A-EB9F-4F5E-86E2-071C3F707977},West Express (WEX),/clubs/minnesota-masters-swim-club-455/wo-group-folder/west-express-1897,44.8222832,-93.5806563,MN,Chaska
{24FCACCB-5C3A-45CE-BA54-FEE6E51E63A4},Piranhas Master's Workout Group (Richfield) (PMR),/clubs/minnesota-masters-swim-club-455/wo-group-folder/piranhas-masters-workout-group-richfield-2275,44.8681554,-93.30632729999999,Minnesota,Richfield
{35958064-09F1-460C-8AD8-613CC66C4308},EP Foxjets Masters (FOXJ),/clubs/minnesota-masters-swim-club-455/wo-group-folder/ep-foxjets-masters-2300,44.8559486,-93.48523039999999,MN,Eden Prairie
{EBBF849F-C12F-4DE4-A95A-9F67C1EF335D},Riptide Masters (RIP),/clubs/minnesota-masters-swim-club-455/wo-group-folder/riptide-masters-1928,44.7335005,-93.18432059999998,MN,Apple Valley
{4F6EDF3F-9889-43C1-B489-0668094CBA17},Edina Swim Club (ESC-M),/clubs/minnesota-masters-swim-club-455/wo-group-folder/edina-swim-club-2229,44.8996156,-93.3456722,MN,Edina
{63F8FA2C-B271-477B-BD34-88629538C733},Sea Devils Masters (SDVL),/clubs/minnesota-masters-swim-club-455/wo-group-folder/sea-devils-masters-2158,45.3360488,-93.7410665,MN,Big Lake
{D5F704A0-EF32-45D7-9FB7-77033DFA6AEF},Minnetonka Masters (MTKA),/clubs/minnesota-masters-swim-club-455/wo-group-folder/minnetonka-masters-1963,44.9283622,-93.4956071,MN,Minnetonka
{6FF7C0BC-FC53-4C64-B885-264B94AC917D},Glacier Swim Club (GSCAK),/clubs/alaska-masters-swim-club-560/wo-group-folder/glacier-swim-club-2008,58.3046382,-134.4281488,AK,Juneau
{8CE0F005-E13A-443D-A2E1-FB4E41D728E2},FAST Masters (FAST1),/clubs/colorado-masters-swimming-477/wo-group-folder/fast-masters-2176,40.5633214,-105.044615,CO,Fort Collins
{7EC40A40-8329-403C-8E69-00D2A7E12A2F},New Albany Narwhals (NWHLS),/clubs/swim-kentucky-masters-504/wo-group-folder/new-albany-narwhals,38.2826185,-85.8230152,IN,New Albany
{F95A4864-8E21-4E16-8066-E1BC33BA87FE},Swimming with Polar Bears Northern Lights Masters (SWPB),/clubs/alaska-masters-swim-club-560/wo-group-folder/swimming-with-polar-bears-northern-lights-masters,61.1389646,-149.7813033,AK,Anchorage
{21DA06B1-1BAD-4274-A6DD-83DFE84C762D},Club Wolverine Masters (CW),/clubs/michigan-masters-759/wo-group-folder/club-wolverine,42.2694901,-83.7433517,MI,Ann Arbor
{B2B4DB0C-92F4-40F0-9403-82E4B17833D8},East Carolina Aquatics Masters (ECANC),/clubs/north-carolina-masters-swimming-426/wo-group-folder/east-carolina-aquatics-masters-1718,35.5979399,-77.3666939,NC,Greenville
{94D73C24-8DEE-4DD9-9567-BF44ADB942D5},Worcester Area Masters (WAM),/clubs/new-england-masters-swim-club-468/wo-group-folder/worcester-area-masters-1703,42.274229,-71.8106028,MA,Worcester
{8E460AEB-D4C5-4EC7-8DE3-A98A54C93950},FMC Fossil Fish (FF),/clubs/illinois-masters-617/wo-group-folder/fmc-fossil-fish,41.8123249,-87.9713293,IL,Westmont
{84D5680B-8878-459D-9709-0561F6899417},Performance Ready (PRMN),/clubs/minnesota-masters-swim-club-455/wo-group-folder/performance-ready,44.934149,-93.4124581,MN,Hopkins
{C8AE424E-9624-4102-9E41-89E33DC22525},Aqua Masters (AQM),/clubs/illinois-masters-617/wo-group-folder/bradley-bourbonnais-masters-aquatics-2186,41.1060082,-87.8850624,IL,Kankakee
{16C36DC4-C42F-47CD-A200-65F37A2025AD},St. Helens Masters (SHM),/clubs/st-helens-masters,45.8612102,-122.8082646,OR,St Helens
{919DAAE9-DEEE-4FFB-99E6-151A54A85421},Patriot Aquatics (PALB),/clubs/patriot-aquatics,28.6778033,-81.42678240000001,FL,Altamonte Springs
{5B11FF06-B297-44FF-8EB3-88D5FA35BAB2},Villagers Masters Aquatic Squad (VMAS),/clubs/villages-masters-aquatic-squad,28.9081518,-81.9739913,FL,The Villages
{F1CF4BFF-7AB3-4346-B5B5-BF5281EB4FE6},American Energy Swim Club (AESC),/clubs/american-energy-swim-club,35.6829581,-97.5056468,OK,Edmond
{B6A6C4FF-326C-42A5-9C03-9A4F6897570B},TEAM SHACK (SHACK),/clubs/team-shack,32.2572246,-110.9268643,AZ,Tucson
{4B3AF135-DFA8-408F-9F16-A22F5383C171},SOUTH GATE (SGAC),/clubs/south-gate,34.0080453,-118.1152857,CA,Montebello
{1CF07C7C-B5EB-4C40-9CF2-253D7D4B2312},Muslimahs Endure (ME),/clubs/muslimahs-endure,33.845252,-84.1327687,GA,Stone Mountain
{F1A622B5-EAA9-46BB-B448-59F346A8EADB},Savannah Masters Swimming (SAVMS),/clubs/savannah-masters-swimming-2,31.9972875,-81.0895886,GA,Savannah
{6E6FF740-81F3-45A6-998F-2FF7B0CECB43},Nat Masters Swim Club (NAT),/clubs/the-natatorium,41.1388136,-81.4861271,OH,Cuyahoga Falls
{33FE75C6-59A8-4F88-BC07-5C2AFE5F187E},Swim Lessons Hawaii Masters Swimming (SLHMS),/clubs/swim-lessons-hawaii-master-swimming-club,21.2908719,-157.8513199,HI,Honolulu
{26298011-42F1-4564-A24F-5CAC57A6133B},Miller Swimming (MS),/clubs/miller-swimming,35.1440869,-80.84094209999999,NC,Charlotte
{16DE2554-E6A5-42BA-BEF7-0E804BEBE447},Prime Aquatics (PA),/clubs/prime-aquatics,35.7858162,-83.99984420000001,TN,Alcoa
{4FEA074A-47CE-4579-8C41-23DBCC11B868},Peconic Masters Swim Club (PMSC),/clubs/peconic-masters-swim-club,40.8629563,-72.6970375,NY,Manorville
{C0293BD5-F019-4134-8F44-C92A7F1B0AF3},Queen City Dolphins Masters Swimming (QCDM),/clubs/queen-city-dolphins-masters-swimming,35.2171966,-80.8406333,NC,Charlotte
{E71D1BA2-5691-4ED6-924D-B8379505640C},River City Masters - Evansville (RCME),/clubs/river-city-masters-evansville,37.994387,-87.56414699999999,IN,Evansville
{5E1D44A8-FE44-4C39-9510-40FAF112186F},Brick Bodies (BBP),/clubs/brick-bodies-1,39.454382,-76.6365284,MD,Timonium
{0F790FB6-0123-460E-A3BD-08768FDC4BF2},Streamliners (LNRS),/clubs/streamliners-2114,37.8576004,-122.2424077,CA,Berkeley
{6E4656B3-9BFB-481D-8C15-9BB0BCF25330},Auburn Master Swimmers (AMS),/clubs/auburn-master-swimmers-709,32.5978224,-85.4950157,AL,Auburn
{CAC9D38C-923C-462E-B16A-8ACDE9C37245},Westfield YMCA WAVE Masters  (WYST),/clubs/ymca-of-greater-westfield-masters-swim-team,42.1206089,-72.7554325,MA,Westfield
{29644C41-F4F8-44CA-9446-54F1AB557639},Amherst Aquatic Club (OHAAC),/clubs/amherst-aquatic-club-1,41.277798,-82.2203163,OH,Oberlin
{20682F2C-A15B-496B-BDDD-9A875D2E5744},Streamliner Aquatics (SASR),/clubs/streamliner-aquatics-1873,43.6911393,-116.3430696,ID,Eagle
{205868D2-7265-436D-AFCD-1804D4D46A8C},Munster Masters (MMA),/clubs/munster-masters-1822,41.5545442,-87.5046479,IN,Munster
{DA5912E8-F627-45AB-9C19-A25F0D0E0E72},Genesee Valley Masters Swimming (GVM),/clubs/genesee-valley-masters-swimming-2203,43.0829967,-77.43021499999999,NY,Fairport
{C4FDEEA1-0AAF-4241-8FFA-C6CF89F08312},Fresno Area Manatee Masters (FAMM),/clubs/fresno-area-manatee-masters,36.7671798,-119.8052963,CA,Fresno
{4B1168C0-FE56-42E2-B8C4-4E9FEA8D1D1D},Highpoint Masters (HMS),/clubs/highpoint-masters,35.1285966,-106.4940582,NM,Albuquerque
{03AF4D18-FE10-4332-BF38-D428B7715E1B},Dubuque Area Swimmin Hurricanes (DASH),/clubs/dubuque-area-swimmin-hurricanes,42.5017924,-90.7339023,IA,Dubuque
{91B86E66-719C-446C-9ABB-C7FA1E008AF5},Flagler Fluid Swim Team (FFST),/clubs/flagler-fluid-swim-team,29.5383673,-81.2216966,FL,Palm Coast
{E77AA266-6741-4052-BCC4-1FC8621C5C93},Nantucket Aquatics-Nantucket Triathlon Club and Athletic Association (NWM),/clubs/nantucket-whalers-masters,41.2633543,-69.962462,MA,Nantucket
{70821126-2009-491F-85AC-4172F08EBAFA},Grand Strand Masters Swimming (GSMS),/clubs/grand-strand-masters-swimming-850,33.8293272,-78.6841031,SC,North Myrtle Beach
{94A186F2-9B50-4D19-AA87-EDD4580F3D30},STAR Masters (STMA),/clubs/star-masters-456,44.9657315,-93.1653529,MN,St Paul
{857391DC-764F-4CBE-8902-C3B5BB4BAFB1},Gannon University Masters Swimming (GUMS),/clubs/gannon-university-masters-swimming,42.1310827,-80.0889339,PA,Erie
{A67368C6-C9B4-48B9-9D22-64D4026217C6},Centreville Swim Club (CSC),/clubs/centreville-swim-club,38.8899252,-77.4684942,VA,Chantilly
{82D821E4-2621-4712-B9E8-E9EC4CE82343},Golden Road Aquatics (GRA),/clubs/golden-road-aquatics-2615,34.1632836,-118.339346,CA,Burbank
{A08BB260-91E7-4CE2-ACAC-935E62F5EAD3},Aquatic Training Center Masters (ATCM),/clubs/aquatic-training-center-masters-3239,33.7963265,-118.0524159,CA,Los Alamitos
{40C1F791-0AB9-4399-B74D-1A9C8947ED98},Flow State (FLOW),/clubs/flow-state,33.5997438,-117.9005345,CA,Newport Beach
{1CE6B7CD-F395-4C85-8BB9-BD8FFB3B9B2B},SWIM OZ (OZ-AR),/clubs/swim-oz,36.3344137,-94.1606991,AR,Rogers
{D92DCE53-13C5-4D69-BCE3-B2B8A87E4BF8},Texas Elite Swim Team Masters (TEST),/clubs/texas-elite-swim-team,29.844147,-95.7775545,TX,Katy
{5A47157B-316A-41D7-BC84-DFE8AD6B7972},Mt. Lebanon Aqua Club (MLAC) (MLAC),/clubs/mt-lebanon-aqua-club-mlac-2318,40.3761363,-80.0507739,PA,Mt Lebanon
{CF6B7933-8589-4ED0-B9E2-7694AAC4A5A3},Spring Valley YMCA Masters (SVY),/clubs/spring-valley-ymca-masters-1812,40.2066635,-75.5103819,PA,Royersford
{7B0C51A8-6421-40F2-B6AD-C0339443670D},Gator Swim Club (GSC),/clubs/gator-swim-club-525,29.6494224,-82.35116819999999,FL,Gainesville
{810DCA6B-ACA8-4400-9F6A-D9E3045AD6E0},Outer Banks Family YMCA Tidal Waves Masters (YOBX),/clubs/outer-banks-ymca-masters,35.9768465,-75.6423569,NC,Nags Head
{A8E9BD38-44E0-44CB-9621-7CE01BBCB040},Millville Tiger Sharks Masters (MVTS),/clubs/millville-tiger-sharks-masters,39.3987319,-75.039641,NJ,Millville
{2A35F4F4-0D76-40B1-9179-25D9EE9171CB},Hill Country Aquatics Masters (HCAM),/clubs/hill-country-aquatics-masters,30.329340,-97.816473,TX,Austin
{2715B7D4-9101-488B-9902-9D54425F0B4A},Anyone Can Do 1 More (ACD1M),/clubs/anyone-can-do-1-more,40.4916933,-111.8718494,UT,Draper
{6B6CB87F-7E9D-46C6-B2FD-F40A2266C6D2},Gold Coast Masters (GOLD),/clubs/gold-coast-masters-702,26.2603161,-80.2923155,FL,Coral Springs
{78B0CF04-75AF-4253-ABA7-E1F80E49301E},Nashville Aquatic Club Masters (NASH),/clubs/nashville-aquatic-club-masters-1613,36.1511292,-86.8092454,TN,Nashville
{15631607-8734-4300-8EDC-E19D8086A85F},Stanford Masters Swimming (STAN),/clubs/stanford-masters-swimming-877,37.4338024,-122.1581693,CA,Stanford
{059F8B0D-5873-4857-B47F-9D2478FFB192},Nu Wave Swim Club Masters (WAVEM),/clubs/nu-wave-swim-club-masters,29.9317678,-90.111738,LA,New Orleans
{7DA2BFAB-E65E-4D8E-B48E-FCA4666E12C4},Arlington Masters (ARMS),/clubs/arlington-masters-676,38.8666446,-77.048373,VA,Arlington
{4D3CF405-584D-4084-872E-526511F6CCF3},WeREndurance (WRE),/clubs/werendurance,40.720660,-73.57603259999999,NY,East Meadow
{076594EB-F41B-4EBF-8493-BCF982994FCD},St Pete Masters Inc (SPM),/clubs/st-pete-masters-inc-483,27.7837566,-82.62588009999999,FL,St. Petersburg
{63C384D6-6600-481F-B622-3456257D64B7},Napa Valley Masters Swimmers (NVM),/clubs/napa-valley-masters-858,38.2751424,-122.2988486,CA,Napa
{CC96EEDB-B878-47B7-BE39-2945828046DF},Port Angeles Swim Club (PASC),/clubs/port-angeles-swim-club,48.1147172,-123.4335548,WA,Port Angeles
{A86E1445-A084-4250-812D-88C62BD7A9AB},Southern California Aquatic Masters (SCAQ),/clubs/southern-california-aquatic-masters-431,34.0121728,-118.4014881,CA,Culver City
{910ABF89-4972-4F6E-99CB-F4AB3163C0F3},Mountain View Masters (MVM),/clubs/mountain-view-masters-646,37.3892478,-122.085759,CA,Mountain View
{C59B771D-C59C-463C-B3F6-C9F7AB4A7A5B},Sarpy County Swim Club Masters (SCSCM),/clubs/sarpy-county-swim-club-masters,41.1706518,-96.0399468,NE,Papillion
{571B5F10-D33D-47B0-AEEE-B3E59E20B0EE},Life Time Minnesota Masters (LTSWM),/clubs/life-time-minnesota-masters,45.1006964,-93.42827199999999,MN,Maple Grove
{A330E503-3C20-48CA-BE72-A12DAC4CFC86},YMCA 7 Hills Surge (YSRGE),/clubs/ymca-7-hills-surge,37.4103582,-79.140301,VA,Lynchburg
{6D3692DC-03C1-4D48-BF95-DE811C617DF7},Rec2connect Razorsharks  (RAZR),/clubs/rec2connect-razorsharks,41.3665967,-81.6816598,OH,Seven Hills
{AECDA52D-541F-4224-BF07-B84CC05A8ACC},DeKalb Aquatics Masters (DAQM),/clubs/dekalb-aquatics-masters-1314,33.7662676,-84.29395430000001,GA,Decatur
{8B6F2C8C-6D1D-4EAE-8E8E-1502440E174C},Los Alamos Aquatomics (LAA),/clubs/los-alamos-aquatomics-2999,35.883949,-106.307419,NM,Los Alamos
{BA938467-3C19-47A4-8539-9C4A1A2432A6},West Florida Lightning Masters (WFLM),/clubs/west-florida-lightning-masters-870,27.8925657,-82.8207188,FL,Largo
{CD8E5450-B17A-456B-AC14-883D5665C777},Swim Florida Masters  (SWIM),/clubs/s-w-i-m-florida-masters-inc-489,26.5407191,-81.9024053,FL,Fort Myers
{31818B82-301D-4C4A-83FB-C68AA2ACDEFA},Longmont Colorado Masters (LOCOM),/clubs/longmont-colorado-masters,40.1803556,-105.084146,CO,Longmont
{EB432648-FA14-4228-BB29-5682D85E9398},Wave One Open Water (WAV1),/clubs/wave-one-swimming-1704,38.78018389999999,-77.016842,MD,Oxon Hill
{50AD1A11-BD93-4E8E-91B3-98D2F1792663},Waterloo Swimming (WLOO),/clubs/waterloo-swimming-2864,30.3617848,-97.7414581,TX,Austin
{E486B657-6A90-4592-A854-DB0DB6D960F4},Ukiah Dolphins (UD),/clubs/ukiah-dolphins,39.16393559999999,-123.2244679,CA,Ukiah
{A191FF0D-3C0F-4F19-8D5D-7B4ACEC9F9AF},Longhorn Aquatics (TXLA),/clubs/longhorn-aquatics-505,30.279958,-97.7334443,TX,Austin
{3F0605EA-9648-4DE5-BD3F-1B63CF3DCC16},Wyckoff Family YMCA Masters (WFYM),/clubs/wyckoff-family-ymca-masters-1,41.015246,-74.174751,NJ,Wyckoff
{87D332B6-76D9-4394-BECC-9610461DC80E},The Olympic Nopefuls (NOPES),/clubs/the-olympic-nopefuls,34.3096801,-83.80783180000002,GA,Gainesville
{4FCE430F-DBFF-4A07-B43E-27686A2ECB3F},West Hollywood Aquatics (WH2O),/clubs/west-hollywood-aquatics-545,34.0641466,-118.2593952,CA,Los Angeles
{71BB193B-F96D-4E04-8729-1ED1C6C28B8D},Diversity In Aquatics Masters Swim & Triathlon (DIA),/clubs/diversity-in-aquatics,26.1740699,-80.1845641,FL,Lauderdale Lakes
{A7E55B17-3057-4669-9014-CBF471BAB92D},Lowcountry Masters  (LOCO),/clubs/lowcountry-masters-2520,32.3831402,-80.68964489999999,SC,Port Royal
{9E779EC7-51DD-4322-9560-314C8AEC6E16},Los Angeles Masters Swimming (LASC),/clubs/los-angeles-masters-swimming-1682,34.1396191,-118.4127859,CA,Los Angeles
{3A106714-9B64-482C-AA75-22D4F6D9BCD1},Sahuarita Stingrays Swim Team (SRAY),/clubs/sahuarita-stingrays-2790,31.9547882,-110.9773961,AZ,Sahuarita
{336A8F4B-7702-47A3-B516-4BB1287F2F7C},Delmarva Aquatic Masters Dogfish (DAMD),/clubs/delmarva-aquatic-masters-dogfish-638,38.3561202,-75.5806135,MD,Salisbury
{64CD9959-C61D-4DC1-A29F-8E7CDC173932},Royal Swim Team (RYL),/clubs/royal-swim-team-2360,34.0121728,-118.4014881,CA,Culver City
{8D9CDF1C-DA68-4A32-B4A4-706D102358D9},North-Stars Swim Team Masters (NSANM),/clubs/north-stars-swim-team-masters,33.9381367,-84.3805299,GA,Sandy Springs
{7F59FEBD-E180-44AA-A434-332B77FFBECC},Dayton Area Sharks (DAS),/clubs/dayton-area-sharks-576,39.7984979,-83.8893331,OH,Yellow Springs
{EFABA129-9C7E-4F3F-A4BE-2073D92A87E0},Davis Aquatic Masters (DAM),/clubs/davis-aquatic-masters-442,38.55497460000001,-121.7745503,CA,Davis
{0E9C90E6-7135-40EA-9B9F-E823B69DCA58},Gwinnett County Masters Club (GMAC),/clubs/gwinnett-county-masters-club-2155,33.845252,-84.1327687,GA,Stone Mountain
{5581CA43-148C-4E90-8BC6-C0D4D20D95B9},CCBA Barracudas (CCBAR),/clubs/ccba-barracudas,43.6448037,-72.2507073,NH,Lebanon
{87C011E8-C60F-4890-A044-8FC1F989648B},Lake Gators Swim Club (LG),/clubs/lake-gators,28.5503156,-81.7189528,FL,Clermont
{91A2004B-7750-4770-9DD1-55AD3FF6686A},Bear Valley Masters (BVM),/clubs/bear-valley-masters,35.1700866,-118.6555338,CA,Bear Valley Springs
{F1244439-3722-4BAE-BCED-7445A4CE577E},Long Island City YMCA Masters Swim Team (LICY),/clubs/long-island-city-ymca-masters-swim-team-3238,40.7453357,-73.9322213,NY,
{CAEF4FE6-8195-4C43-96FA-C9E8CB3D6AAA},Southeastern Area Masters Swimming (FSAM),/clubs/southeastern-area-masters-swimming-1978,39.9690491,-85.9147981,IN,Fishers
{A5A2847E-4072-4240-A01B-2ED6EF2BC89A},Rocklin Aquatics Masters (RAMS),/clubs/rocklin-aquatics-masters-647,38.7906938,-121.2138947,CA,Rocklin
{6C909126-9040-48A5-985B-1D8E9DB6AEB0},Crimzone (CRIMZ),/clubs/crimzone,38.8666446,-77.048373,VA,Arlington
{EBE0DCC7-9BCA-460E-B15B-BF62A44F5AE5},Waves Aquatics Masters (WAVM),/clubs/waves-aquatic-masters-582,38.496758,-122.462749,CA,St Helena
{ABB4128B-36C6-42D9-8EE2-E5B3B336F7A6},Auburn YMCA Stingrays Masters (AYST),/clubs/auburn-ymca-stingrays-masters,42.928906,-76.5677255,NY,Auburn
{E39A26A2-FD58-4E1D-A68A-7E952D14EDB4},Rose Bowl Masters (ROSE),/clubs/rose-bowl-masters-611,34.1516986,-118.1645325,CA,Pasadena
{BDF98070-9378-4C20-A4C5-BF29ED0B344D},DC Dept Of Recreation & Parks (DCRP),/clubs/dc-dept-of-recreation-parks-562,38.9490078,-77.0778517,DC,Washington
{60E907E4-58AB-4834-A2C6-05E11EBE84EF},Long Beach Grunions (LBG),/clubs/long-beach-grunions-451,33.7574609,-118.1440098,CA,Long Beach
{E3661FB0-3FE2-4FAC-8B5B-A964444042AD},Julington Creek Masters (JCM),/clubs/loggerhead-masters,30.1014365,-81.58067979999998,FL,Fruit Cove
{3D8E1323-2142-41F4-A54C-90CE8BABFC74},SAMO Masters (SAMO),/clubs/samo-masters-2417,34.0121728,-118.4014881,CA,Culver City
{13EF0F79-4D83-47FF-B437-C4F3C24ABC5E},Santa Cruz Masters Aquatics (CRUZ),/clubs/santa-cruz-masters-aquatics-650,36.978959,-122.0581645,CA,Santa Cruz
{045D8200-F153-4EF7-946B-8ACEED8D02A2},Manatee Aquatic Masters Inc (MAM),/clubs/manatee-aquatic-masters-inc-727,37.8355289,-122.2832756,CA,Emeryville
{54B4EB4D-A7BD-4733-8970-56C289D8B195},Ohana Swim Team (OSTM),/clubs/ohana-swim-team,47.2639174,-122.4811764,WA,Tacoma
{3B7A01BC-61EA-45C6-9DC2-289F6144428A},Team Zuma Masters Swimming (TZMS),/clubs/malibu-masters-swimming-2107,34.025909,-118.8252569,CA,Malibu
{3482469B-AD92-433C-869D-6191D724545F},Wind-n-Sea Masters Swimming (WIND),/clubs/wind-n-sea-masters-swimming-2063,32.8331471,-117.2718598,CA,San Diego
{F0999BF4-2BF3-4F33-9F61-78A62010FFBE},Santa Clara Swim Club Masters (SCSC),/clubs/santa-clara-swim-club-masters-754,37.3366779,-121.9686602,CA,Santa Clara
{B77E146E-5CE7-4333-9E9A-0A6CE6B0776B},Wine Country Masters (WINE),/clubs/wine-country-masters-764,38.5142481,-122.7873604,CA,Santa Rosa
{9A60EA4D-6F58-40FB-A8C3-3ED643F07C02},Memphis Tiger Masters (MTM),/clubs/memphis-tiger-masters,35.1144571,-89.9377348,TN,Memphis
{E7E5988D-7B9D-4D4F-8CCE-74FE2152FCD5},Santa Barbara Masters Swimming (SBM),/clubs/santa-barbara-masters-520,34.4076886,-119.6938238,CA,Santa Barbara
{0EBEC97E-3489-41B2-9546-3900B01A91A7},Maine Masters Swim Club (MESC),/clubs/maine-masters-swim-club-467,43.71392609999999,-70.30247729999999,ME,Portland
{1FDF3DD4-0308-4F9A-9440-32ADF8774473},Williamsport Area Swim Club (WASC),/clubs/williamsport-area-swim-club-1869,41.24218010000001,-76.8408908,PA,Muncy
{BF93A669-3801-40FD-8499-627FE3EC8F79},Alien City Masters (ACM),/clubs/alien-city-masters,33.4076631,-104.5417789,NM,Roswell
{D2441266-26EF-4BE1-A009-95B280B34108},San Jose Clownfish (SJCF),/clubs/san-jose-clownfish,37.2546208,-121.8602194,CA,San Jose
{8F6EE318-5663-4FD1-BD69-E9AD023490CB},Charger Aquatics (Santa Fe) (SFAC),/clubs/santa-fe-aquatic-club,35.6415598,-105.9929401,NM,Santa Fe
{AF7EFCF3-011F-41EA-AA6B-0B3DF1AB44A7},Almaden Masters (ALMA),/clubs/almaden-masters-831,37.22529189999999,-121.8761735,CA,San Jose
{A3AEC6BC-E91C-4618-99BA-C7D7C9CECE2A},Fort Bend Masters Swimming (FBMS),/clubs/fort-bend-masters-swimming-672,29.5744519,-95.584580,TX,Sugar Land
{A6405D0B-100A-4C29-8BB2-FDB0277DE094},"The Bay Club, Santa Clara (BAYCL)",/clubs/the-bay-club,37.3765602,-121.9859667,CA,Santa Clara
{28E373AC-002B-46EF-97FE-E9DA77701060},Dolphin Club (DC),/clubs/dolphin-club-661,37.8077579,-122.4214636,CA,SF
{81C1DC55-87BC-4907-9536-6BFDE6F0C0D2},Downey Dolphins Masters (DDM),/clubs/downey-dolphins-masters,33.9359923,-118.1400541,CA,Downey
{1671C9EC-5454-477D-8770-B3FB9E7058AA},DOC IU Masters Swimming (DOC),/clubs/doc-iu-masters-swimming-801,39.1687356,-86.5147435,IN,Bloomington
{A2FDECE5-90C4-4EEB-8C04-51306E0F0FF3},YMCA of Greater Monmouth County (YGMC),/clubs/ymca-of-greater-monmouth-county,40.34511190000001,-74.0688413,NJ,Red Bank
{F15A59BB-AA66-49D4-843D-9D2B9C5ED473},Wytheville Waves Master Swim & Tri (WWMST),/clubs/wytheville-waves-master-swim,36.9598359,-81.07192979999999,VA,Wytheville
{F4FA23AD-212F-48FF-B1C5-FE2760FBCB29},South West YMCA Masters (SWYM),/clubs/south-west-ymca-masters-683,29.8313596,-95.5543675,TX,Houston
{CCCEF6B1-21BC-493F-9ACB-95D101181D91},Carl E. Sanders Family YMCA (SBY03),/clubs/carl-e-sanders-family-ymca,33.83120820000001,-84.42479759999999,GA,Atlanta
{414DC360-3061-4681-A864-5A37FC3BFC0B},Winona Masters Swimmers (WMNS),/clubs/winona-masters-swimmers-2619,44.0457784,-91.69563350000001,MN,Winona
{6A41C270-DB64-444D-B80A-D481DDCC2436},"Great Bay Masters Swimming, Inc (GBM)",/clubs/great-bay-masters-swimming-inc-466,43.1944323,-70.8733572,NH,Dover
{B3E86612-9EA3-41ED-A2F7-A33D71C43AAB},Magnolia Masters (MAMC),/clubs/magnolia-masters-1809,30.1611435,-95.50645000000003,TX,The Woodlands
{37CF0C63-1AFB-4F1B-BA11-4AB8A95E220D},Nautical Milers Special Needs Swim Team (NAUT),/clubs/nautical-milers-special-needs-swim-team-2104,34.03281,-84.46886,GA,Marietta
{C89F85E7-3DB9-4269-97EF-F19755CAE9DF},Madera Masters Swim (MMS),/clubs/madera-masters-swimmers-954,36.9392994,-120.0660723,CA,Madera
{4085B467-48B6-4468-BE87-006945D001CE},Aspire Aquatics of Colorado (AACM),/clubs/aspire-aquatics-of-colorado,39.5874318,-104.7646507,CO,Centennial
{7747A5F0-1180-4317-BCAB-4441CBAF16C3},SF Tsunami Masters (TSUN),/clubs/san-francisco-tsunami-masters-732,37.784588,-122.4350898,CA,SF
{A32A3999-DB72-4187-BE4E-17F9ED51CA18},Dolphins of the Desert Masters (DDSA),/clubs/dolphins-of-the-desert-3245,32.3165915,-110.914200,AZ,Tucson
{4597A04B-B87C-4ACD-AE68-6FF59E5E710A},Cohasset Summer Swim Team (COH),/clubs/cohasset-summer-swim-team,42.2432992,-70.8119256,MA,Cohasset
{6E794665-0A2A-427F-AA57-DE89B87D134F},Silicon Valley Triathlon Club (SVTC),/clubs/silicon-valley-triathlon-club,36.9644003,-122.0196151,CA,Santa Cruz
{34186AA3-A2BB-4D45-A5DD-B20D8BABA391},San Diego Swim Masters (SDSM),/clubs/san-diego-swim-masters-512,32.7635495,-117.1915769,CA,San Diego
{B3D8A200-62AD-4FA9-96B5-C74E5269246C},Different Strokes Swim Team (DSST),/clubs/different-strokes-swim-team-1,32.746142,-117.1000879,CA,San Diego
{18C14586-0C7C-4CAE-A6B6-7CCF382A7C27},Lifetime Masters/Tri Team (LTMT),/clubs/lifetime-masterstri-swim,35.923978,-86.81491439999999,TN,Franklin
{1502DFF4-BA70-452E-9EED-8504612EEC3C},Eastern Shore Masters Swimming (ESMS),/clubs/eastern-shore-masters-swimming-1626,30.5393878,-87.88849479999999,AL,Fairhope
{6002ED98-578E-4392-9859-92685B81432C},Masters Aquatics At Spring Hill (MASH),/clubs/masters-aquatics-at-spring-hill-591,38.942484,-77.2287499,VA,McLean
{B4CBCDC1-F299-4DBD-879A-BEE3027490D1},San Mateo Masters (SMM),/clubs/san-mateo-masters-753,37.5350511,-122.335123,CA,San Mateo
{2D28BEC9-D395-4F8E-9D20-C7504EE477AC},San Ramon Valley Aquatics Masters (SRVM),/clubs/san-ramon-valley-livermore-aquatics-masters-1977,37.7481672,-121.9471346,CA,San Ramon
{C63E9CF7-EEA4-429A-8916-8D9073D988E3},Madison Titans (MATT),/clubs/madison-titans-669,34.7103206,-86.73468849999999,AL,Madison
{C96AA4F4-243F-4686-BDEE-993C699E0DBA},Salt Lake Masters Swimming (SALT),/clubs/salt-lake-masters-swimming-1394,40.7556657,-111.8438645,UT,Salt Lake City
{85784CCA-C66B-438F-A961-2C4F17A4CC30},Los Gatos Swim And Racquet Club (LGSR),/clubs/los-gatos-swim-and-racquet-club-942,37.2543914,-121.9583537,CA,Los Gatos
{2C7AF373-6736-457F-BDA3-7DD7DA4553B2},Haines Dolphins Swim Team (HDST),/clubs/haines-dolphins-swim-team,59.2335091,-135.4456943,AK,Haines
{3B3E3A63-3B8A-48C3-B62B-F9411F48DE1E},LifeTime Swim-Dublin  (LTDUB),/clubs/lifetime-swim-dublin,40.1169513,-83.0927257,OH,Dublin
{B179B7C4-38DD-46FC-A259-BA5F6BBFFBD6},Los Angeles Peninsula Swimmers (LAPS),/clubs/los-angeles-peninsula-swimmers-521,33.8239197,-118.3283816,CA,Torrance
{34245FD9-63B5-4DB5-B0FE-2A7579FE3CD8},Desert Olympic Tritons (DOT),/clubs/desert-olympic-tritons-2354,33.734905,-116.380144,CA,Palm Desert
{B8262FD1-0D91-46DB-8887-CF03CE230307},WS Twente (WST),/clubs/ws-twente,33.4452446,-94.0775309,TX,Texarkana
{B5070C0C-AABF-4BBC-B768-1A723F80316D},Austin Swim Club (ASC),/clubs/austin-swim-club-2581,30.2437924,-97.84353109999999,TX,Austin
{861B4266-DC01-41ED-9D4E-B8E046B6A7F6},Masters Of Brazos (MOB),/clubs/masters-of-brazos-675,30.6641784,-96.3257227,TX,Bryan
{6D4D7257-7650-493F-B912-1A5D8ACBB7E2},Novaquatics Masters (NOVA),/clubs/novaquatics-masters-447,33.7318582,-117.7591356,CA,Irvine
{F4E96305-269F-49B1-85F2-8C4149414AFE},Bobcat Swim Club (BSCOH),/clubs/bobcat-swim-club,39.3210944,-82.1013704,OH,Athens
{374760FD-B536-4A96-8C44-0B5B7D66A464},SWIMNERD (NERD),/clubs/swimnerd-3051,36.9139196,-76.11709549999999,VA,Virginia Beach
{47D869E5-A3E5-4595-A760-3887F83A860F},All Day Endurance Masters  (ADEM),/clubs/all-day-endurance-masters,26.2531493,-81.8213261,FL,Naples
{5667FF6C-0465-4CF5-B50C-6819D83D2607},Sebastopol Masters Aquatic Club (SMAC),/clubs/sebastopol-masters-aquatic-club-2085,38.3998195,-122.8263657,CA,Sebastopol
{2FA89350-DD92-473F-8C82-CAED27B79AF9},Sentara RMH Wellness Center (WCMS),/clubs/sentara-rmh-wellness-center-2092,38.419318,-78.887119,VA,Harrisonburg
{D08F6AFA-BC51-4A87-BCC3-D71A2B8242A2},Duneland Masters (DLMA),/clubs/duneland-masters-690,41.60885570000001,-87.061516,IN,Chesterton
{2AE6CC43-FED8-4AFB-9ABE-84F6E6D33E05},Tri Chi Triathlon Team (TRI-C),/clubs/tri-chi-triathlon-team,34.2809408,-118.4339714,CA,San Fernando
{8DF626BE-7C6D-4F37-BDFD-83401FF636EC},Ask4pierre (A4P),/clubs/ask4pierre,28.5503156,-81.7189528,FL,Clermont
{60E34618-1049-4689-BB1D-DF4CFC918DEE},French Creek Racing (FCR),/clubs/french-creek-racing-1,39.9725334,-75.3512803,PA,Broomall
{0DB6047B-8CAD-45A7-90B5-B3237E4B11E1},El Cerrito Aquatic Masters (ECAM),/clubs/el-cerrito-aquatic-masters-892,37.9147688,-122.3033549,CA,El Cerrito
{9EB8ED19-2A4F-4FDC-B032-FF2C1B3723B8},Delaware Ohio Racing Club (DORC),/clubs/delaware-ohio-racing-club,40.2934148,-83.0656233,OH,Delaware
{544E44C3-4E12-405D-BE2E-FBBCCBCEAC7C},KC Masters Swimming (KCM),/clubs/kc-masters-swimming,37.68465499999999,-77.417444,VA,Mechanicsville
{3A1FDB23-8C2A-4A07-AE6A-EFDB6B14F0DE},Brace Barracudas Swim Club (BBARS),/clubs/brace-barracudas-swim-club,35.0845562,-80.7294367,NC,Matthews
{45E8E7AA-DD9B-4BCC-A1CD-B6E2DE183753},El Camino YMCA Masters (ECYM),/clubs/el-camino-ymca-masters-844,37.3706448,-122.0786846,CA,Mountain View
{9786456F-9EA1-46FC-B793-C1D55F4CF534},Masters of South Texas (MOST),/clubs/masters-of-south-texas-618,29.5495655,-98.4665698,TX,San Antonio
{47FBADAB-7DC5-4887-A6FF-C3931AECF826},Masters of San Clemente Aquatics (MSCA),/clubs/masters-of-san-clemente-aquatics-1878,33.4598593,-117.6056412,CA,San Clemente
{B77D9F0B-3D5D-4068-9758-AF700EBA4846},Seawolves Masters (SEAW),/clubs/seawolves-masters-1083,40.9226674,-73.1311328,NY,Stony Brook
{49CD3B79-3960-40C1-8440-154DB59FCBD8},YMCA of Southwest Florida Masters Hurricanes (SFYH),/clubs/ymca-of-southwest-florida-masters-hurricanes-3170,27.0800669,-82.3996995,FL,Venice
{6E5BF4CA-BFA2-4EFF-BEC0-42D827A9F323},Long Island Express Masters Swimming (EXMS),/clubs/express-masters-swimming,40.8195479,-73.599059,NY,Greenvale
{742F5989-70E9-4A6A-9855-0C12E1CDC8CE},Excel Swimming (XCL),/clubs/excel-swimming-2522,40.7161436,-73.5742135,NY,East Meadow
{4CFA87C0-4DED-4FEA-AF97-332E8E41B105},SwimNation Aquatics Programs - SNAP (SNAP),/clubs/swimnation-aquatics-programs-snap,33.6727687,-117.7141305,CA,Irvine
{D27DB8F2-668A-4AD3-8FE9-C1DE68CAB596},PowerWatt Coaching (PRWAT),/clubs/powerwatt-coaching,26.0823461,-97.477738,TX,Los Fresnos
{21BC2BEB-FD39-4789-BE36-69A8875368D7},Memorial Park Natatorium (MPN),/clubs/memorial-park-natatorium,33.8451154,-87.2875152,AL,Jasper
{797054DC-1B73-4B6A-83BD-7E87833F6E7A},Santa Rosa Masters (SRM),/clubs/santa-rosa-masters-752,38.4549581,-122.7183875,CA,Santa Rosa
{72F1599E-C5DC-417D-B106-362D4247836F},Santa Maria Swim Club (SMSC),/clubs/santa-maria-swim-club-778,34.9477354,-120.4340302,CA,Santa Maria
{5F07A57E-6B4B-4C40-A24A-13AE97A1D149},St. Louis Area Masters (SLAM),/clubs/st-louis-area-masters-767,38.6240876,-90.58305349999999,MO,Chesterfield
{56A4DD92-A5B3-42A4-859B-98495D5C7436},Get Fit Davis Swim Masters (GFDM),/clubs/get-fit-davis-swim-masters-851,38.56481220000001,-121.7287376,CA,Davis
{62D1AAF0-45D3-45A8-A1F9-A1298049A774},St Augustine Reef Sharks (SARS),/clubs/st-augustine-reef-sharks-2597,29.8787343,-81.3393183,FL,St. Augustine
{DBBD77A2-8C39-485D-8EF7-B89B8ECD57C9},Plunge Masters (PLUNJ),/clubs/plunge-masters,32.7744234,-117.2528887,CA,San Diego
{9DCD1C91-3708-46DE-9E1F-2023ACF4DE7D},Gilroy Gators Masters Swimming (GGMS),/clubs/gilroy-gators-masters-swimming-2172,37.0363961,-121.6025876,CA,Gilroy
{9598B274-0F63-4BA8-9182-E5AC682D47B7},Lone Star Masters (LSM),/clubs/lone-star-masters,32.9400178,-96.6058255,TX,Garland
{853722C0-0730-4D02-A084-E11316322BB9},Germantown Maryland Masters (GERM),/clubs/germantown-maryland-masters-589,39.1010388,-77.30888399999999,MD,Darnestown
{A000708C-BE79-4D7C-876B-64ED085557F9},Willow Glen Masters (WGM),/clubs/willow-glen-masters-1,37.2897813,-121.8957934,CA,San Jose
{C2036AB4-B764-4D3F-9044-C6E12A98BB71},Swimming With Illinois Masters (XSWM),/clubs/swimming-with-illinois-masters-2159,39.7267326,-90.253863,IL,Jacksonville
{C3577593-72F3-4154-B640-36AEE33A4EB3},DC Water Wizards (DCWW),/clubs/dc-water-wizards,38.9226989,-77.0225767,DC,Washington
{F8890BC1-8389-49E3-A193-65FC2024C7D0},Global Adaptive Aquatics (GAA),/clubs/global-adaptive-aquatics-4145,33.973480,-84.18000579999999,GA,Norcross
{FE213921-F9CE-4074-9865-0BCB55939FD8},Morehead SportsCenter Masters Swim (MSCMS),/clubs/morehead-sportscenter-masters-swim,34.7359331,-76.7561507,NC,Morehead City
{2E655399-EEA7-41C8-AE9D-F46D52A3AB57},Miracle Swimming School for Adults (MSSA),/clubs/miracle-swimming-school-for-adults,27.318740,-82.517001,FL,Sarasota
{8EA3F905-AEDB-491E-87CA-0A3749C51EFA},East End Masters (EEM),/clubs/east-end-masters,40.962838,-72.19269500000001,NY,East Hampton
{BA179189-89AB-4BF6-B182-1D24D3DEE138},York YMCA (YYMS),/clubs/york-ymca-masters-swimming,39.9679586,-76.7396942,PA,York
{0B53A5BF-B8B3-4FBD-8515-393D792A63A4},Redondo Dolphin Club Swim Team (PHINS),/clubs/equinox-masters-2769,33.8361695,-118.3886939,CA,Redondo Beach
{D4352AA2-A886-4DA7-BFEA-D631125586A3},Florida Atlantic Aquatics (FAA),/clubs/florida-atlantic-aquatics,26.3693126,-80.1057538,FL,Boca Raton
{A879BBEB-C6A7-496A-9ECA-FAECEC6AA219},Zen Masters (ZEN),/clubs/zen-masters-1087,43.6943135,-114.3648536,ID,Ketchum
{0D892B58-14F7-4F0C-A2B9-DCE2237E4419},Tsunami Breakers Open Ocean Masters (TBOOM),/clubs/tsunami-breakers-open-ocean-masters,36.6261762,-121.9171894,CA,Pacific Grove
{60AAD37D-9B85-4683-866E-D8C2219E5B91},RBAY Masters (RBAY),/clubs/rbay-masters,40.4772143,-74.2756101,NJ,South Amboy
{5C704318-0CF8-4D7E-95D8-7E6536E0145A},Ensworth Aquatics Masters (ENSW),/clubs/ensworth-aquatics-masters-2100,36.0577877,-86.919795,TN,Nashville
{ADA14342-F5F1-45AA-8DDE-38538F8AD53D},Adams County Masters (YWMA),/clubs/ywca-masters-of-adams-county-1133,39.8286151,-77.247025,PA,Gettysburg
{92FAD56C-2E42-480F-A60B-3C84A8270FFE},Sierra Nevada Masters (SNM),/clubs/sierra-nevada-masters-663,39.5199387,-119.8332636,NV,Reno
{D7E119C5-C43D-4E55-874E-5F7A5E2D0971},Wellington Swim Club (WSC),/clubs/wellington-swim-club,26.65274909999999,-80.2376407,FL,Wellington
{1F979728-F90D-4DC1-BF5E-1E284E72824F},Trailblazer Masters (TM),/clubs/trailblazer-masters,37.1033781,-113.5684628,UT,St. George
{AD068FF2-1B54-4619-AF45-5DD4FBBC730E},Mauna Lani Sports & Fitness Club (MLSF),/clubs/mauna-lani-sports-fitness-club-2857,19.9412389,-155.8636863,HI,Waimea
{6825D4FF-999F-451F-91ED-5CC314057D83},Maui Masters Swim Club (MMSC),/clubs/maui-masters-swim-club-534,20.8796506,-156.4773259,HI,Kahului
{9CFC4270-07C0-4950-AB64-82C43DC5745B},Sharks Swim Club (SSC),/clubs/sharks-swim-club-1,29.521321,-95.1943364,TX,Friendswood
{DAA78BA8-196F-4203-B3EF-4D2BA9F1254E},Mount Carmel Force Aquatics Masters Swim Team (MCF),/clubs/mt-carmel-fitness,40.1902514,-83.02346570000002,OH,Lewis Center
{157A5953-B348-4356-93F4-40DF58741F01},South O SEA Masters (SOCM),/clubs/south-orange-county-masters,33.4599144,-117.6056641,CA,San Clemente
{2D59DF53-9DB3-48E4-B765-F76DCB0B26DC},Yonkers Masters (YM),/clubs/yonkers-masters,40.9072898,-73.86230549999999,NY,Yonkers
{AF0AF16E-D300-4969-9B61-00E57D8B7926},Dynamo Swim Club (DYNA),/clubs/dynamo-swim-club,34.0633026,-84.2114936,GA,Alpharetta
{73B30016-8E70-46BB-84B3-962869DD6376},MATCH POINT NYC MASTERS (MPNY),/clubs/match-point-nyc-masters-2607,40.5847933,-73.9736364,NY,
{A206E0E6-5D5A-4104-96E6-810FB5152936},Zionsville Aquatic Masters (ZAM),/clubs/zionsville-aquatic-masters-1794,39.9618972,-86.27190209999999,IN,Zionsville
{2236016F-08F6-43A2-88C5-23837313F535},SJAC Masters (SJ),/clubs/sjac-masters-3430,39.8462737,-75.0039855,NJ,Voorhees Township
{ADA6C7A4-5C59-41F2-AA11-872695026280},SilverPeak Performance (SPP),/clubs/silver-peak-performance-3101,34.1392354,-118.2647924,CA,Glendale
{D81467AA-64D6-449D-BA15-6D63A68A1396},McBurney YMCA Masters (BURN),/clubs/mcburney-ymca-masters-2380,40.7380044,-73.9977405,NY,New York
{62DD52B3-4EC6-440E-95E4-D8CCBA25BFEC},Christiansburg Aquatic Center Masters Team (CAMT),/clubs/christiansburg-aquatic-center-masters-team,37.1379086,-80.412053,VA,Christiansburg
{27BEB680-7F7C-43B6-AA6B-12353E19154D},FAST Falcons (FLCNS),/clubs/fast-falcons,29.161242,-82.2311838,FL,Ocala
{7DC322CC-DFE5-45FB-BE92-5FCAAD0F02D1},Sawtooth Masters (SAWS),/clubs/sawtooth-masters-787,43.569869,-116.189668,ID,Boise
{6FA5073B-D9EF-49D3-A892-3680660545C5},Charger Aquatics Masters (CAQM),/clubs/charger-aquatics-masters,35.1508286,-106.5593371,NM,Albuquerque
{651EE9D1-BCC3-4840-BD79-62B7532DBF2A},Triton Masters Swim Team (TMST),/clubs/triton-masters-swim-team,27.9465547,-82.4642945,FL,Tampa
{DF06BBEC-1826-4984-B71E-55D77B0DB510},Tri Valley Aquatics Masters (TVAM),/clubs/tri-valley-aquatics-masters,37.7107155,-121.8004005,CA,Livermore
{5DB7BF18-1FCC-4AAB-9D8E-810438878257},Marcia's Enthusiastic Masters of Oakland (MEMO),/clubs/marcias-enthusiastic-masters-of-oakland-1708,37.7719122,-122.288715,CA,Alameda
{5E16864D-BDAB-4CA1-99A5-77ED538F60B1},Sarasota Tsunami Masters (SRQM),/clubs/sarasota-tsunami-masters-2050,27.3196733,-82.5189008,FL,Sarasota
{E4980C48-AD8E-4AD4-AC33-9BA9095694BE},Fat Boy Swim Club (FBSC),/clubs/fat-boy-swim-club,34.1141717,-118.400399,CA,Beverly Hills
{3C14E51E-98D6-432E-A668-C9A480FBD41D},Sarasota Sharks Masters (SHARK),/clubs/sarasota-y-sharks-536,27.2276077,-82.4888666,FL,Sarasota
{F9366BB4-7E75-4CE2-BF7E-8E11557A9D25},Woodland Swim Team Masters (WOOD),/clubs/woodland-swim-team-masters-579,38.6876056,-121.7842305,CA,Woodland
{C0DC925B-D412-4D48-8F3A-7E856CB26985},YMCA of Greater Des Moines Masters (DSMY),/clubs/ymca-of-greater-des-moines-masters-3243,41.5889534,-93.6247882,IA,Des Moines
{6EE4B714-0F05-4EB0-A81B-5E8441AA5DBA},Maryland Masters (MARY),/clubs/maryland-masters-640,39.25372129999999,-76.7143524,MD,Baltimore
{C37189F2-BDD4-4525-B137-996607608E4F},Wright County Wave Swim Club (WAV),/clubs/wright-county-wave-swim-club-3185,45.1902577,-93.8727297,MN,Buffalo
{A056F6DA-384B-4872-B9A5-2DE8C39A98A8},SwimFast Masters (SF),/clubs/swimfast-masters,26.0705126,-80.2692544,FL,Davie
{E3C82A48-3EF2-4542-9630-8980A0477B20},East Bay Bat Rays Masters (EBAT),/clubs/east-bay-bat-rays-masters-2012,37.6606627,-122.0653923,CA,Hayward
{0E703AC5-F699-4731-84A9-2858D73171DA},Sea Devil Swimming Masters (SDS),/clubs/sea-devil-swimming-masters-671,38.74960679999999,-77.2738789,VA,Springfield
{E43902A1-3209-4830-91E8-643F5A2439CF},Woodlands Masters Swim Team (WMST),/clubs/woodlands-masters-swim-team-684,30.1849599,-95.4469249,TX,Shenandoah
{52122A7C-7408-4803-AEA7-1E322F86826D},Life Time Iowa Masters (LTIAM),/clubs/life-time-iowa-masters,41.6172377,-93.7817681,IA,Urbandale
{4011AAA8-6775-4DDA-85A8-4D2BEBE39EDB},SJCC BlueWave (BLUWV),/clubs/sjcc-bluewave,42.8319224,-73.89402419999999,NY,Schenectady
{76EF8639-6EB6-4D06-982E-D6CB2AFE37EE},Rutherford Masters Team (RMT),/clubs/rutherford-masters-team,40.8288417,-74.1083965,NJ,Rutherford
{15E5F87E-ED57-4243-9545-36F2D765A310},Nort'landers Swim Club (NORT),/clubs/nortlanders-swim-club-459,47.48077699999999,-92.523223,MN,Virginia
{95453017-7104-48A6-A998-5F2CAD695917},Noblesville Adult Swim Team (NAST),/clubs/noblesville-adult-swim-team-495,40.06018789999999,-86.018647,IN,Noblesville
{65202C4C-CA7D-42F7-868D-E77F6F8350D3},Swarthmore College Masters Swimming (SCMS),/clubs/swarthmore-college-masters-swimming-2734,39.906932,-75.3514659,PA,Swarthmore
{CA0F60EB-4750-47EF-9C37-A25C0C8C0018},Nor Cal Aquatics (NCA),/clubs/nor-cal-aquatics-2591,38.3176946,-122.3066769,CA,Napa
{239BE914-8476-4DAE-AE11-B437D535EF62},DART-Solano Masters (DARTS),/clubs/dart-solano-masters,38.2348856,-122.1236828,CA,Fairfield
{AF74D824-F390-4DC9-9F5C-DC29A6AACDA4},Gulf Coast Swim Team Masters (GCST),/clubs/gulf-coast-swim-team-masters-1453,26.4722052,-81.8150067,FL,Fort Myers
{C71D8AE4-C42E-4AE0-9D0C-754A26CC32B6},Surf City Aquatics Club (SCAC),/clubs/surf-city-aquatics-club-1956,33.6541897,-117.9709424,CA,Huntington Beach
{EBEE586C-AE1E-4DF6-A1BE-7127D3361257},Gulf Coast Pirate Swimmers (GCPS),/clubs/gulf-coast-pirate-swimmers-712,30.4783322,-87.1982074,FL,Pensacola
{3803C904-A1F8-4AEA-841B-683671E99D28},Nitro Swimming (NITR),/clubs/nitro-swimming-839,30.3165922,-97.97802089999999,TX,Bee Cave
{AFC19F8A-ACC6-47CB-830D-3003E7B0454B},Swamp Water Aquatics Gainesville (SWAG),/clubs/swamp-water-aquatics-gainesville,29.6618574,-82.3075724,FL,Gainesville
{5507F33F-4492-4A0E-A496-D1C2CCE2D385},North Hills Aquatics  (NHA),/clubs/north-hills-aquatics,40.5254536,-80.0261525,PA,Pittsburgh
{BEFDA70F-1985-415C-9F25-0C8D8FA51FC4},Tennessee Aquatics Masters Swimming (TNAQ),/clubs/tennessee-aquatics-masters-swimming-707,35.9491076,-83.936328,TN,Knoxville
{06FBAF87-1115-4D65-AC95-EC0AAFA86B16},Aquastar (AQSR),/clubs/aquastar,29.580116,-95.133918,TX,Houston
{D53C9913-023C-48A6-8C2F-053E0A8D6891},Train Daly (TDALY),/clubs/train-daly,40.7711041,-73.9897134,NY,New York
{2D68B98E-B1FF-4518-85B3-944E01ADAF52},Palm Beach Masters (PBM),/clubs/palm-beach-masters-1275,26.4891736,-80.0707575,FL,Delray Beach
{7CD1CED3-CB36-43BF-9686-FEC035FC47FB},QAC White Caps (QACAP),/clubs/qac-white-caps,39.03598199999999,-76.058798,MD,Centreville
{3751AFA6-C0C8-45FA-9DE6-2F1A08CDF4C1},Orem Masters Aquatic Club (OMAC),/clubs/orem-masters-aquatic-club,40.2951386,-111.7094785,UT,Orem
{BB5DFD47-4A7B-4A43-921D-7E828DA26D6D},North Bay Aquatics (NBA),/clubs/north-bay-aquatics-765,37.951889,-122.5491618,CA,Kentfield
{A3062DE3-A1A1-4BC9-8F1B-9359FC47CBD3},Bay Ridge Masters (BRAT),/clubs/bay-ridge-masters-1081,40.6272269,-74.03937599999999,NY,
{6F7726A6-D5CB-4DF3-88DF-862C4CD55861},Freedom Aquatic Club (FAFC),/clubs/freedom-aquatic-club,38.7555474,-77.5217416,VA,Manassas
{45886CC3-28E9-4F7A-A651-1E7112640CAA},Excelsior Springs Masters (ESCC),/clubs/excelsior-springs-masters,39.3465014,-94.244689,MO,Excelsior Springs
{FFB08989-40D4-4ECF-AC0B-6D1A554B624F},Greater Tampa Swim Association (GTSA),/clubs/greater-tampa-swim-association-2725,27.8756963,-82.5147362,FL,Tampa
{5AB3F195-D403-4EC6-BCD2-B85943BD28AB},SWIM Long Beach (SWMLB),/clubs/swim-long-beach,33.758601,-118.1442446,CA,Long Beach
{31A6E626-C962-4866-BA9B-4C2C5EA77B9C},Azura Florida Aquatics (AZFL),/clubs/azura-florida-aquatics-2286,26.0477061,-80.2575383,FL,Davie
{06E282C3-9462-4F70-9F2B-7DEA9F6573E2},Greater Holyoke YMCA Masters (HOLY),/clubs/greater-holyoke-ymca-masters-2743,42.2079867,-72.614271,MA,Holyoke
{30B9C888-E867-495C-AFA3-CCD386D1473A},Prosper Aquatic Masters (PAM20),/clubs/prosper-aquatic-masters,33.2590468,-96.8032047,TX,Prosper
{E7F08937-1D65-4867-A5E8-BED645E4DDE8},Philadelphia Fins Aquatics Club (FINSP),/clubs/philadelphia-fins,39.9564044,-75.1671241,PA,Philadelphia
{6241E416-B6BC-4421-9BA4-EA3FB884A35D},One Swim Club (OSC),/clubs/one-swim-club,33.4729496,-111.9168273,AZ,Scottsdale
{44399180-838D-4A58-B5B4-226830476B8F},Pineapples (PINE),/clubs/pineapples,41.337073,-74.191023,NY,Monroe
{5613D13B-4995-44D4-B7D7-2476874E04E6},NextWave Masters (NXWV),/clubs/nextwave-masters-3406,38.942484,-77.2287499,VA,McLean
{EB3EFAA6-D2D0-4C19-B53C-258981A004CD},Newburyport Breakers (NBPB),/clubs/newburyport-breakers-2786,42.8112561,-70.8748332,MA,Newburyport
{E9DB4D55-BDAD-49B5-BCC7-39B5C3EA1E72},CGBD Masters Swimming (CGMS),/clubs/cgbd-masters-swimming,37.160073,-76.582580,VA,Newport News
{4CB402E4-225B-4D9E-9641-32291AE3F74B},North Coast Aquatic Team (NCLE),/clubs/north-coast-aquatic-team,41.4770559,-81.5326601,OH,Shaker Heights
{A675FA00-1F65-48E5-9189-3414DB7E649D},Sun City Hilton Head Masters (SCHH),/clubs/sun-city-hilton-head-masters-2288,32.3095732,-80.9555898,SC,Okatie
{9CBDC62A-2D7A-4228-8798-70BE279C15C7},Blue Wave Aquatics (BWAQ),/clubs/blue-wave-aquatics-1828,47.499750,-122.3423466,WA,Seattle
{D5A37B5D-0E13-4AD2-A849-B580C2325871},Greenville Splash Masters (GS),/clubs/greenville-splash-masters-1148,34.8593386,-82.4426922,SC,Greenville
{80BC7C03-F5D4-4C0B-B059-9A36DDD1F9E1},Nickel City Splash Swim Team (NICK),/clubs/nickel-city-splash-swim-team-2239,43.0022366,-78.774030,NY,Buffalo
{5AEA27AD-3F0C-4960-972B-82B51FEC7204},Fulshear Racing Swim Team Masters (FRSTM),/clubs/fulshear-racing-swim-team-masters-1,29.7024331,-95.85011779999999,TX,Fulshear
{8FA7C387-079B-458F-860B-4445297F5DA9},Hilltop Aquatics Master Racers  (HAMR),/clubs/hilltop-aquatics-master-racers,40.3865066,-111.7973316,UT,American Fork
{9D8B9689-E38C-49E7-B1E1-41E8E7EE1DB9},Blue Marlins Aquatic Club (BMAC),/clubs/lake-wales-blue-marlins,27.9916033,-81.68859499999999,FL,Winter Haven
{7210234A-3D5E-4EC6-9196-02E282D6F54E},Bolles School Sharks Masters Swimming (BSS),/clubs/bolles-school-sharks-masters-swimming,30.240698,-81.6277727,FL,Jacksonville
{2D1F4E7D-596F-48D0-99D5-1496647CB9DB},Jasper Masters Swim Team (JMST),/clubs/jasper-masters-swim-team-2850,33.8451154,-87.2875152,AL,Jasper
{E20CEF08-14AE-4D54-BD6F-E1C884F8C987},Miami Springs Aquatic (MSAC),/clubs/miami-springs-aquatic,25.8210712,-80.2990875,FL,Miami Springs
{F4470499-EE9E-4D9B-9ACE-4BE480D35803},J Master Swim Team (JCCN),/clubs/northern-va-jewish-comm-center-595,38.839232,-77.25084270000002,VA,Fairfax
{ABA4B051-BD93-4FE3-825E-2FEA7C216255},Binghamton Univ Masters (BUMS),/clubs/binghamton-univ-masters-774,42.0922151,-76.02823939999999,NY,Vestal
{F9D08E89-16D7-4F15-88DE-4F79F58E87C9},Health Unlimited Hurricanes (HUH),/clubs/health-unlimited-hurricanes-639,39.3684998,-77.14033719999999,MD,Mt Airy
{EE0F85C2-A1BB-4CE3-B669-E24C1ADDD416},Swim Like A Pro (SLAP),/clubs/swim-like-a-pro-2148,28.3242754,-81.53140049999999,FL,Celebration
{DFA53584-1E9A-4D75-B335-264E74F71BB3},Streamline & Sprint Human Performance (S&S),/clubs/streamline-sprint,33.3335224,-86.79394169999999,AL,Pelham
{F1F690A8-F794-4BB1-BC51-5B84F28687B4},Wiregrass Masters Aquatics (WMA),/clubs/wiregrass-masters-aquatics,31.33811369999999,-85.7077929,AL,Fort Novosel
{03A61689-A394-4DEE-A8DF-FB724A88C2E3},Humboldt Masters Swimming (HUMB),/clubs/humboldt-masters-swimming,40.8758354,-124.0879025,CA,Arcata
{549508D7-7AAD-48B6-BD7C-59B3271D3291},Sun City Masters Swim Club (SCMSC),/clubs/sun-city-masters-swim-club,31.7132313,-106.2706944,TX,El Paso
{269FF18A-7ACC-4C0B-9A89-19FDA03F9A5D},Northwest Arkansas Masters (NWAM),/clubs/northwest-arkansas-masters,36.3309331,-94.225257,AR,Bentonville
{51380BEC-495C-4A6D-8737-CCB427ED4725},Heber Adult Swim Club (HASC),/clubs/heber-adult-swim-club-3324,40.4988088,-111.4105178,UT,Heber City
{CFE44186-E276-4514-AAC7-166E3027E940},Swim Free or Die (SFD),/clubs/swim-free-or-die,44.213204,-71.9121273,NH,Lisbon
{DD608674-BD05-437F-B354-D46A1A086125},Swim With Heart Masters (SWHM),/clubs/swim-with-heart-masters-1886,34.01633040000001,-118.4733946,CA,Santa Monica
{9ABA8FE3-351D-478B-BAE2-C83698EB3F0C},Blue Dolfins Masters (BDO),/clubs/blue-dolfins-masters-1285,28.6674987,-81.2018758,FL,Oviedo
{E133595F-9837-4820-B0A0-889F0C37E4A7},TS Aquatics Masters (TSMA),/clubs/ts-aquatics-masters,26.1966417,-80.27407649999999,FL,Tamarac
{A5BCDFB4-1621-4FAC-9C28-FF4FCAE30EBC},Heartland Swim Association Masters (HSAM),/clubs/heartland-swim-association-masters-513,32.7824626,-116.9851615,CA,El Cajon
{95BF7AE0-D403-4C7A-8756-B1DDC6475B06},Tri-Now (TNOW),/clubs/tri-now,32.6085017,-96.99147660000001,TX,Cedar Hill
{6C1F4AB4-88FF-4449-9238-52D002E404E2},Swim Fort Lauderdale (SFTL),/clubs/swim-fort-lauderdale-1877,26.1165598,-80.10588779999999,FL,Fort Lauderdale
{8C6B8344-D256-41A3-8B3D-7FA42D735D89},Skaneateles Masters Swim Club (SKAN),/clubs/skaneateles-masters-swim-club,42.954883,-76.4282474,NY,Skaneateles
{BA3EB6CC-A16F-4150-95C0-93714857BDD3},Wallingford Family YMCA Orcas (WFYO),/clubs/wallingford-family-ymca-orcas,41.4510311,-72.8172685,CT,Wallingford
{695CF26D-CF68-4D0A-82C3-D5993458619D},Heat Stroke Aquatics Club (HSAC),/clubs/heat-stroke-aquatics-club,36.0190871,-115.0789015,NV,Henderson
{121C9DF4-0443-4FF2-8846-3342AF088815},Swimmers Elite (SWELT),/clubs/swimmers-elite,26.1881426,-80.2045601,FL,Tamarac
{D1F503C4-DFED-4E18-814D-FE8E8486C030},Hampton Dolphins Masters (HDMS),/clubs/hampton-dolphins-masters-2078,40.5813869,-79.9377672,PA,Hampton Township
{BA6E52D5-4B80-4ED4-BB75-C2D23BF0252D},North Channel Aquatics Masters (NOCHM),/clubs/north-channel-aquatic-masters-1109,29.8074557,-95.1755113,TX,Houston
{B7EAE3DB-27F1-4321-995B-7A8E53F57ADA},Daland Swim School (DSS35),/clubs/daland-swim-school,34.1877795,-118.8726465,CA,Thousand Oaks
{8EE95B1B-51DF-4318-A4AF-52E25CC4E5EF},Grown A** Swimming & Multisport (USM),/clubs/grown-a-swimming-multisport,34.1169566,-118.2327892,CA,Los Angeles
{396B3E09-BADD-4E40-B480-50512851F0BC},Hammerhead Aquatics (HAFL),/clubs/hammerhead-aquatics-2841,26.1962779,-80.1324618,FL,Fort Lauderdale
{F284135A-B5BA-400B-A039-82A128BB2D53},SBY Masters Swim (SBY),/clubs/sby-masters-swim,33.47002499999999,-86.7783942,AL,Homewood
{C2FB0D5D-293C-4516-9F22-E2859903B342},Parker Masters Swim Team (PRMST),/clubs/parker-masters-swim-team,39.5355552,-104.7848667,CO,Parker
{56307810-BB34-4B07-A6E2-E065BFEE3435},Quincy Masters Swimming (QUSM),/clubs/quincy-university-swimming-masters,39.9377285,-91.3849563,IL,Quincy
{3878F904-105C-45EA-BB01-04DA81866999},Imagine Swimming Masters (ISM),/clubs/imagine-swimming-masters,34.0130228,-118.4022561,CA,Culver City
{3A1C1026-088F-4A72-9982-3A74AFCCBC62},First State Masters (FST),/clubs/first-state-masters,39.1448134,-75.5213919,DE,Dover
{996D47DC-C104-42F9-97BA-D88E19206348},Fort Leavenworth Lancers (FTLL),/clubs/fort-leavenworth-lancers,39.3426676,-94.9248999,KS,Leavenworth
{8F285CC5-78A9-436E-AA36-CD26FDCA6CF1},Aura Aquatics (AURA),/clubs/aura-aquatics,36.7614158,-76.2239494,VA,Chesapeake
{FBCB4924-CD33-46A6-A7E4-C03AEA8B5720},The REC SJI Masters Swim Club (SJIM),/clubs/the-rec-sji-masters-swim-club,48.5325164,-123.0178375,WA,Friday Harbor
{303FD484-EC22-4D75-A58F-D7BEDC0D3D81},Long Reach Swim Club Masters (LRSCM),/clubs/long-reach-swim-club-masters,43.9142656,-69.8278212,ME,Bath
{E8099049-DF0D-461D-A6AF-C870DD1285B6},Terre Haute Torpedoes Masters (THT),/clubs/terre-haute-torpedoes-masters-829,39.441577,-87.421427,IN,Terre Haute
{15C65682-B8C8-4467-83D7-A8B88D1ED074},Palm Coast Piranha Club  (PCSC),/clubs/palm-coast-swimming-club,29.53038919999999,-81.2226122,FL,Palm Coast
{AD1A530E-8E2D-4ACE-B2D3-9F7319BC5240},Tekmasters (TMSC),/clubs/tekmasters,29.1654183,-82.0876681,FL,Ocala
{EE7DF653-809A-4E28-A2E5-0387C290E584},Swim Fremont Glenmoor Gardens (SFGG),/clubs/swim-fremont-glenmoor-gardens-2476,37.5451619,-122.0039792,CA,Fremont
{FC4BF880-E61C-4B49-828C-9CDE777F9FDF},USC UPSTATE Spartan Rec (UP),/clubs/usc-upstate-spartan-rec,35.0023314,-81.965389,SC,Spartanburg
{020109D6-02CD-4367-98C8-7EF0C153711E},NOVA of Virginia Aquatics (N*VA),/clubs/nova-of-virginia-1,37.6005119,-77.5675488,VA,Richmond
{62600CAB-9C63-4ECF-B626-0496D7747A4C},Barracuda Swimming (CUDAS),/clubs/barracuda-swimming,35.0739463,-106.5879393,NM,Albuquerque
{F04AC794-C8DE-4C34-A909-9A6726A6148F},WeAquatics (WEA),/clubs/weaquatics,38.8890478,-76.82300029999999,MD,Largo
{0A1A799C-0C9E-49CC-96DF-7E190F2ABC0D},Hastings Area Swim Team (HAST),/clubs/hastings-area-swim-team-1514,44.7357644,-92.8658934,MN,Hastings
{3E0400A5-B09B-4B4A-9409-87D540CE6F62},FAST MASTERS (FM),/clubs/fast-masters,40.4271304,-79.6686537,PA,Murrysville
{7B903A54-3FEB-4231-9F6B-213950CFD94C},Bethesda Chevy Chase YMCA (YBCC),/clubs/bethesda-chevy-chase-ymca-3394,39.0100032,-77.11321079999999,MD,Bethesda
{1F12BCE8-E8DA-4742-B6A6-5BBCD268F67B},Harrisonburg Masters (HRBM),/clubs/harrisonburg-masters,38.4496638,-78.8816976,VA,Harrisonburg
{4CC9CA99-92C2-4E75-8017-7396D9C4EAF3},Austin Area Racing Group (AARG),/clubs/austin-area-racing-group,30.4639969,-97.8123864,TX,Austin
{B214D0A5-920A-4E11-B03C-3B351255DFD7},Jersey City Master Swimming (JCMS),/clubs/jersey-city-master-swimming,40.7276141,-74.0730633,NJ,Jersey City
{E22FC915-5FB6-4623-9E40-B27695C9C19B},Swim Fun And Fitness (SFAF),/clubs/swim-fun-and-fitness-3344,38.9113901,-76.8672315,MD,
{87C6F29F-2F01-49B3-A0AE-6C079570149E},Swim Houston Aquatics Center Masters (SHAC),/clubs/swim-houston-aquatics-center-masters-3159,29.6426628,-95.5259258,TX,Houston
{04EEBF87-1B90-4A12-BB6A-CE313B108470},SOL Swim Masters (SOL),/clubs/sol-swim-masters,32.6427876,-116.9992869,CA,Chula Vista
{05773210-3EDA-4061-B7A5-B134CBC31505},Pikes Peak Athletics Masters (PPAM),/clubs/pikes-peak-athletics-masters,38.9010744,-104.8345198,CO,Colorado Springs
{15616B68-B1A4-49E7-BC68-C2F33BC9E251},Ohana Aquatics (OHANA),/clubs/ohana-aquatics,34.6032928,-118.1781653,CA,Palmdale
{52CAA06E-AF4F-46B9-9DBB-0744085624A5},Radnor Aquatic Club (RACMA),/clubs/radnor-aquatic-club,40.03969439999999,-75.3595357,PA,Wayne
{0ADE2616-6D48-4FA1-91AE-3F1B13B6C10C},Lincoln Masters and Others (LMAO),/clubs/lincoln-masters-and-others-2017,40.8824199,-96.7303288,NE,Lincoln
{ACA60C60-9BFE-4A74-92B2-810B1C026DE4},Central Chesapeake Swimming (PEAK),/clubs/central-chesapeake-swimming-1837,38.9113901,-76.8672315,MD,
{4F1A4E04-9CC4-4B0D-93DB-BECFA9378537},San Francisco Swim (SFS),/clubs/san-francisco-swim,37.8062219,-122.4238201,CA,SF
{71960580-16B3-42D7-A1CA-0BFCDE8D6C11},Spartans (SPAR),/clubs/spartans,34.1929897,-118.1790215,CA,La CaÃ±ada Flintridge
{C4A510ED-111E-4F4F-9D78-06B74F575F0C},Tide Swimming (TIDE),/clubs/tide-swimming-2773,36.8321234,-76.12882429999999,VA,Virginia Beach
{DA5B98E9-98D0-4E2A-90DC-3068516CA4F4},Peddie Aquatic Association (PAA),/clubs/peddie-aquatic-association-2118,40.2626709,-74.51904619999999,NJ,Hightstown
{ACAF2061-CDDD-4A58-BAFD-7CB916A194E5},Golden Isles Masters Swim Team (GIMST),/clubs/golden-isles-masters-swim-team,31.2191136,-81.4850088,GA,Brunswick
{AB60490C-A62D-4AEC-9BED-B7F132CB8E91},Wilkes-Barre/Pittston YMCA (WBP),/clubs/wilkes-barrepittston-ymca,41.2448097,-75.8858003,PA,Wilkes-Barre
{BC52D182-050B-4612-8E76-D2F38D95BDA3},Cleveland Tennessee Masters Swimming (CTMS),/clubs/cleveland-tennessee-masters-swimming,35.1628435,-84.87706179999999,TN,Cleveland
{A4F6C1DC-7288-437C-A62E-7A53979F2AE6},Yucaipa Swim Team (MYST),/clubs/masters-of-yucaipa-swim-team-864,34.0394307,-117.1050202,CA,Yucaipa
{1F8C3C99-D07B-4433-8915-C55EC9CECA86},Penn Heron Open Water Swimming (PENN),/clubs/penn-heron-open-water-swimming-3454,40.39926519999999,-76.0312351,PA,Bernville
{9D3560F7-A520-4182-A57F-D1FD280CC61A},Central Texas Masters Swimmers (CTS),/clubs/central-texas-masters-swimmers-2290,30.5257329,-97.6892259,TX,Round Rock
{2FE7F79A-3774-4BF6-A17A-3820C0CC69D8},Petaluma Salty Krakens (PSK),/clubs/petaluma-salty-krakens-3074,38.2459968,-122.628513,CA,Petaluma
{5D85D56F-B590-4E01-AC86-BF1DDC0F5C7D},Burlingame Aquatic Club (BAC),/clubs/burlingame-aquatic-club-655,37.5822503,-122.3467952,CA,Burlingame
{7FEF02FA-4587-4C84-BC89-015E43A130DD},Aqua Culture Swim School (ACSS),/clubs/aqua-culture-swim-school,39.5781204,-76.36772619999999,MD,Forest Hill
{FAAE63EB-9395-4E29-B930-DBC1A869BAA0},Tiger Aquatics Swimming (TAQ),/clubs/tiger-aquatics-swimming-1442,30.4177314,-91.1835382,LA,Baton Rouge
{97B73BC9-4972-4CB7-AD2B-2236C7A2D839},Katy Aquatic Masters Swimming (KAMS),/clubs/katy-aquatic-masters-swimming-945,29.7195386,-95.75172649999999,TX,Katy
{F9131EF3-50B1-4A9E-A104-6BEA77FF7DEF},Performance Aquatics (PAQM),/clubs/performance-aquatics-2411,26.3099852,-80.0969935,FL,Deerfield Beach
{8C1FB0B4-712A-4467-8A7F-4136EE9EB21E},Daleview Masters (DVM),/clubs/daleview-masters,39.0071269,-76.9929114,MD,Silver Spring
{C7F61D58-B3F6-48FC-9D32-6C9FAA85638F},Jersey Wahoos Masters (JWM),/clubs/jersey-wahoos-masters-848,39.7884037,-75.1225721,NJ,Deptford
{1B4C0082-AF8C-4872-9BC3-414A5FA2F616},Central Maryland YMCA Masters (CMYM),/clubs/central-maryland-ymca-masters-636,39.2727212,-76.8047861,MD,Ellicott City
{9241F56D-C9AD-4917-A701-FB457D087CD0},Carrollwood Village Masters Swim Team (CVMST),/clubs/carrollwood-village-masters-swim-team,28.075071,-82.5123089,FL,Greater Carrollwood
{C3028CC9-8980-4035-A691-A5A3EF225418},Parkersburg Masters Swim Team (PKBM),/clubs/parkersburg-masters-swim-team-2954,39.2805134,-81.53020029999999,WV,Parkersburg
{9ACD9419-E6DC-4CFF-A06D-754E9853C4BC},Lake Jackson Swim Team (LJST),/clubs/lake-jackson-swim-team-1,29.0266427,-95.4565471,TX,Lake Jackson
{779178C5-D291-49D7-B453-8B293DFA0486},Jersey Area Masters (JAM),/clubs/jersey-area-masters-538,40.4009179,-74.6483689,NJ,Princeton
{4DF739AB-AEC5-47CE-9EA5-FD68576C882E},Jellies Aquatic Masters of Monterey (JAMM),/clubs/jellies-aquatic-masters-of-monterey-2030,36.610616,-121.9238889,CA,Pacific Grove
{F86DB2A3-88B0-431B-8F75-3F632F76CFEA},Carson Tigersharks (CARS),/clubs/carson-tigersharks-474,39.1686039,-119.7597047,NV,Carson City
{7A6E72DF-7DE0-41B3-B464-2E6D5171EDEE},University City Swim Club (UCSC),/clubs/university-city-swim-club,38.66549099999999,-90.330449,MO,St. Louis
{C471E67D-5221-4401-BB0A-2FEBBAA15F82},The 4M Swim Club (4MSC),/clubs/the-4m-swim-club,39.3899728,-76.73679779999999,MD,Pikesville
{E5C1121D-6EB2-4181-82CA-0E871D1B660B},Bat Masters (BATS),/clubs/bat-masters,29.7181022,-95.33866100000002,TX,Houston
{28AC7924-4E43-46E0-A2B3-F6F578DECAEB},Hydro Swim Club Masters (HYDRO),/clubs/hydro-swim-club-masters,29.2826533,-81.0736211,FL,Ormond Beach
{102A8117-CFEA-4E25-9B5A-FFDBDC4976FB},Jackson Area Masters Swimming (JAMS),/clubs/catfish-masters-aquatics-1650,32.3424298,-90.0856279,MS,Flowood
{FC842093-65E9-4C16-815F-1951879367FF},Wahoos of Jacksonville (WAHOO),/clubs/wahoos-of-jacksonville,30.3675176,-81.56000689999999,FL,Jacksonville
{BF2274B3-2E3A-4EBA-86EA-376F29B9DCF4},The St James Masters (STJS),/clubs/the-st-james-masters,38.7970974,-77.17345759999999,VA,Springfield
{0C9899E9-3AF9-401D-A7D1-F7B3F2F45A69},Patriot Swim Team (PATZ),/clubs/patriot-swim-team-3164,41.5150927,-73.9626164,NY,Beacon
{F7BDC807-2540-4C86-81CD-B35C4D810C09},Patriot Masters Swim Team (GMUP),/clubs/patriot-masters-swim-team-593,38.8263703,-77.3042346,VA,Fairfax
{288D4344-A488-4582-A3FE-1B3BE3275E94},Southern Nevada Argonauts (SONAR),/clubs/southern-nevada-argonauts,35.9724636,-114.8369102,NV,Boulder City
{DC67141C-7358-439D-BE1E-DCD1297124EA},The Salvation Army Kroc Center San Diego (KCSD),/clubs/the-salvation-army-kroc-center-san-diego-3169,32.7546442,-117.049710,CA,San Diego
{9111A9FD-8A92-483A-AAEC-6380B8606867},John P. Thayer YMCA Masters Swim (BARM),/clubs/john-p-thayer-ymca-masters-swim-1700,32.4716788,-84.99288969999999,GA,Columbus
{7864FF0B-060A-41A0-B42C-469A86902E77},Paseo Club Masters  (PCM),/clubs/paseo-club-masters-swim-3037,34.437275,-118.562291,CA,Santa Clarita
{B7FB391E-AEDC-4BC5-9E65-88C162A58F45},Petaluma Valley Masters (PVMA),/clubs/petaluma-valley-masters-943,38.2459968,-122.628513,CA,Petaluma
{7C7F9A3D-FD4B-43B1-89FB-B2138E11B158},Fremont Area Swim Team Masters (FASTM),/clubs/fremont-area-swim-team-masters,41.435660,-96.47806290000001,NE,Fremont
{A2CD3245-F183-471B-818D-9CDD774246E0},Kroc Masters (KM),/clubs/kroc-masters-2556,47.7059029,-116.8103411,ID,Coeur d'Alene
{02B81D93-4198-4BCD-9EDE-EA3C7FEDF176},Team Godzilla  (ZILLA),/clubs/team-godzilla,38.7991409,-89.96836119999999,IL,Edwardsville
{F57D7746-6D85-45F5-8056-08055FAF3DC1},Chicago Swedish Fish Masters (SWED),/clubs/chicago-swedish-fish-masters-979,42.0113106,-87.7050555,IL,Chicago
{43AD20C5-2129-48CF-BEE2-4EA095B41F8A},Bayou Barracudas Swim Team (BBST),/clubs/bayou-barracudas-swim-team,29.5750989,-90.3779341,LA,Larose
{7F3231D4-5123-428D-8E96-9E9F547525B0},Podium Swim Club (PSC),/clubs/podium-swim-club,21.31587069999999,-158.0753797,HI,Kapolei
{5B2A4CEE-D25E-4B3A-9E5A-6BD11AD3BFB8},Nashville River Rats (RVRAT),/clubs/nashville-river-rats,36.1612198,-86.78550299999999,TN,Nashville
{8EB07677-F60B-4860-82CF-CB906932D541},OC Seals  (SEALS),/clubs/oc-seals,33.6081789,-117.9232698,CA,Newport Beach
{E41B81F0-9CC2-4878-919F-731E86D27A8D},TVM Swimming (TVM),/clubs/tri-valley-masters-741,37.6726937,-121.876104,CA,Pleasanton
{58299112-30CE-451A-A774-2564C6ADC398},Bayfield Recreation Center (BAYRC),/clubs/bayrc,46.8088339,-90.8168082,WI,Bayfield
{868A87E1-C03F-4903-8851-DF6C2CD0B5F3},Circle City Aquatics (CCAQ),/clubs/circle-city-aquatics-3224,33.8582014,-117.5454571,CA,Corona
{62D1C16D-2277-4D17-B423-05520B81D3B8},Trotter Family YMCA (TFY),/clubs/trotter-family-ymca-678,29.7529496,-95.4819592,TX,Houston
{79F07749-C7FA-49BE-9704-382F3ADFE924},Potomac Marlin Masters (PMM),/clubs/potomac-marlin-masters-823,38.8231903,-77.08329069999999,VA,Alexandria
{4D4ACD3F-179D-4834-B82E-630426EC61FB},Cincinnati Marlins (CM),/clubs/cincinnati-marlins-3235,39.2076656,-84.5059186,OH,Cincinnati
{AA98611A-51FB-4678-BFF2-1FB714D41100},Summerville YMCA Stingrays  (SFYS),/clubs/summerville-ymca-stingrays,32.9586494,-80.1718344,SC,Summerville
{0991DEAD-7881-444D-9A02-99617296DBA4},Electric City Aquatics Club (ECMS),/clubs/electric-city-aquatics-club,42.8173207,-73.9299554,NY,Schenectady
{D31961FE-403A-4BD5-981B-27EA2B94F3E4},Elk Grove Piranhas Aquatic Club (PAC1),/clubs/piranhas-aquatic-club-3459,38.4049171,-121.4025118,CA,Elk Grove
{FD6F90CC-3BA6-4183-83F2-A671CAA84699},Chastain Park Athletic Club (CPAC),/clubs/chastain-park-athletic-club-2767,33.874548,-84.39502209999999,GA,Atlanta
{E70965BC-F86C-4917-8F6F-065C3506EEFA},Avalon Swim Club (AVSC),/clubs/avalon-swim-club,27.9451046,-82.7933515,FL,Clearwater
{A2C2B8DB-31F7-41DB-BED6-8F12D4E133D5},Phoenix Swim Club (PSCM),/clubs/phoenix-swim-club-1134,33.5167465,-111.9957516,AZ,Phoenix
{5B80DA3A-67A5-488F-81ED-952C81D4FA95},Total Masters Swimming (TS),/clubs/total-masters-swimming-3412,40.7202437,-73.5757402,NY,East Meadow
{0A9DEB0E-6878-476E-AC83-CDAD978B0068},Tooele Masters Aquatic Team (TMAT),/clubs/tooele-masters-aquatic-team-2553,40.5315758,-112.3053698,UT,Tooele
{7CC5502F-FDFD-42FC-B5D7-7458E501FAC8},South Lake Tahoe Masters (SLTM),/clubs/south-lake-tahoe-masters,38.9402084,-119.9741438,CA,South Lake Tahoe
{4D2C151E-F26B-4D2E-8C56-CA2968ADF7E7},King Marlin Swim Club (KMMS),/clubs/king-marlin-swimming-club-2463,35.5820725,-97.57862879999999,OK,Oklahoma City
{395FAF36-964D-4EFE-A190-575EA1C06725},Tri Again Fitness Hawaii (TAF),/clubs/tri-again-fitness-hawaii,20.8796177,-156.4773269,HI,Kahului
{178130D7-A486-485D-AF8E-5FA148AA793B},KAC Viperfish (KAC),/clubs/kingsport-aquatic-center-2377,36.5102749,-82.5645248,TN,Kingsport
{BE3661DB-3F51-49CB-B237-824E1A0B5B01},Lehi Masters Morning Crew (LMMC),/clubs/working-on-it,40.389630,-111.8503376,UT,Lehi
{EFEF148B-2286-4CAB-A683-2A66944C969F},Chambersburg Chargers (CC),/clubs/chambersburg-chargers,39.92657920000001,-77.6520079,PA,Chambersburg
{3961194F-AA80-48EC-BC96-3E2734A1F081},Swim Out (SWOUT),/clubs/swim-out-orlando,28.5937135,-81.3173284,FL,Winter Park
{C3FAAB0D-2D5E-4984-8BAB-671EF978027D},Aiken Armada Masters YMCA (AAMY),/clubs/aiken-armada-masters-ymca,33.577487,-81.7843412,SC,Graniteville
{BE6CB984-100A-4E12-9130-E4A836F7233E},Knoxville Open Water Swimmers (KOWS),/clubs/knoxville-open-water-swimmers-3449,35.961558,-83.9046734,TN,Knoxville
{BA7AE2F2-3324-43C8-8FDF-DB4D7883F850},Chester River Aquatic Blues (CRAB),/clubs/chester-river-aquatic-blues-1333,39.22871389999999,-76.0679473,MD,Chestertown
{90896CD5-92A5-4396-8553-FA973AD2A340},Chelsea Piers Fitness NY/BK (CHEL),/clubs/chelsea-piers-masters-1500,40.7469138,-74.00826409999999,NY,New York
{BFC50063-7E4E-4463-8C32-146ECD7E41B6},YMCA of Metro Atlanta (ATLY),/clubs/ymca-of-metro-atlanta,34.242215,-84.492931,GA,Canton
{40459B60-00F2-4CA3-9CE4-F80A18C08509},Lifetime Swim Southeast  (LTFSE),/clubs/lifetime-swim-southeast,33.42863860000001,-86.7345649,AL,Vestavia Hills
{997780BA-845E-4B9B-B69C-79F4CDE1E017},Searcy Masters Swimming (SEACY),/clubs/searcy-masters-swimming,35.2300464,-91.7279058,AR,Searcy
{C643FFD8-BDEA-4A3C-A256-06FAA590FACB},TOWER 26 (T-26),/clubs/tower-26-1615,33.9197502,-118.3855186,CA,El Segundo
{CBCECD34-316F-475B-A750-DC44620CE544},Madison Area YMCA (MAY),/clubs/madison-area-ymca-2,40.7536527,-74.4125323,NJ,Madison
{65030A13-74F4-4CBF-8A53-7BE6A927442F},Houston Cougar Masters (COOG),/clubs/houston-cougar-masters-1643,29.6802022,-95.46848390000001,TX,Houston
{DF5FB426-E1EF-4851-863B-EE89F9B5FFFF},Chattanooga Open Water Swimmers (COWS),/clubs/chattanooga-open-water-swimmers-2678,35.0618962,-85.3073081,TN,Chattanooga
{3711406C-15D9-4921-91FD-302CF4B01004},Off Piste Aquatics (OPA),/clubs/off-piste-aquatics-3147,39.631036,-106.290590,CO,Vail
{1DE1BF71-4F2A-4930-86BE-91CED75CF407},Texas Gold Georgetown Masters (GTX),/clubs/texas-gold-georgetown-masters-519,30.6529454,-97.673046,TX,Georgetown
{534EE3CE-3472-4D1A-908C-A2E1A82302A7},Tamalpais Aquatic Masters (TAM),/clubs/tamalpais-aquatic-masters-664,37.9752719,-122.5343845,CA,San Rafael
{2797F7FC-AE7C-4D60-92C7-1853A27D17D3},CrossGates Masters SwimTeam (CGMT),/clubs/crossgates-masters-swimteam,30.2946888,-89.7200204,LA,Slidell
{3B6A6B17-7010-4EF5-B9A9-F6F4CC83DCED},Annapolis SeaDogs (ASD),/clubs/annapolis-seadogs,38.9742463,-76.56264039999999,MD,Annapolis
{DFFFF18F-36F8-4F69-9D3D-F4EA8E3AB6C2},Excel Aquatics (XCEL),/clubs/excel-aquatics,36.0021418,-86.7885768,TN,Brentwood
{C9908EC3-353B-4C55-9B67-1B865AA95A0E},Talbot Masters (TCYS),/clubs/talbot-masters-642,38.7617129,-76.0762658,MD,Easton
{CDAF08C5-3593-4D09-9573-EB61ECFDE5C4},T2 Naples Masters (T2NM),/clubs/t2-naples-masters-1600,26.217611,-81.75425899999999,FL,Naples
{08C8E7CB-04CB-4C55-88ED-E99B8481FA58},Point Me to the Water (PMW),/clubs/point-me-to-the-water,35.654634,-78.80899579999999,NC,Holly Springs
{88A64477-AE42-450A-BD1A-E6B5530496A3},Tampa Y Swimming Masters (TYSM),/clubs/tampa-y-swimming-masters-524,27.8926628,-82.248059,FL,Valrico
{3F8275E0-D9D1-4987-A245-59E1EA5748B1},Central New York YMCA (YCNY),/clubs/central-new-york-ymca,43.0476399,-76.1498874,NY,Syracuse
{191D9302-4D82-4B62-8E3D-AF26C8B8AF35},Rye YMCA (RYEY),/clubs/rye-ymca,40.9819259,-73.685597,NY,Rye
{8809E04F-939F-459A-9872-DBF770BFC56F},Lifetime Fitness Tempe (LTFAZ),/clubs/lifetime-fitness-tempe,33.3413432,-111.9643591,AZ,Tempe
{66AD98D0-72A5-4B14-80A9-F6662D73D2DE},Hudson Valley Dolphins (HVD),/clubs/hudson-valley-dolphins-2928,41.7457259,-73.93276740000002,NY,Hyde Park
{1F4AB472-DAD4-4544-AB68-ACDE6B5DCB82},O*H*I*O Masters Swim Club (O*H*),/clubs/ohio-masters-swim-club-553,41.4808037,-81.7918189,OH,Lakewood
{143D06FF-4CDF-4595-AF53-BC49C56C4E75},Rec Well Masters Swim (RWMS),/clubs/rec-well-masters-swim,43.07706499999999,-89.4200729,WI,Madison
{9944F9B0-696E-409A-BF54-5D75B81507F5},Brownell Talbot Aquatic Club - Masters (BTAC),/clubs/brownell-talbot-aquatic-club-masters-3446,41.2643301,-95.9990401,NE,Omaha
{ECFA336E-F883-45EA-9A19-1DFC1E0533B7},River Crossing - Bethlehem YMCA (BYMCA),/clubs/river-crossing-bethlehem-ymca,40.6216132,-75.36777339999999,PA,Bethlehem
{8A7E4E58-D12D-4C2D-8387-8A211B506EBE},Toledo Tidal Waves (TIDES),/clubs/toledo-tidal-waves,44.626067,-123.9383307,OR,Toledo
{71634235-EC81-4F1D-B8F9-5FDAEBC22FD0},Oahu Club Masters Team (OCMT),/clubs/oahu-club-masters-team-1629,21.2902384,-157.7066917,HI,Honolulu
{17FA3840-4856-44DB-8249-3663CDE46B20},O2 Performance Aquatics (O2),/clubs/o2-performance-aquatics-610,32.8751647,-96.96265559999999,TX,Irving
{533B794A-80D3-40A0-B375-C79EA9643D9A},Bowling Green Swim Club Masters (BGSC),/clubs/bowling-green-swim-club-masters-1020,41.37914099999999,-83.631266,OH,Bowling Green
{BF62F96B-702B-4C00-AE6E-4EA59A202462},Hilo Aquatic Club (HAQ),/clubs/hilo-aquatic-club-908,19.7190999,-155.0668179,HI,Hilo
{67DA4101-B97E-40FC-AC81-2212ADB96F7C},NYC Hydras (NYCH),/clubs/nyc-hydras-597,40.768608,-73.96504999999999,NY,New York
{3B237D33-DF40-4E49-931C-54B87493F889},Bozeman Masters Swimming Club (BOZE),/clubs/bozeman-masters-swimming-club-643,45.6800323,-111.0543483,MT,Bozeman
{79BA9D09-8446-4664-BDE7-2669719F3F43},Key West Masters Swim (KWMS),/clubs/bone-island-masters-club-703,24.5832197,-81.744303,FL,Key West
{ABAEFD3F-597A-4199-B9CB-D5AD89F8F719},Legends Masters Swim Club (LMSC),/clubs/legends-masters-swim-club,28.6096844,-81.3286818,FL,Winter Park
{EF4165B1-27D7-475B-BF36-E113CE946276},Jacksonville Area Warrior Swimmers (JWS),/clubs/holmes-lumber-jax-528,30.3241461,-81.52534639999999,FL,Jacksonville
{22122480-A39A-43A4-A298-E4A882994FDD},"Oakland Barracuda Aquatic Club, Inc (CUDA)",/clubs/oakland-barracuda-masters-955,37.8129154,-122.2878871,CA,Oakland
{C5BA002C-3775-4C09-A3C8-47EB6227A11C},Bret Harte Aquatic Masters (BHAM),/clubs/bret-harte-aquatic-masters-2349,38.0807751,-120.554196,CA,Angels Camp
{7F51A39F-3C3F-45E7-AAFC-AA2FFBC914CC},Marin Aquatic Masters  (MAQ),/clubs/marin-aquatics-masters-1938,38.07525799999999,-122.5787863,CA,Novato
{D042A9F2-06FD-4908-B639-F2C6C4A82650},Hockessin Athletic Club (HACM),/clubs/hockessin-athletic-club-2584,39.7786187,-75.7169779,DE,Hockessin
{7C6E1A27-3A4B-4D44-BE71-FA5BE6354BC9},Huntsville Swim Assoc (HUNT),/clubs/huntsville-swim-assoc-688,34.7056097,-86.5372166,AL,Huntsville
{B59B1920-F0DA-4979-A682-BB4F7F3AC14A},Canandaigua Masters Swim Club (CDGA),/clubs/canandaigua-masters-swim-club-2280,42.9029919,-77.2717577,NY,Canandaigua
{3AEEEE68-21EE-4EE6-B725-A7C2C9F7392B},Iron Fit Endurance (IA),/clubs/iron-fit-endurance,40.7906796,-73.03651529999999,NY,Holtsville
{9A75CA27-0E47-41FE-87CA-B888EC6961B9},Suncoast YMCA Masters Swimming (SYMS),/clubs/suncoast-y-masters-swimming,28.8936874,-82.505584,FL,Lecanto
{8905D1A9-4B29-4330-9CBD-AA367069EDF4},Team Windfall (TWFL),/clubs/team-windfall-1125,27.9357709,-82.79786519999999,FL,Clearwater
{D89E53C4-4483-4A65-8F35-E5F1DB83BAA1},San Dimas Aquatics (SDA),/clubs/san-dimas-aquatics,34.098414,-117.8265178,CA,San Dimas
{DA620A41-3EC8-4C60-B1A7-32A6CF9EFA9A},Select Team of Aquatic Racers Masters (STARM),/clubs/select-team-of-aquatic-racers-masters,32.9948497,-96.83798929999999,TX,Dallas
{5C8AE20D-4D01-4BA5-9BCC-ED7B8DD80416},Sussex County YMCA Silver Tsunami's (SCYST),/clubs/sussex-county-ymca-silver-tsunamis,41.141266,-74.6074455,NJ,Hamburg
{D8169030-58F7-4AD9-89B2-DC6615F4C287},BeMore Baltimore (BEMOR),/clubs/bemore-baltimore,39.3272831,-76.6195475,MD,Baltimore
{C166A089-868E-458F-8A2D-2D1440D8BB6C},St. Cloud State Masters (STCSM),/clubs/st-cloud-state-masters,45.548992,-94.1532963,MN,St Cloud
{65133ADC-7B62-4D38-8842-7726878B6E89},Elite Rays Swim Club (ERSC),/clubs/elite-rays-swim-club-2517,38.9113901,-76.8672315,MD,
{0D04E245-CF53-4144-BA62-D3C25B1B5CD7},New Berlin Swim Club Masters (NBSCM),/clubs/new-berlin-swim-club-masters,42.9644506,-88.0916027,WI,New Berlin
{96DCFE41-FBD2-4B47-947C-9FF3A7FA7042},Caltech Masters (CTM),/clubs/caltech-masters-549,34.13566659999999,-118.127240,CA,Pasadena
{7611F882-77BA-45FD-B17E-1774C8DF0467},Harbor Aquatics Club  (HA),/clubs/harbor-aquatics-club,47.3728466,-122.610194,WA,Gig Harbor
{37AE0639-210A-4B10-AFA6-F12E898B6E4F},Iolani Swim Club Masters (ISCM),/clubs/iolani-swim-club-masters-1691,21.286194,-157.824549,HI,Honolulu
{7604F37C-3240-4592-9BBB-6FA567FF1F0A},Omaha Masters Swim Club (OMAH),/clubs/omaha-masters-swim-club-807,41.1974141,-95.9558886,NE,Omaha
{3F569B7E-C712-4F7A-A438-35D5CEF1834E},TeamTexas Masters (TTEX),/clubs/teamtexas-masters-952,30.2689942,-97.756992,TX,Austin
{5E343DC2-70A8-4540-A888-FC6E006E5248},Orinda Aquatic Masters (OAM),/clubs/orinda-aquatic-masters-744,37.8551406,-122.1248597,CA,Moraga
{BB14D405-08CC-4361-B656-844D86C94C5F},Canyons Aquatic Club (CANY),/clubs/canyons-aquatic-club-3432,34.40444280000001,-118.5705901,CA,Santa Clarita
{243DCCAE-7DD3-4011-B8B0-E38E509A3C35},Texas Ford Aquatics Masters (TFAM),/clubs/texas-ford-aquatic-masters-2571,33.1474284,-96.84891970000001,TX,Frisco
{7BB8A9AB-F4E3-4917-8510-E6DF1EA77F4D},Palmetto Masters (PALM),/clubs/palmetto-masters-542,32.82387310000001,-79.8474499,SC,Mt Pleasant
{5D800B7F-61D2-4810-8A74-8AACEB51DE55},CMAC Masters (CMAC),/clubs/costa-mesa-aquatics-club,33.6578328,-117.9856017,CA,Huntington Beach
{8910F1CD-CCFA-45A7-B5FC-B8AF9C8D3696},QNS Masters (QNS),/clubs/qns-masters,40.7467091,-73.9073351,NY,
{F1E9AB51-7046-4071-B23A-7B1AF9989FA7},Havasu Stingrays Master's Team (LHMT),/clubs/lake-havasu-masters-team,34.4659972,-114.3376646,AZ,Lake Havasu City
{80259A5E-DCBA-42F6-92E0-A74EB308BD6F},Temescal Aquatic Masters (TEME),/clubs/temescal-aquatic-masters-662,37.8331863,-122.2576565,CA,Oakland
{AAB80C23-46D9-4F6F-81F5-75FEC9190283},Valpo Masters (VALPM),/clubs/valpo-masters,41.4930768,-87.06773369999999,IN,Valparaiso
{3E20F963-576B-4269-BBC4-29AF0150D4F7},iSWIM Masters (ISWIM),/clubs/iswim-masters-1,40.419753,-86.91027729999999,IN,West Lafayette
{1C19D98C-BE1F-42CF-A645-31C706493FBE},Team Ridglea (RIDG),/clubs/team-ridglea-607,32.7201551,-97.3546929,TX,Fort Worth
{7533B7CD-9569-48A8-8AAC-2E21F1AF9CE6},WAHOOS OWSLEO (SPBA),/clubs/owsleo-st-pete-beach-swim-fit-3034,27.7449017,-82.7495134,FL,St Pete Beach
{2DEDF232-327F-4EAA-8B78-7D1171FE5CF9},Sewanee Aquatic Club: Masters (SWAN),/clubs/sewanee-aquatic-club-masters,35.2083243,-85.919460,TN,Sewanee
{7E7AC8D8-3A33-48B9-BAA2-3466AC0444BC},Intrepid Athletics (IAM),/clubs/intrepid-athletics-2827,43.6081315,-73.1783828,VT,Castleton
{A53D2B7A-3BBB-4D4C-BB11-3568B8AA9BD8},Burkwood Aquatics Masters (BAM1),/clubs/burkwood-aquatics-masters-2301,37.6517221,-77.373804,VA,Mechanicsville
{D0E410ED-389F-4F91-A9ED-AF7E96B1FF70},Olympus Aquatics (OACM),/clubs/olympus-aquatics-2229,40.714643,-111.8257059,UT,Salt Lake City
{24698AA4-A9B0-4795-95FB-7A327BCE7619},Oklahoma Masters Swim Club (OKMS),/clubs/oklahoma-masters-swim-club-557,35.6847017,-97.5083114,OK,Edmond
{7F6633A9-C77E-4914-8655-E8447438EAE7},I Swim Masters Team (ISMT),/clubs/i-swim-masters-team-2004,44.88355689999999,-93.4070984,MN,Eden Prairie
{0BF696B9-A340-4E8B-8B5C-F30E5FD1E6DB},Coast Aquatics Masters (COAST),/clubs/coast-aquatics-masters-1,30.3893713,-86.4428873,FL,Destin
{6D2ABB42-B108-4D46-994F-BF584E6E7EFD},FirstHealth Fitness (FHC),/clubs/firsthealth-fitness,35.2071511,-79.4601047,NC,Pinehurst
{840D1362-A645-46AF-9B9B-B94F7262EC04},Sea Dragon Aquatics Masters (SDAMS),/clubs/sea-dragon-aquatics-masters,27.0150065,-82.1752389,FL,Port Charlotte
{989C7182-33F1-4276-AB66-3708D3FC9B81},University of Denver Masters Swimming (DUMS),/clubs/university-of-denver-masters-swimming,39.6802516,-104.962148,CO,Denver
{329D089E-4D3E-4CB6-A0AE-D805A752B048},Boerne Elite Aquatics (BEAQ),/clubs/boerne-elite-aquatics,29.7842089,-98.7121403,TX,Boerne
{E040A759-D2AD-4460-A148-2CABDD870B8B},One with the Water (OWTW),/clubs/one-with-the-water-1903,33.9202669,-118.3848173,CA,El Segundo
{CD3F6093-9D2E-44A2-96B9-5CC47CFC0B06},TEAM REBEL MASTERS (TRM),/clubs/team-rebel-masters-2964,36.1247497,-115.2714417,NV,Las Vegas
{E6FBAE78-E516-4322-B084-C950FF1AF5D2},Swim Force One (SF1),/clubs/swim-force-one,38.5105797,-77.3094754,VA,Quantico
{239FA301-E16C-42A3-BB44-49FA464BD628},Indy Aquatic Masters (INDY),/clubs/indy-aquatic-masters-1745,39.9793588,-86.1194601,IN,Carmel
{7F0CCF19-267E-4B7E-B04F-A31A56FFC844},Team Pittsburgh Masters (TPIT),/clubs/team-pittsburgh-masters-803,40.4447163,-79.9632176,PA,Pittsburgh
{6B39F9D6-011E-43FB-B97E-3E0003EEBCC1},Open Water Swim Team (OWST),/clubs/open-water-swim-team-2519,40.7494198,-73.1350307,NY,Oakdale
{41EF8B2F-7717-4316-93C3-0C13FDD6F75F},Team New York Aquatics (TNYA),/clubs/team-new-york-aquatics-776,40.6685189,-73.9555979,NY,
{0F2FC526-5174-4D4F-A4E7-BEC763F5F0CB},California Capital Aquatics Masters (CCA),/clubs/california-capital-aquatics-masters-3258,38.7642634,-121.3313329,CA,Roseville
{85C0B36A-847D-4BAB-A4ED-A39BA6961712},SwimTrek (SWMTK),/clubs/swimtrek,44.53386949999999,-123.2545768,OR,Corvallis
{3DC7D9A0-BFA2-4A14-B9C2-78675462B5F5},Cala Maritime Aquatics Masters (CMAM),/clubs/cala-maritime-academy-masters-660,38.0693776,-122.2332458,CA,Vallejo
{CE83A4C7-D140-4C42-857F-3E787A0A706A},Eastern Madera Masters (EMAD),/clubs/eastern-madera-masters,37.328785,-119.6314522,CA,Oakhurst
{5C9F16CC-889A-4B23-A49B-ADA619708C9E},"Powel Crosley, Jr. YMCA (PCY)",/clubs/powel-crosley-jr-ymca-3217,39.2411395,-84.51170259999999,OH,Cincinnati
{7E78BD2E-0CA0-4A5B-9462-9FBFA15AFF56},Riptide Masters Swim (RIPT),/clubs/orange-county-riptide-aquatics-2147,33.7142805,-118.0011336,CA,Huntington Beach
{EE3ACB44-2054-4991-8D7B-3C2A208A4AE4},Renegade Aquatics Masters (RAQ),/clubs/renegade-aquatics-masters-3429,33.1034416,-117.082672,CA,Escondido
{A2844A43-7C63-4E03-A96E-B1386F7950F1},Libertyville Masters (LIB),/clubs/libertyville-masters-1627,42.2832038,-87.96863859999999,IL,Libertyville
{C8663939-1D6B-42EE-A237-B16F684278EE},Northbrook Lifetime (NBKLT),/clubs/northbrook-lifetime,42.1294607,-87.7880754,IL,Northbrook
{DE4591BB-D306-45FB-8143-3CDD959D61A1},Cole YMCA Masters (COLE),/clubs/cole-ymca-masters-1722,41.4361554,-85.2588261,IN,Kendallville
{7CA687A3-7A89-4754-9F80-1216309B91F8},Vacaville Swim Club (VACA),/clubs/vacaville-swim-club-625,38.3403528,-121.9951875,CA,Vacaville
{7071B9B1-FB15-4117-BAE3-3B676E189063},Blue Tide Aquatics (BTA),/clubs/blue-tide-aquatics,30.0658169,-95.22551089999999,TX,
{57423902-9352-4EF8-8CD3-D207C5DE208E},Colonials 1776 (1776),/clubs/colonials-1776-552,40.1516181,-75.2048306,PA,Ambler
{B387E478-9F21-42A5-AA83-C5780A7A1A53},Lifetime Palm Valley (AZPV),/clubs/lifetime-palm-valley,33.4658485,-112.3714322,AZ,Goodyear
{ABDF97BE-181F-41D5-967A-CEEF363552FB},Clarksville Flying Fish (CFF),/clubs/clarksville-flying-fish,36.5725553,-87.4131627,TN,Clarksville
{EE925D97-B01E-4D3B-B0CF-5F2AD559E462},Reston Masters Swim Team (RMST),/clubs/reston-masters-swim-team-588,38.9364594,-77.3605269,VA,Reston
{054C61AC-2586-44C9-838B-EB17D741BD93},Ukiah Valley Athletic Club (UVAC),/clubs/ukiah-valley-athletic-club,39.1104455,-123.1958508,CA,Ukiah
{47668E85-E92F-4E51-8B44-EFE32B3B8C7A},Nessie Masters Swimming (NESS),/clubs/nessie-masters-swimming,39.0335085,-77.1641902,MD,Potomac
{A7A44B9B-DE1B-41C8-B8CF-D2EDAD664922},South East Metro Sharks Masters (SEMS),/clubs/south-east-metro-sharks-masters,44.8536456,-92.9770545,MN,Cottage Grove
{15F97C48-48AC-4A04-B86F-65630729F655},Coney Island Brighton Beach Open Water Swimmers (CIB),/clubs/coney-island-brighton-beach-open-water-swimmers-2518,40.5753961,-73.963028,NY,
{DEB5C714-25DF-46BE-84F8-45E6B5D7F2D8},Pike Masters Swimming (PIKE),/clubs/pike-masters-swimming,39.87641869999999,-86.25474469999999,IN,Indianapolis
{65A487EB-9238-4E12-B49D-ED6343F46720},Vallejo Aquatic Club (VJO),/clubs/vallejo-aquatic-club-2438,38.1024273,-122.2118277,CA,Vallejo
{5E310807-5D2D-4EB2-A177-F1B3DC496378},ATAC Masters (ATAC),/clubs/atac-masters,30.4750228,-84.2844549,FL,Tallahassee
{1A24CDB1-671A-4D60-8FCE-9D2DAB082F2D},Lakeshore Sport & Fitness (LSLP),/clubs/lakeshore-sport-fitness,41.8861572,-87.6220702,IL,Chicago
{217D9617-50FD-4E5D-A280-5BD0F2220BF7},Conejo Valley Masters (CVMM),/clubs/conejo-valley-masters-1345,34.2266685,-118.8770884,CA,Thousand Oaks
{5D66ABFA-7BF1-4ACB-AD5D-9E3BF8AC60AB},Hot Tub Swim Club (HTSC),/clubs/hot-tub-swim-club,41.2166481,-96.10276069999999,NE,Omaha
{E02BE58F-4561-4828-8C8C-6500195010AA},Ridgewood YMCA Breakers (RY),/clubs/ridgewood-ymca-breakers,40.9828851,-74.11767189999999,NJ,Ridgewood
{BE72D2D3-59D1-41AF-86E1-A3A80C983F67},M3 Aquatics Masters (M3A),/clubs/m3-aquatics,41.7886421,-87.5927603,IL,Chicago
{9D913EAB-C14C-43A8-BF15-91D80ADF98DB},Lane 4 Swimming (L4S),/clubs/lane-4-swimming-561,38.93781990000001,-77.0899629,DC,Washington
{8EB6550C-011B-4F15-A40E-458166D60E04},CoastSide Tiger Sharks (CSTS),/clubs/coastside-tiger-sharks-1872,37.5963158,-122.4783126,CA,Pacifica
{0F4F0B36-7D5A-45AD-A0C0-98047459A444},TeamABI (ABI),/clubs/teamabi,32.43034290000001,-99.75035109999999,TX,Abilene
{099BBF49-ACCC-4FE9-8141-DC99191729D2},United Swim Club (USC),/clubs/united-swim-club-3315,30.5254537,-84.2741372,FL,Tallahassee
{F4DC40BF-AE03-4A1A-8E7E-7B4AB6A08A7A},Club Hot Tub (HTUB),/clubs/club-hot-tub-832,37.7001323,-121.9181461,CA,Pleasanton
{26A17C5C-7F97-4106-B584-3330CF60FB63},Penguin Swim Club (PSWIM),/clubs/penguin-swim-club,39.21361390000001,-121.0566943,CA,Grass Valley
{FB99C3F7-7CF3-40AA-B6A1-74AA960894E2},Clovis Swim Club Masters (CLOV),/clubs/clovis-swim-club-masters-988,36.858223,-119.718533,CA,Clovis
{98804FDA-504F-41DD-8793-FE7C1F40E442},Queer Utah Aquatic Club (QUAC),/clubs/queer-utah-aquatic-club-718,40.722017,-111.8607037,UT,Salt Lake City
{59F0965E-3216-443F-A2E0-C80B098711F4},Siouxland Y Dolphins Masters  (SYDM),/clubs/siouxland-y-dolphins-masters,42.4854415,-96.405008,NE,South Sioux City
{D4B945CF-44B3-4849-AC5B-4C11CA8CECFE},Lakeway Masters (CLWSC),/clubs/lakeway-masters-2272,30.35081899999999,-97.995336,TX,Austin
{FC739405-9620-4520-BE47-DD50B794AE56},Landshark Aquatic Masters (LASH),/clubs/landshark-masters-3264,40.54096810000001,-75.5304972,PA,Emmaus
{AC52494E-0076-47C9-B6AF-322223095B87},Swim Start (STRT),/clubs/swim-start,28.5551968,-81.34664479999999,FL,Orlando
{7BF54A99-F23D-4157-948E-8C7D793965FC},Cavalier Masters (CM-Y),/clubs/cavalier-masters,38.04940430000001,-78.478144,VA,Charlottesville
{4C52294C-0496-4A8D-BDBE-524F5D9CB86F},Lakewood Dawgs (DAWGS),/clubs/lakewood-dawgs,39.6781171,-105.1084455,CO,Lakewood
{D04D74E0-94A2-48B4-A14E-A76368FEF437},Shanna and Bryan Glazer JCC (BGJCC),/clubs/bryan-glazer-family-jcc-1,27.9489637,-82.4839052,FL,Tampa
{8B8395FD-07F7-43FC-B1D2-F43EDB148652},Club Tribe (1693),/clubs/club-tribe-2590,38.8666446,-77.048373,VA,Arlington
{538AD22C-4B46-4BB1-BF00-ABD0942339D7},Quicksilver Masters (QSS),/clubs/quicksilver,37.2156295,-121.8663234,CA,San Jose
{7A548310-A5F6-448D-A778-4915184A7721},Life Time King of Prussia (LTKOP),/clubs/life-time-king-of-prussia,40.0565049,-75.5155836,PA,
{0393353B-7F06-4B49-A673-CB9845F8A9D2},Rice Aquatic Masters (RICE),/clubs/rice-aquatic-masters-681,29.716610,-95.4026193,TX,Houston
{4F4C418A-7304-4C2A-8A16-F6EFBB545CF5},Torpedo Masters Club (TMC),/clubs/torpedo-masters-club,27.0140891,-82.17441939999999,FL,Port Charlotte
{A95F03DF-34FA-4FED-883F-6899ADC69635},Treasure Coast Aquatics (TCA),/clubs/treasure-coast-aquatics,27.1658684,-80.24272859999999,FL,Stuart
{1F1BDD7D-6A33-411F-ADEC-3B5ADF2A9BA8},Riverside Aquatics Association (RAA),/clubs/riverside-aquatics-association-603,33.9755074,-117.3564007,CA,Riverside
{82B81E16-6118-453E-B8CD-CEDB3DB11F49},Madison Aquatic Club Masters (MACWI),/clubs/madison-aquatic-club-masters,43.055990,-89.557608,WI,Verona
{378DB52A-AE12-4259-B882-CAE1DCE298A8},Falcon Masters Swim Club (FALC),/clubs/falcon-masters-swim-club,34.27487769999999,-118.4608232,CA,Los Angeles
{A9613953-A89E-411E-A4D5-6D39F92943F1},Malibu Wave Masters (MLIBU),/clubs/malibu-wave-masters,34.0391266,-118.7056464,CA,Malibu
{20E56530-C67B-407B-90E9-8F0BC17A801F},Viva Las Vegas Masters (VLVM),/clubs/viva-las-vegas-masters-815,36.1729585,-115.3340392,NV,Las Vegas
{10F84743-4149-4319-BE8D-382CE7A85C9D},CSP Tideriders Master Swim Club (CSPM),/clubs/csp-tideriders-master-swim-club-768,38.6436372,-90.36931849999999,MO,St. Louis
{2C2BC14A-E2EC-474B-BBB2-13BAF1E023ED},Portofino Masters (PORT),/clubs/portofino-masters,30.3434089,-87.078864,FL,Pensacola Beach
{20A73FCE-D441-4807-A5B8-042E69370F50},Pike Performance Training (PPT),/clubs/pike-performance-training,28.3698249,-81.6514366,FL,Four Corners
{D298FE24-6830-4804-9577-A321BAEC8079},WAC Masters Swim Club (WAC),/clubs/wac-masters-swim-club,47.6095829,-122.3336218,WA,Seattle
{C0AA8BBE-CD92-407F-A9C5-DF664DC7144D},Iowa City Eels (ICE),/clubs/iowa-city-eels,41.6713752,-91.5426969,IA,Iowa City
{83C76ABF-115C-429E-8ABE-5A654B9F96A1},YMCA of Metro Chattanooga (YOMC),/clubs/ymca-of-metro-chattanooga,35.0504476,-85.3133794,TN,Chattanooga
{3E044604-DA2C-4AA0-AEDE-FB443F6B47F6},EdgarMay Masters (EMM),/clubs/edgarmay-masters,43.2916482,-72.4734302,VT,Springfield
{2975BD14-38D7-4AFF-811C-B06D120D9AA3},Ellensburg Masters (EM),/clubs/ellensburg-masters,47.0087072,-120.5390954,WA,Ellensburg
{572C7FC9-3DE8-4FCF-A7C3-726FB2C66814},Tampa Elite Aquatics - Manta Rays (TEAM),/clubs/tampa-elite-aquatics-manta-rays-1,27.9287404,-82.5178174,FL,Tampa
{653E79C5-0113-4976-A063-ABB18809174C},The Claremont Club Masters Swimming (TCCMS),/clubs/the-claremont-club-masters-swimming,34.1144137,-117.6996916,CA,Claremont
{020C9875-0C12-4A25-AE92-E92B32139C70},BEAST Masters (BEAST),/clubs/beast-masters,35.1228592,-106.4993693,NM,Albuquerque
{2F069742-AD2B-4E9A-80B6-63070EEE99AC},Dakota Masters (DKTA),/clubs/dakota-masters-559,47.9211727,-97.0675374,ND,Grand Forks
{7243318C-7378-44E9-84C6-8826E73D57CE},Walnut Creek Masters (WCM),/clubs/walnut-creek-masters-657,37.9179143,-122.0421486,CA,Walnut Creek
{D8790B87-26A2-4A35-BBC1-0A4C00322DBB},Dad's Club Swim Team Masters (DADS),/clubs/dads-club-swim-team-masters-1027,29.7857672,-95.5020448,TX,Houston
{1AC5AD58-6034-474A-8127-1EE4C7789A68},Rochester Area Masters Swimming (ROCH),/clubs/rochester-area-masters-swimming-2573,43.101447,-77.5169235,NY,Rochester
{D8465500-4035-4801-B260-2D22B753565A},Tsunami Swimming (TSU),/clubs/tsunami-swimming,38.294738,-77.55525449999999,VA,Fredericksburg
{C4792FC0-EEFD-4F23-B83C-66B7E434C27F},Tullahoma Splash Masters (TULLA),/clubs/tullahoma-splash-masters,35.3623727,-86.22155520000001,TN,Tullahoma
{4C168AB5-4627-419C-841B-7F2351A4CDE3},Right Duff (DUFF),/clubs/right-duff-2916,38.847788,-77.1117809,VA,Arlington
{E2CD3F5E-2331-45A5-B9C1-D245D32E1494},Dothan Dolphins Masters Swim (DDMS),/clubs/dothan-dolphins-masters-swim,31.23920949999999,-85.4410503,AL,Dothan
{11092896-07F1-47BE-B0BE-C0EBE2102708},Ridgefield Aquatic Club Masters (RAC),/clubs/ridgefield-aquatic-club-3009,41.323704,-73.5125596,CT,Ridgefield
{5F9FFA4E-FF7C-4335-927D-C6813FE1FD3B},South End Rowing Club (SERC),/clubs/south-end-rowing-club-580,37.807894,-122.4210212,CA,SF
{82F9FA1F-1F3D-4804-B6C1-B2011BCB8EFE},Saint Charles Aquatic Masters (SCAM),/clubs/saint-charles-aquatic-masters,41.9291577,-88.2817713,IL,St. Charles
{9567DB6F-D127-4D29-A84E-2682EEDDB3D3},The Swim Team (TST),/clubs/the-swim-team,33.6372709,-117.6874479,CA,Lake Forest
{9B4AB9F1-5D6D-441B-9240-8754FCC7E587},South Park Swim Club (SPSC),/clubs/south-park-swim-club,38.1032009,-85.7289439,KY,Louisville
{90418D41-7345-44F4-B129-FC6587B89E6D},Tomball Area Swim Club (TASCM),/clubs/tomball-area-swim-club,30.0348383,-95.6324874,TX,Tomball
{DF2722D3-87EC-4F01-8C11-449DB84E315E},Ventura County Masters (VCM),/clubs/ventura-county-masters-449,34.2741635,-119.1905758,CA,Ventura
{D4B87172-5601-41F6-AA37-CD9C7FB19A36},Richmond Plunge Masters (RPM),/clubs/richmond-plunge-masters-1579,37.9249909,-122.3846388,CA,Richmond
{4236F856-A706-4396-B6BE-5AF4315F350E},USAM Masters (USAMT),/clubs/usam-masters,42.7293246,-73.6863206,NY,Troy
{2B860794-564D-4683-BC0B-22E6D6C9B65F},VAST Masters Swim Team (VAMT),/clubs/vast-masters-swim-team-3448,42.7916834,-96.9277536,SD,Vermillion
{C987EBE1-36A5-4500-B4AA-708EF883F268},Corona Swim Team (CROC),/clubs/corona-swim-team-462,33.8899333,-117.4844971,CA,Riverside
{22C66A5F-13E0-4263-AAEE-9416CE497BB4},Herndon Aquatic Club (HACCM),/clubs/herndon-aquatic-club,38.9727517,-77.39362729999999,VA,Herndon
{E3997F23-9366-4F97-B546-9BF0CA6A0A7C},Vashon Island Rockfins (ROCK),/clubs/vashon-island-rockfins-2332,47.383923,-122.430769,WA,Vashon
{5F420317-D5B5-4FB8-B439-A1FABB327DD0},Coronado Masters Association (CMA),/clubs/coronado-masters-association-511,32.6926645,-117.1797115,CA,Coronado
{41E0DED0-1507-4FB2-A275-2718D7A106FA},Virginia Blue Ridge YMCA (VABR),/clubs/virginia-blue-ridge-ymca,37.4141929,-79.9141104,VA,Daleville
{A63DB5C1-5445-4F41-BD60-71C7687ECEC0},Noreasters Masters Swim Team (NMST),/clubs/noreasters-masters-swim-team-1,44.82532639999999,-68.7953825,ME,Bangor
{2D67F55A-AF70-4194-AC77-A562AE0EC762},JCC Swimming Masters (JCC),/clubs/jcc-swimming-masters,39.4475849,-76.77350659999999,MD,Owings Mills
{64C6B29F-2F44-4399-8074-5237500D933E},Ripon  Aquatics Masters Club (RAMC),/clubs/ripon-aquatics-masters-club-2471,37.7413055,-121.1290434,CA,Ripon
{C4C81F2B-70CB-4E3C-A64E-B54FF8F9A306},RIO Salado Swim Club (RIO),/clubs/rio-salado-swim-club-2925,33.308764,-111.8414506,AZ,Chandler
{339737E0-7F5B-4DA4-AC0C-A1E8ACC02338},YMCA Pacific Aquatic Club (YPAC),/clubs/ymca-pacific-aquatic-club,37.8010674,-122.4489345,CA,SF
{4C34A8ED-2D65-4919-8E35-0B3EA540FE82},Copley Aquatics Masters (MCAQ),/clubs/copley-aquatics-masters,41.1124565,-81.6496343,OH,Akron
{D86D4988-13E5-472F-9565-53902236CDE2},Bolt Aquatics Masters (BOLTS),/clubs/bolt-aquatics-masters,27.6301289,-80.4236329,FL,Vero Beach
{25049974-FE5B-4366-8A9D-F5FCC0A2FB92},Rio Grande Swim Club (RGSC),/clubs/rio-grande-swim-club-871,35.2723358,-106.6578108,NM,Rio Rancho
{902F11F6-F48B-45CD-ADB4-EA1AF3C8858E},Aransas County Area Masters Swimming (ACAMS),/clubs/aransas-county-area-masters-swimming,28.0458631,-97.0489739,TX,Rockport
{FDBFF874-F4C7-4D5A-ADDA-B54097A5BE23},Oak Brook Park District Masters Swim Team (OBMST),/clubs/oak-brook-park-district-masters-swim-team,41.8358727,-87.9544631,IL,Oak Brook
{4BB8CE94-8C11-4190-9007-1483B0CB1CF3},River Falls Swim Club (RFSC),/clubs/river-falls-swim-club,44.8395479,-92.615361,WI,River Falls
{067181B0-B0BE-4D42-92B9-A79AD5A718B1},Viking Aquatics (VKNG),/clubs/viking-aquatics-1735,33.8327926,-118.134784,CA,Long Beach
{504B6F32-59DE-44C1-87E1-248E5318ECCD},Pflugerville Pflamingo Masters (PFPF),/clubs/pflugerville-pflamingos-masters,30.4456875,-97.6205063,TX,Pflugerville
{3E2836EE-4B4D-4B1B-8266-14F430D7EAD7},Achievers (HFST),/clubs/achievers-2549,33.2045233,-117.2669227,CA,Vista
{6CB10453-646F-41C3-98B2-EEC13F1879BF},South Bay Swim Team (SOBA),/clubs/south-bay-swim-team-548,33.9188166,-118.3618693,CA,Hawthorne
{14ED630E-4DB9-4C8E-BF6B-49F6EC60DDA5},Mercy Healthplex Seawolves Masters (MHSM),/clubs/mercy-healthplex-seawolves-masters-3327,39.0823279,-84.35001249999999,OH,Cincinnati
{22FB2F28-D3D4-4BD9-AD33-7BD577AACCE2},Palo Alto Masters (PALO),/clubs/palo-alto-masters,37.4428492,-122.1406979,CA,Palo Alto
{846344B3-352C-482F-A845-43CA8365FEB0},Sonoma Splash Masters (SON),/clubs/sonoma-aquatic-club-masters-1875,38.2829016,-122.4581132,CA,Sonoma
{204020C3-3FC7-40C7-ADBF-490F10464CE3},Camillus Swim Club Masters (CSCI),/clubs/camillus-swim-club-masters,43.0412763,-76.2654422,NY,Camillus
{68B94DF3-1E5F-4BB7-8BAB-AA5A1D9304E1},Somerset County YMCA Masters (SCYM),/clubs/somerset-county-ymca-masters-2760,40.5949682,-74.63226610000001,NJ,Bridgewater Township
{197D4243-7E0C-444F-B984-1EF72AC194F5},Academy Bullets Masters (ABM),/clubs/academy-bullets-masters-623,42.4039461,-73.4249322,NY,Canaan
{8F4F8043-6A37-487A-BBB9-283E7464F05F},First Colony Masters Swimming (FCST),/clubs/first-colony-masters-swimming-586,29.5744519,-95.584580,TX,Sugar Land
{3474BE65-5794-4AA3-93EF-D5EE3C1627BE},Fig Garden Swim Team (FGST),/clubs/fig-garden-swim-team-749,36.8039825,-119.7988293,CA,Fresno
{2A356ECC-4303-48BA-8A81-59217E073228},Valley Health Lifestyles (VHL),/clubs/valley-health-lifestyles,41.0790056,-74.1560561,NJ,Mahwah
{E6ED6D74-9994-4FA5-A5A8-892528378C02},Chico Masters Swimming (CHICO),/clubs/chico-masters-swimming,39.7496529,-121.8248945,CA,Chico
{88584EDC-54CB-4633-AFA7-CD2DEA110E79},Gwinnett Aquatics (GA),/clubs/gwinnett-aquatics,33.8235506,-84.0534831,GA,Snellville
{FFAED06E-30DD-4D71-9FC0-C7CD5F33FE5B},Menlo Masters  (MELO),/clubs/menlo-masters-aka-team-sheeper-648,37.453278,-122.1761128,CA,Menlo Park
{952BC097-5580-49CB-829E-2DE2866FA0F9},SLO Seahawks Masters (SLOSM),/clubs/slo-seahawks-masters,35.2666136,-120.6446392,CA,San Luis Obispo
{7B5796AE-C24E-4E78-A56A-7902F40F0542},RUSH Aquatics (RUSH),/clubs/rush-aquatics,39.0897203,-84.3285834,OH,Cincinnati
{6BAC44BD-6F10-4857-8258-BEC1C3A909C7},Merced Skimmers Masters Aquatics (MSMA),/clubs/merced-skimmers-masters-aquatics-1586,37.3336824,-120.4730031,CA,Merced
{2B729E33-CB7A-449C-867E-96F891FF6E55},Kennesaw State University Masters (KSUM),/clubs/kennesaw-state-university-masters,34.0371782,-84.5818673,GA,Kennesaw
{77BAA84E-0C7A-4104-97E8-9CC7362FCF51},Mahogany Mermaids Masters (MMCLT),/clubs/mahogany-mermaids,35.26583449999999,-80.8595996,NC,Charlotte
{2BC8CD7E-88A0-48EB-8224-19A03F0F0EBB},Marlins Masters (BGNW),/clubs/marlins-masters,41.20808650000001,-73.7276989,NY,Mt Kisco
{2B99BFB7-B8E7-4CA4-8957-EAC9E89BCD07},South Davis Masters (SDMST),/clubs/south-davis-masters-2281,41.2619869,-111.736484,UT,
{E9E3480E-C912-4A78-A775-06CC2B7378D6},Puget Sound Swim Club - Masters (PSSC),/clubs/puget-sound-swim-club-masters,47.5365798,-122.6228324,WA,Port Orchard
{31EB7312-7DAB-4182-8E45-CCBBF5F65E08},West Morris Area YMCA Masters (WMYM),/clubs/west-morris-area-ymca-masters,40.8660021,-74.58851729999999,NJ,Randolph
{E2EEABDD-08B9-41D4-ABA3-C6E302BCE691},L4L Aquatics (L4LA),/clubs/amphibians4life,40.90362390000001,-85.48682749999999,IN,Huntington
{DC78B42B-9D55-47C5-9188-CC07E515C6AF},Merritt Marlins (MERR),/clubs/merritt-marlins-873,39.39727490000001,-76.5731887,MD,Towson
{50CB39E9-B18E-46B0-904B-75BA6418455E},Mesa Aquatics Club-Masters (MMAC),/clubs/mesa-aquatics-club-masters-1302,33.431307,-111.8149382,AZ,Mesa
{E2261290-CCF7-4668-A018-A9398E6396EE},Central Washington University (CWUSC),/clubs/central-washington-university,47.00712050000001,-120.5401799,WA,Ellensburg
{028656B3-3C33-4F29-A30B-58177BCAB05E},SOCAL Aquatics Association (SCAL),/clubs/socal-aquatics-association-685,33.7363637,-117.8185496,CA,Tustin
{04883EFB-C6B6-4E70-9431-82E4FDE5E3A8},Unidos Masters Swim Team (UMST),/clubs/unidos-masters-swim-team,33.9055348,-118.125853,CA,Bellflower
{B349B918-F228-4F04-8B05-778382CBA6E3},Tulsa Masters Swim Club (TULS),/clubs/tulsa-masters-swim-club-558,36.0263147,-95.97184240000001,OK,Jenks
{26D08207-8CE9-43BF-8EA2-E6D511470F42},City of Plano Swimmers Wetcats (PCAT),/clubs/city-of-plano-swimmers-wetcats-613,33.02207489999999,-96.690113,TX,Plano
{38DAA48D-C1B4-4CD4-A255-8FCB6314DCB4},La Mirada Armada (RMDA),/clubs/la-mirada-armada-980,33.9072693,-118.0117185,CA,La Mirada
{C4BB77C8-A9EA-4CF3-8DFB-2756BD263D26},Prattville Swim League Masters (PSLM),/clubs/prattville-prehistoric-sea-lions-1701,32.4596186,-86.4593177,AL,Prattville
{07A4879E-A4F1-4EBF-8B54-D699D17B905D},Ladera Oaks Masters (LOM),/clubs/ladera-oaks-masters-726,37.398427,-122.1920984,CA,Portola Valley
{8D048489-6EB5-415B-BFFF-EF5850FC7CB2},City of Temecula Masters (CTMA),/clubs/city-of-temecula-masters-977,33.4998272,-117.1269464,CA,Temecula
{642A311B-9A5C-41BE-B74B-57F2E9BA5B83},Lake Highland Masters Swimming Club (LHM),/clubs/lake-highland-masters-swimming-club-2969,28.5567729,-81.37376119999999,FL,Orlando
{B9243B98-929C-4AC5-997E-1A54D55B9C4D},High Altitude Masters (HAM),/clubs/high-altitude-masters-1,35.6866198,-105.9607158,NM,Santa Fe
{24FE1505-3D51-4DFE-8E9C-A945A4F9A0C3},Columbia Masters (COLM),/clubs/columbia-masters-745,34.0180871,-81.02364580000001,SC,Columbia
{116B61DD-41B3-48DD-9675-24BDE68E9DFC},New Bedford Masters (WTF),/clubs/white-whale,41.64482599999999,-70.9469709,MA,New Bedford
{B9E76EE8-CFDB-4D7A-93B7-94964E5BC10E},Dedham Clippers Masters (DCMP),/clubs/dedham-clippers-masters,42.246833,-71.1617899,MA,Dedham
{2EE46C15-41D3-4F4F-8164-236AF354FAAE},Jersey Shore Masters (JSM),/clubs/jersey-shore-masters,40.2213754,-74.0222612,NJ,Asbury Park
{83E6F5CF-EC28-49D2-87CF-A56016891FFD},Mighty Kroc Masters Swim Club (SAMKM),/clubs/mighty-kroc-masters-swim-club-1,41.6787272,-87.652718,IL,Chicago
{D82DE7B8-D33B-4E17-8618-702C7FE0BC1E},Steel City Aquatics Masters (STEEL),/clubs/steel-city-aquatics-masters,40.4676906,-80.0775609,PA,McKees Rocks
{D9FB5BA3-CFFA-4C4B-AB19-A0C3DC4CF387},Rappahannock YMCA Master's Swim Team (RRY),/clubs/rappahannock-rockfish-ymca,38.2003171,-77.53318999999999,VA,Fredericksburg
{559D5E88-48BE-41F5-A7B5-E1A2D300C131},Cleveland Aquatic Team (CAQT),/clubs/cleveland-aquatic-team-1618,41.5020268,-81.67566479999999,OH,Cleveland
{F81B4DD2-7927-4BF6-A8D6-2EF0BDBCCC5A},Las Vegas Masters (LVM),/clubs/las-vegas-masters-471,36.1247497,-115.2714417,NV,Las Vegas
{3747D523-5D6D-4451-8E52-B5101A320AC6},University of San Francisco Masters (USF),/clubs/university-of-san-francisco-masters-742,37.7752675,-122.4517109,CA,SF
{F75C356B-3850-4530-93DC-886E10D03132},Terrapin Masters (TERR),/clubs/terrapin-masters-587,38.9929529,-76.9441866,MD,College Park
{5336B8DA-4DA1-489A-885A-169D1E9CFB2F},Lobo Aquatic Club Masters (LOBO),/clubs/lobo-aquatic-club,35.0997291,-106.6190111,NM,Albuquerque
{C9894758-0EBB-45BE-A2E2-8A21DAFA82F9},UCSF Masters (UCSF),/clubs/ucsf-masters-3220,37.767823,-122.3940576,CA,SF
{223B3AC3-6648-496B-A5C1-E9AB91E0DC4D},Coffman Family YMCA (CFY),/clubs/coffman-family-ymca,39.5818633,-84.2240738,OH,Springboro
{4DD3FC4C-A586-43DF-A9B4-1B7EBB8F0EED},Columbia Tri (CTRI),/clubs/columbia-tri-796,40.8056059,-73.9581532,NY,New York
{FB010D42-217C-40A2-9C12-E877684C5691},Lewis Clark Neptunes Masters (LCNM),/clubs/lewis-clark-neptunes-masters-1108,46.4005517,-117.0721463,WA,Clarkston
{2465B885-1EFE-4AD7-B72F-14BE9B3AD324},Indianapolis Healthplex (HPX),/clubs/community-healthplex-967,39.8216056,-86.224914,IN,Indianapolis
{AD6EBBC1-F113-4529-86E0-0219E0861DA2},Common Ground (CGCC),/clubs/common-ground-810,41.2743089,-96.2293708,NE,Omaha
{023A904E-DA65-4192-A2B3-C2EBC3886D85},Red Tide (REDT),/clubs/red-tide-599,40.7711041,-73.9897134,NY,New York
{89C24458-80DA-4A56-AC70-A3E75B3C8F76},Up and Running Swim and Tri (UAR),/clubs/up-and-running-swim-and-tri-1818,39.6654073,-84.2399976,OH,Dayton
{6792AB9C-D724-4AF1-9EF9-13815ACA19AF},Columbus Aquatic Club (HURM),/clubs/columbus-aquatic-club-1391,32.4769736,-84.9441181,GA,Columbus
{00863CB5-A95A-4573-809F-976161EB613E},Team Eugene Masters (TEAMM),/clubs/team-eugene-masters,44.0292334,-123.082105,OR,Eugene
{F3F362F6-CA86-4D9E-BFAD-89F36179246C},Clearwater Aquatic Masters (CAM),/clubs/clearwater-aquatic-masters-2285,27.9802419,-82.74445469999999,FL,Clearwater
{FDBF896F-088F-4BFA-AFDB-50FE3F1C06D4},Red Giants Masters Swimming (RGMS),/clubs/red-giant-masters-swimming-1043,30.34826309999999,-97.91257019999999,TX,Austin
{A7AD5AA7-AF6C-4B06-A5CE-58167B3A2E30},UCLA Bruin Masters (UCLA),/clubs/ucla-bruin-masters-450,34.0752345,-118.4510673,,
{320CAE9A-1B4B-475A-BCB7-F691720AA222},Florida League Of Aquatics (FLA),/clubs/florida-league-of-aquatics-485,30.4178847,-84.31545589999999,FL,Tallahassee
{0A78A8C7-02EA-42F7-8A0C-9FF86AB0C7D4},Miami Country Day Masters (MCDA),/clubs/miami-country-day-aquatics-1933,25.873881,-80.1844224,FL,Miami Shores
{93DA830F-C75C-4205-864C-BE2B39FE22BF},Intensity Endurance (NTSTY),/clubs/intensity-endurance,37.59514619999999,-77.57965329999999,VA,Henrico
{76D81FDD-D968-49B8-8D94-6D79166046D0},MANDEL JCC MASTERS (MAJCC),/clubs/mandel-jcc,41.47499829999999,-81.4916641,OH,Beachwood
{810ED305-7349-4B55-94B9-DB4917C71A25},FLEET Masters Swimming/Cy-Fair Swim Club (CFSC),/clubs/fleet-masters-swimmingcy-fair-swim-club-1182,29.9947868,-95.64900949999999,TX,Cypress
{7E1B5017-9172-4266-A736-C250F851CBE0},South Louisiana Swim Team (SLST),/clubs/south-louisiana-swim-team-1759,30.0000204,-90.19040539999999,LA,Metairie
{0A574747-3D45-4C7A-9192-A60A6A1654E6},Ventura Family YMCA (CIY),/clubs/ventura-family-ymca,34.2732538,-119.2439282,CA,Ventura
{1AFBE979-7706-436E-BE15-3E0864AC7A91},Parker Masters Swim Team (PRMST),/clubs/parker-masters-swim-team-1,39.5355552,-104.7848667,CO,Parker
{B294D5C8-0E1B-4D24-B66E-2B264FC9CD7A},Alameda Aquatic Masters (AAM),/clubs/alameda-aquatic-masters-743,37.7719122,-122.288715,CA,Alameda
{37B44BD5-63EF-4660-8227-35934A934E0C},Sporting Jax Aquatic Club (SJAC),/clubs/sporting-jax-aquatic-club,30.1182176,-81.3969398,FL,Nocatee
{9C929D96-12BF-4D8A-9C45-4849820919D6},Humboldt Masters Swimming (HUMB),/clubs/humboldt-masters-swimming-1,40.8758354,-124.0879025,CA,Arcata
{D7122C7C-B3CE-4E29-9BA4-973FBC7067E0},Middle TN Masters Swim Club (MTSC),/clubs/middle-tn-masters-swim-club-710,36.3018534,-86.6148484,TN,Hendersonville
{CBD7F485-F509-45B7-B0CF-57553E4F2D6F},Albany Armada Aquatics Masters (ALB),/clubs/albany-armada-aquatics-masters-2061,37.895112,-122.2920152,CA,Albany
{5BC9346A-8D9D-472E-A4DB-8DB2200172F5},Pegasus Aquatic Masters Swimming (PAMS),/clubs/pegasus-aquatic-masters-swimming,32.9400178,-96.6058255,TX,Garland
{02653D0C-E0E1-43D9-8DD8-08DD83D9CDC8},Flying Fish Heads (FFH),/clubs/flying-fish-heads-2516,40.5187074,-79.8694087,PA,Pittsburgh
{6DCEC50C-F89C-483D-9AA0-6E16597C43E6},Livermore Aquacowboys (LAC),/clubs/livermore-aquacowboys,37.6808679,-121.7417201,CA,Livermore
{3AEE5399-AF68-457C-8BC3-39FFFC200E6A},Alamo Area Aquatic Association (AAAA),/clubs/alamo-area-aquatic-association-507,29.5646489,-98.65335520000001,TX,San Antonio
{F2770EA2-B10B-43E5-824F-E7BD62D470C1},Mid-Cities Arlington Swimming Masters (MARS),/clubs/mid-cities-arlington-swimming-masters-792,32.9131816,-97.1245811,TX,Grapevine
{5C360E67-F3AE-4882-B3CB-630CEC1645F5},Swim Open Waters (SOWS),/clubs/swim-open-waters,32.8497305,-117.2746356,CA,San Diego
{F06597FB-3CB8-4AB0-ACFB-5644395BE003},North Florida Swimming (NFS),/clubs/north-florida-swimming,30.35734039999999,-81.5151104,FL,Jacksonville
{8DEC31B8-5B0C-4ADE-96D2-98D257277F23},Diamond Hills Masters (DHM),/clubs/diamond-hills-masters,37.9723024,-121.7304898,CA,Oakley
{FD5BF3E7-7BC4-42BF-B313-2C4C28EA70CC},Hydro Aquatics Club (HAC),/clubs/hydro-aquatics-club,34.1327901,-117.2955257,CA,San Bernardino
{C0B89116-4466-409C-8001-CA18A8523BE2},Colorado Torpedoes Masters (CT-M),/clubs/colorado-torpedoes-masters,38.8580322,-104.8980514,CO,Manitou Springs
{B40E75A2-A25A-434C-9055-5527BEECE175},Carrollton Bluefins (CBF),/clubs/carrollton-bluefins,33.6002013,-85.0591456,GA,Carrollton
{BC282542-B033-433A-A344-27488370EE57},HLHK Masters SEALS (HLHKM),/clubs/hlhk-masters-seals,33.6979271,-84.2954346,GA,Decatur
{38E8B706-EA12-4931-BCB1-2D4FD02D7F99},SwimRise Aquatics (SRA),/clubs/swimrise-aquatics,30.2702813,-81.5061922,FL,Jacksonville
{53509FF7-32E9-4304-8435-B5FB68EA642D},Life Time Mount Laurel (LTMTL),/clubs/life-time-mount-laurel,39.9278227,-74.964950,NJ,Mt Laurel Township
{B413B21C-4DA5-431D-853A-C765817DA5F4},MC Soakers (SOAK),/clubs/mc-soakers,37.1023444,-94.47537860000001,MO,Joplin
{7EA57EA1-8286-486B-8C3C-FF32346C893D},Trident Aquatic Club (TRDNT),/clubs/trident-aquatic-club,40.5949041,-74.1263817,NY,
{016C11E2-C717-4867-B59B-9DC39FB6557A},Kodiak Masters Swimming (KMS),/clubs/kodiak-masters-swimming,57.7944496,-152.3937163,AK,Kodiak
{2A420A93-1B01-4CE4-B6C9-55085503F00B},Jim Montgomery Masters Swim (JMMS),/clubs/jim-montgomery-masters-swim,32.8492451,-96.80850310000001,TX,Dallas
{20432308-3738-488E-97A0-6A2C91DF8D69},MOR Masters (MORM),/clubs/mor-masters,35.9111289,-78.5880079,NC,Raleigh
{AEFB2964-42CD-4A97-BD18-B9746142C239},South Shore Sails Masters (SSSMS),/clubs/south-shore-sails-masters,29.5438922,-95.0622624,TX,League City
{615A8F10-6A7E-4C13-9F3B-EBB6E03587C6},Macon Masters (MMGA),/clubs/macon-masters,32.9044491,-83.7232183,GA,Macon
{BB94BEC2-72A1-45A5-823E-3B872B9856ED},Eagle Swimming Assocation (ESA),/clubs/eagle-swimming-assocation,29.9815759,-95.2473886,TX,Humble
{FF0B1E27-72DE-483D-8197-865CF65AD2F8},Hershey Masters (HACMS),/clubs/hershey-masters,40.2786824,-76.6459014,PA,Hershey
{569A08D2-4841-494F-981F-E54F76BFBEB1},Lynchburg Aquatic Club (LACG),/clubs/lynchburg-aquatic-club,37.4087944,-79.22530549999999,VA,Lynchburg
{53FED8DD-1202-499D-B5AC-14C7B75D1962},Black Butterfly Swim Club of Winston Salem (BB-WS),/clubs/black-butterfly-swim-club-of-winston-salem,36.0187822,-80.3942198,NC,Clemmons
{FB7A1381-E716-4400-BB45-EE90547DDE6B},Country Roads Aquatics- Mylan Park (CRAMP),/clubs/country-roads-aquatics-mylan-park,39.646142,-80.04525699999999,WV,Morgantown
{90F15968-A275-44DC-9D7D-AC5E0CEE44DF},Frogs of SoCal (FRSC),/clubs/frogs-of-socal,34.5765845,-118.1114906,CA,Palmdale
{34438102-CDC1-4674-9419-15F2EBDDBA92},Trinity Aquatics Masters (TRIM),/clubs/trinity-aquatics-masters-1,32.7302217,-116.925171,CA,Spring Valley
{B0053CE6-8EED-4ACF-BA76-D5A03EDC3E50},Crystal Coast Aquatics Masters (CCA-M),/clubs/crystal-coast-aquatics-masters,34.6766891,-77.36558730000002,NC,Jacksonville
{DBEED568-CA7A-478D-97C8-3FBEE3C01974},Viking Masters (VM),/clubs/viking-masters,41.50206499999999,-81.672597,OH,Cleveland
{9D1BB3D5-8C93-4C18-B101-32C047F117E6},Cal Lutheran Masters Swimming (CLMS),/clubs/cal-lutheran-masters-swimming,34.224349,-118.877217,CA,Thousand Oaks
{6CD35B08-8BB9-4A73-9E1A-F1FE188C7521},Dragon Masters Swim Club (DRGNS),/clubs/dragon-masters-swim-club-1,37.6743995,-113.0687309,UT,Cedar City
{2BD6A695-FC18-49F9-A8AC-AF6098353952},Michigan Queer Aquatix (MINQX),/clubs/michigan-queer-aquatix,42.2875127,-83.7284083,MI,Ann Arbor
{835BDD74-588F-4F03-B964-EBBAF4FA5847},Fresno Dolphins Masters Swim Team (FDM),/clubs/fresno-dolphins-masters-swim-team-948,36.81722010000001,-119.8086035,CA,Fresno
{2E70A986-C005-4011-8954-AEC481E64AC4},Swim for Heart (S4H),/clubs/swim-for-heart,35.8377158,-90.6896105,AR,Jonesboro
{AD143BF1-B747-4BCF-A9AA-58AA68CB6CFA},Santa Clarita Valley Swimming and Triathlon (SCVST),/clubs/santa-clarita-valley-swimming-and-triathlon,34.4114319,-118.4998762,CA,Santa Clarita
{B6A646E5-1E3E-4438-82E3-945C527A0C56},Elk Grove Aquatics Club (EGAC),/clubs/elk-grove-aquatics-club,38.4055253,-121.4026245,CA,Elk Grove
{09352601-17D2-463F-9F85-C2E29708AB55},Coastal Tide Masters Swim Club (CTME),/clubs/coastal-tide-masters-swim-club,43.6597649,-70.2591621,ME,Portland
{13C129D9-A647-4BF1-9057-0F93EAACE57C},Ithaca YMCA Masters Team (IYMT),/clubs/ithaca-ymca-masters-team,42.48640109999999,-76.4903769,NY,Ithaca
{9C71F77B-DD11-40CB-B8F1-BB0806129B63},Tsunami Masters (NAMI),/clubs/sport-health-tsunami-masters-2151,38.917248,-77.21517,VA,McLean
{64A798CD-EAE1-4CBF-9B7B-B01CB5AA09A8},Spartacus Training & Racing (STR),/clubs/spartacus-training-racing-516,33.114780,-117.263260,CA,Carlsbad
{9F005231-DC0C-43E7-9211-7CA69FBA3F76},Montgomery Ancient Mariners (ANCM),/clubs/montgomery-ancient-mariners-594,38.9745115,-77.1002199,MD,Bethesda
{49B3042A-1475-46A8-860D-A9C6226D472B},Fredericksburg American Family Fitness (FAFF),/clubs/fredricksburg-american-family-fitness-998,38.2363295,-77.5041621,VA,Fredericksburg
{5ED879D9-0DA7-4B2D-A42E-E9AD6C5176B3},Freedom Aquatics (FREE),/clubs/freedom-aquatics-3422,40.51496340000001,-74.2762528,NJ,Perth Amboy
{B2E8C2FA-A12C-47F8-8D0D-00F864D6538F},Space Coast Masters (SPCO),/clubs/space-coast-masters-539,28.1453801,-80.5945868,FL,Indian Harbour Beach
{EAD909CD-B0CD-4D12-A0CD-A00F893DC6CB},Olympia Masters Swimming (OMS),/clubs/olympia-masters-swimming,47.0038995,-122.8820542,WA,Olympia
{2AAF22F1-29D6-4E8E-878E-52A5E1B6F601},Tiger Aquatics Masters (TIGR),/clubs/tiger-aquatics-masters,40.5105782,-80.2210249,PA,Coraopolis
{5065CCA1-02A0-446E-9A45-1F3FBC79B874},Oak Park MASTERS (PDOPM),/clubs/oak-park-masters,41.8710422,-87.78818210000001,IL,Oak Park
{AC38147B-ABA0-4B3E-B666-F93FED8C8278},Friends' Central Aquatics (FCA),/clubs/friends-central-aquatics-1073,39.9852218,-75.261715,PA,Wynnewood
{3E017E40-10A6-4BD1-88E2-E5F6EE1C53A5},Fullerton FAST Masters Team (FMT),/clubs/fullerton-fast-masters-team-788,33.8674369,-117.9392237,CA,Fullerton
{EA15F842-1AB4-4A75-8AFF-3FD5C62DDCF9},ACAC Five Forks Masters Swim (SSCM),/clubs/sportsclub-swim-club-masters-1524,34.8035106,-82.2263308,SC,Simpsonville
{DBD41C20-91E2-4379-A915-78D0D0A5F4B5},Moscow Chinooks Masters Swimming (MCM),/clubs/moscow-chinooks-masters-swimming-2550,46.7410546,-116.9794661,ID,Moscow
{FB47639B-0F35-4E62-8AF5-18F4F6F287FE},Aquasol Masters (AQUM),/clubs/aquasol-masters-740,38.6606292,-121.0038527,CA,Cameron Park
{80B38ECE-6071-400E-9B35-9EA9B5E2A64C},Spokane Sturgeons Swim Club (STRG),/clubs/spokane-sturgeons-swim-club-3022,47.6716774,-117.3908007,WA,Spokane
{76DBF869-F33A-47AE-92CB-295A681174A5},Arlington Axolotls (AXOL),/clubs/arlington-axolotls,38.8703143,-77.0433345,VA,Arlington
{ABDE5C34-4124-4BE4-BF60-7629D7986AC5},Palm Springs Swim Club (PSS),/clubs/palm-springs-swim-club,33.8170268,-116.5252612,CA,Palm Springs
{1BE06B0B-54AD-4148-A785-E0E4D69B2463},Aqua Raiders of Chattanooga (ARC),/clubs/aqua-raiders-of-chattanooga-2884,35.0863538,-85.3376483,TN,Chattanooga
{56256591-D5F6-4232-8610-C1E814BD1FA9},Spokane Club Masters (SCM),/clubs/spokane-club-masters-3031,47.65879009999999,-117.4271094,WA,Spokane
{86BFAE80-9F20-4F63-A4CF-01472CDCE5C1},Front Runners New York (FRNY),/clubs/front-runners-new-york-2141,40.77962429999999,-73.9465444,NY,New York
{CF23004A-A798-450D-98B8-B4EA8DF69B33},Ambush Swimming (ETEX),/clubs/ambush-swimming-879,31.6095074,-94.6287555,TX,Nacogdoches
{2746C70D-BB82-474E-8E53-D2348CF5D2E3},Andrew and Walter Young YMCA Masters Swim Team (AWYY),/clubs/andrew-and-walter-young-ymca-masters-swim-team-2588,33.7044344,-84.4616483,GA,Atlanta
{38672FF9-D964-4AC6-B14B-301DDF910E16},Cardinal Swimming Indiana (CSIN),/clubs/cardinal-swimming-indiana,40.201040,-85.388736,IN,Muncie
{813B2F3C-9C54-4D10-81AA-B3C30F4C0714},Shasta Y Master Sharks (SYSM),/clubs/shasta-y-master-sharks,40.58745979999999,-122.3976097,CA,Redding
{FF794DBE-1AFC-456F-A37C-9DC415AE5815},Modesto Area Aquatic Club (MAAC),/clubs/modesto-area-aquatic-club-629,37.6530991,-121.0084319,CA,Modesto
{6A235B69-28FA-4D42-AF3B-92F8E64DF2C2},Fort Worth Area Swim Team (FAST),/clubs/fort-worth-area-swim-team-608,32.3387457,-97.3863105,TX,Cleburne
{E2F9CFB9-001A-4A08-B404-028BAE10A946},"Ardmore, OK (AOK)",/clubs/ardmore-ok,34.1894514,-97.1392188,OK,Ardmore
{C58EC186-97DB-4494-BE83-C5DC1704CD44},Amarillo Masters Program (AMP),/clubs/amarillo-masters-program-1217,35.1615395,-101.8938861,TX,Amarillo
{12559CB0-F812-49C6-961C-81A4C868BA05},Southern Marlins Racing Team (SMRT),/clubs/southern-marlins-racing-team-896,32.7992853,-79.9392488,SC,Charleston
{BC63F9C9-0D5F-4843-BE81-ECE5840FA476},Mission Viejo Masters (MVN),/clubs/mission-viejo-masters-441,33.6163273,-117.652033,CA,Mission Viejo
{194A4DF4-28B9-4163-8B93-C1B1AE65624F},Ottawa Masters Dolphins Swim Team (ODMST),/clubs/ottawa-masters-dolphins-swim-team,41.34421019999999,-88.8460577,IL,Ottawa
{EC38BF8A-6CCA-43B8-81EC-D999CA06EB75},Alamo Area Masters at Alamo Heights - AAMAH (AAMAH),/clubs/alamo-area-masters-at-alamo-heights,29.5257566,-98.48688109999999,TX,San Antonio
{D000C3BB-DDAC-4E1B-89C5-D0F7F8DF284F},Sussex Family YMCA (SFYDE),/clubs/sussex-family-ymca,38.7121925,-75.09880079999999,DE,Rehoboth Beach
{F09D53EB-C387-43BA-9B66-CFFAB4E64816},Big Blue Swim School Sandy Plains (BBSP),/clubs/big-blue-swim-school-sandy-plains,34.0342579,-84.4654614,GA,Marietta
{06A8C636-46A8-498C-B4C4-A2FB462564EA},Black Dog Swim (BLKDG),/clubs/black-dog-swim,43.0702339,-75.2868501,NY,New Hartford
{72E3FE7A-A26E-4684-9F55-86891795E4AD},Elkhart Aquatic Masters (ELK),/clubs/elkhart-aquatic-masters,41.6894841,-85.9721199,IN,Elkhart
{925128A2-C36C-4800-96C0-6AE0FFE0EBC9},Decorah Masters (DST),/clubs/decoarh-masters,43.3133043,-91.79967239999999,IA,Decorah
{34737C9E-A65A-4E7B-A6C3-B460F35A377E},Turtles & Torpedoes (TNT),/clubs/turtles-torpedoes,34.02691009999999,-84.650019,GA,Kennesaw
{29857C75-DAAB-4CF8-965C-FDC39A983AC0},ARC Masters (ARCM),/clubs/arc-masters,36.49976120000001,-80.6046215,NC,Mt Airy
{9169948C-E28D-4A30-98F4-90F11EA925A2},Willmar Aquatic Racing Stingrays Master Program  (WARSM),/clubs/willmar-aquatic-racing-stingrays-master-program,45.1123796,-95.0394682,MN,Willmar
{BBDCD486-024C-4E1D-9862-18585372CAD9},LGS Recreation Masters Swim Team (LGSRM),/clubs/lgs-recreation-masters-swim-team,37.2224053,-121.9765652,CA,Los Gatos
{8EF027E3-1652-4C3A-8550-89ABE6FFEF24},Watauga Tridents (WTMST),/clubs/watauga-tridents,36.2038411,-81.6537419,NC,Boone
{4D1E69D6-3C3B-4B55-8B69-F7F34D66FCCD},Space Coast Aquanauts (AQNT),/clubs/space-coast-aquanauts-488,27.7588912,-80.4193538,FL,
{94234D02-1321-47F5-A144-5E3BC2F3351C},Monterey Bay Masters Seaside AC/ MBAY (MBAY),/clubs/monterey-bay-masters-seaside-ac-862,36.6013446,-121.844919,CA,Seaside
{8DA036A3-CC38-4CAA-9C96-9804A8C3772B},BLUE Swimming (BLUE),/clubs/blue-swimming,40.7466421,-75.29497889999999,PA,Nazareth
{E3CFCDBF-294A-45F3-A06F-F0D8BB476590},Franco's Fins Masters (FINM),/clubs/francos-fins-masters-1465,30.4056319,-90.12683229999999,LA,Mandeville
{31FCB11E-E694-4D1E-8982-44097E28437A},SW Masters Swimming (SWMS),/clubs/southwest-multi-sport-3113,35.0739463,-106.5879393,NM,Albuquerque
{542D7386-C933-4FA7-BDA0-E40FACB7C881},YMCA at the Heights ((HHY)),/clubs/ymca-at-the-heights,39.87658529999999,-84.10079689999999,OH,Huber Heights
{156E4DE3-BC7A-4A66-8322-3123AF88D29A},Team Sopris (SOPR),/clubs/team-sopris-1,39.55122739999999,-107.3389648,CO,Glenwood Springs
{1B54BAFD-6613-4419-87FB-9A788C9DB6BF},Carol Stream (CSPD),/clubs/carol-stream,41.9283954,-88.12107449999999,IL,Carol Stream
{C089A382-7980-48F2-84A2-0BB1081C3AA8},Atlantis Swimming Federation (ASF),/clubs/atlantis-swimming-federation,44.2861686,-93.2849289,MN,Faribault
{F706E583-3798-4B96-9B8D-296B1927BEA4},Ames Masters Aquatics Club (AMAC),/clubs/ames-masters-aquatics-club-3294,42.0403258,-93.6317335,IA,Ames
{5713CC10-FC62-44DB-8878-2EA69825108F},Broadstone Aquatic Masters of Folsom (BAMF),/clubs/broadstone-aquatic-masters-of-folsom,38.6486422,-121.1355428,CA,Folsom
{9BBC91BD-E0EF-4FD8-99E7-83A0B145864F},Southwest Indiana Masters (SWIN),/clubs/southwest-indiana-masters-1635,38.3795609,-86.9438239,IN,Jasper
{0E69A0F3-F800-4B2A-BFBD-7F82C4B5D5F5},Issaquah Masters Swim Team (IMST),/clubs/issaquah-masters-swim-team,47.5682663,-122.0019573,WA,Issaquah
{4AF75951-FA97-4763-9672-FDCCF54F6FFD},AGUA Masters (AGUA),/clubs/asphalt-green-masters-766,40.7781947,-73.943446,NY,New York
{5542255F-0704-44BD-83FC-E4FEBBBBF634},Moses Lake Masters (MRA),/clubs/manta-ray-aquatics,47.1126973,-119.2657106,WA,Moses Lake
{EA368B38-D48B-4E3A-84B8-C7678F9E5F02},New Braunfels Masters Swimmers (NBM),/clubs/new-braunfels-masters-swimmers,29.704220,-98.1361729,TX,New Braunfels
{87C621EA-678D-418C-952A-854B0B8B0F05},Golden West Swim Club (GWSC),/clubs/golden-west-swim-club-440,33.7356272,-118.0003578,CA,Huntington Beach
{64777750-DF9C-453D-B08B-EB12E288D51F},Stephens Family YMCA (SFY),/clubs/stephens-family-ymca-2316,40.0813085,-88.31071870000001,IL,Champaign
{A90B4831-F09D-49F7-AFE7-4FBA9163FBAD},New Albany Aquatics Club (NAM),/clubs/new-albany-aquatics-club-1129,40.0844043,-82.8155185,OH,New Albany
{F901F15D-E51D-4AC0-A800-831C80C4C851},Ashburn Farm Masters Swimming (AFMS),/clubs/ashburn-farm-masters-swimming-2462,39.0287596,-77.4915048,VA,Ashburn
{3F05063F-13E3-49D5-835F-DB6C88680441},Razorback Aquatic Club AquaHawgs (HAWG),/clubs/razorback-aquatic-club-aquahawgs,36.1868307,-94.1195558,AR,Springdale
{EBC99A58-420A-404B-A10C-505A4BBC5015},Velocity Swimming (VS),/clubs/velocity-swimming,47.40888469999999,-120.273296,WA,East Wenatchee
{32996960-7097-441F-8388-D0696F55E796},Poseidon Masters (PSDN),/clubs/poseidon-masters,37.408591,-77.6803249,VA,Midlothian
{B8560FF6-E85E-4AA3-93A7-8835D6D93454},YMCA of Orange County Masters (YOCMS),/clubs/ymca-of-orange-county-masters,33.89103680000001,-117.9274174,CA,Fullerton
{8E0F9CA4-13BE-4914-9CB0-89762321CF13},Tule Nation Tritons (TNT-H),/clubs/tule-nation-tritons,36.5181628,-119.5472666,CA,Kingsburg
{A7A5E440-5F93-499B-A3C1-102279E72853},Roadrunners of Albuquerque Aquatic Club (RAACM),/clubs/roadrunners-of-albuquerque-aquatic-club,35.0953674,-106.7170881,NM,Albuquerque
{34088C1B-EAE9-4AA3-988B-E06733BD06F6},Palm Springs Masters Swim Team (PSMS),/clubs/palm-springs-masters-swim-team,33.8171848,-116.5245347,CA,Palm Springs
{ACEAABF6-6D96-42B2-938B-27FBA33AA996},Central Ohio Aquatics Sharks (COAS),/clubs/central-ohio-aquatics-sharks,39.9683327,-82.9473916,OH,Columbus
{B4030A19-F12E-4797-B8CD-8DF32EE3CE22},Shadow Hills Masters (DCMSC),/clubs/desert-cities-masters,33.765037,-116.270561,CA,
{AD739D02-F610-4CF9-9692-9C18C7928508},Fort Wayne YMCA Sharks (FWYS),/clubs/fort-wayne-ymca-sharks-2269,41.1295846,-85.07121389999999,IN,Fort Wayne
{C5EA0C8C-3CE9-4ED0-8F35-9B360E65275B},YMCA of South Florida Masters (YSFM),/clubs/ymca-of-south-florida-masters,25.9796976,-80.1475648,FL,Hallandale Beach
{ED72CE10-0A46-4F4F-ADB1-3854D15F953C},District Of Columbia Aquatics Club (DCAC),/clubs/district-of-columbia-aquatics-club-620,38.9084473,-76.9323466,DC,Washington
{EC04D9D0-35AD-4C33-9A41-BB2381DDD262},Centre Club Gurnee Masters Swim Club (CCGMS),/clubs/centre-club-gurnee-masters-swim-club,42.3808482,-87.9615062,IL,
{7813A2C8-3DAE-4991-A843-54077DB0E1A2},Anne Arundel Amphibians (AAA),/clubs/anne-arundel-amphibians-634,38.9742574,-76.56264159999999,MD,Annapolis
{F04E236C-3C87-441D-AA65-2DB6B4D4DC04},Alexandria Masters Swimming (ALEX),/clubs/alexandria-masters-swimming-565,38.7737591,-77.1111889,VA,Alexandria
{61E8F0A5-1E28-41AA-A142-1F80DC0C5C07},SUWC Wahoos (SUMS),/clubs/shepherd-university-wellness-center-masters,39.435675,-77.8125512,WV,Shepherdstown
{A3E6EB15-87F4-4D23-87AF-22309BFFAD60},Bearcat Masters (BCTM),/clubs/bearcat-masters-804,40.7190689,-73.9763909,NY,New York
{9D65D0D5-F7D3-4AC6-8A02-96B84988165E},Sacramento Masters (SACMA),/clubs/sacramento-masters,38.6608063,-121.5176354,CA,Sacramento
{4AA0A086-7179-4433-A7E2-3FC6B8706780},Sylvania Masters Swim Club (SYL),/clubs/sylvania-masters-swim-club-574,41.7126311,-83.71085289999999,OH,Sylvania
{444AAF0F-1CBA-4FA8-9D2B-E7C742ABD527},Sienna Premier Aquatic Masters (SPAM),/clubs/sienna-plantation-aquatic-masters-869,29.4965436,-95.519289,TX,Missouri City
{AAAA0730-66A1-4E5D-90F1-74BD134C7289},Jersey Aquatic Center Masters (JACM),/clubs/jersey-aquatic-center-masters,40.698573,-74.40621089999999,NJ,New Providence
{DDFED5B7-E7D2-45D4-96DC-3448619B22C5},INW Y Aquatic Masters (INAM),/clubs/inw-y-aquatic-masters,47.6661218,-117.4258829,WA,Spokane
{E5944649-37B0-4EB4-B869-A6D27F080709},Atlanta Rainbow Trout (ART),/clubs/atlanta-rainbow-trout-570,33.77562949999999,-84.40390409999999,GA,Atlanta
{9BFA7F11-E1DD-4C77-8BC1-4DA7D2C9898B},City of Mobile Masters (CMSA),/clubs/city-of-mobile-masters,30.6951952,-88.0569226,AL,Mobile
{4ACDD224-B2F8-4E0A-B545-CCF047874A5F},Memorial Athletic Club Aquatics (MACA),/clubs/memorial-athletic-club-aquatics-677,29.77215889999999,-95.60805669999999,TX,Houston
{D6B8A6A8-D4B0-45B3-AC39-2221D480C0AC},Ohio Splash (OHSP),/clubs/ohio-splash-785,39.985712,-83.0090285,OH,Columbus
{04C123D9-CD83-4744-AF84-BE195213FAF3},Dell Jewish Community Center Masters (DJCCM),/clubs/dell-jewish-community-center-masters-1,30.3566776,-97.7562492,TX,Austin
{637ECBCD-87D6-45E8-8AC3-B8B232020825},Mindful Swim Fitness (MSF),/clubs/mindful-swim-fitness,38.98515769999999,-77.0957857,MD,Bethesda
{376C465A-531E-486F-92BC-91B1949525C6},Swim Melbourne Masters (MELB),/clubs/swim-melbourne,28.3127811,-80.633808,FL,Cocoa Beach
{3145CA3D-5959-472F-B18D-20445414E284},Blue Whales Aquatic Club (BWAC),/clubs/blue-whales-aquatic-club,39.6077788,-110.806910,UT,Price
{69499268-335B-4C15-9527-EBD5FD1FDC14},Big Blue Swim School Concord (BBSSC),/clubs/big-blue-swim-school-concord,35.3726902,-80.726924,NC,Concord
{B55B7DD3-1977-4CA7-8605-E9B4E6721B72},Lakeside Aquatic Club Masters (LACM),/clubs/lakeside-aquatic-club-masters,32.9302907,-97.2293027,TX,Keller
{34308450-EC0C-4EC0-A948-F18390A3BF12},Fontana Aquatics Club Masters (FACM),/clubs/fontana-aquatics-club-masters,34.1520124,-117.4636882,CA,Fontana
